{"type":"FeatureCollection","features":[{"type":"Feature","properties":{"NAME":"Archduchy of Austria","SUBJECTO":"Holy Roman Empire","PARTOF":"Holy Roman Empire","BORROWED_FROM":{"year":1500,"file":"data/hre_1500.geojson","sourceRef":"Roller territories_manual: id=Österreich"}},"geometry":{"type":"Polygon","coordinates":[[[14.678,48.013],[14.652,47.987],[14.653,47.943],[14.667,47.931],[14.716,47.928],[14.72,47.911],[14.66,47.822],[14.658,47.78],[14.626,47.767],[14.548,47.696],[14.482,47.676],[14.448,47.647],[14.319,47.619],[14.25,47.576],[14.195,47.569],[14.106,47.595],[13.917,47.601],[13.89,47.661],[13.862,47.678],[13.774,47.682],[13.653,47.67],[13.628,47.663],[13.606,47.629],[13.608,47.587],[13.638,47.53],[13.639,47.485],[13.61,47.465],[13.536,47.453],[13.499,47.454],[13.469,47.492],[13.403,47.536],[13.404,47.566],[13.429,47.615],[13.401,47.646],[13.444,47.69],[13.346,47.726],[13.404,47.775],[13.267,47.786],[13.231,47.813],[13.228,47.831],[13.227,47.918],[13.275,47.919],[13.287,47.927],[13.253,47.985],[13.291,48.034],[13.342,48.051],[13.369,48.083],[13.4,48.091],[13.468,48.089],[13.477,48.096],[13.48,48.188],[13.488,48.204],[13.51,48.213],[13.514,48.201],[13.536,48.201],[13.552,48.221],[13.552,48.234],[13.602,48.263],[13.604,48.288],[13.597,48.304],[13.496,48.463],[13.486,48.503],[13.498,48.539],[13.519,48.535],[13.547,48.515],[13.579,48.475],[13.603,48.472],[13.623,48.475],[13.694,48.521],[13.716,48.541],[13.737,48.58],[13.77,48.611],[13.808,48.731],[13.85,48.772],[13.867,48.775],[13.918,48.76],[13.965,48.722],[14.01,48.709],[14.053,48.684],[14.061,48.67],[14.035,48.623],[14.058,48.612],[14.144,48.615],[14.166,48.602],[14.412,48.596],[14.429,48.635],[14.462,48.652],[14.49,48.626],[14.628,48.595],[14.705,48.586],[14.689,48.623],[14.74,48.659],[14.746,48.682],[14.805,48.729],[14.821,48.78],[14.862,48.815],[14.877,48.872],[14.919,48.891],[14.946,48.882],[14.968,48.884],[14.997,48.912],[14.979,48.967],[14.982,48.982],[15.01,49.01],[15.041,49.022],[15.138,49.011],[15.162,48.995],[15.16,48.963],[15.167,48.96],[15.271,48.989],[15.31,49.021],[15.39,49.016],[15.48,48.977],[15.555,48.974],[15.69,48.927],[15.808,48.907],[15.87,48.906],[15.946,48.865],[16.026,48.781],[16.083,48.746],[16.188,48.743],[16.243,48.75],[16.402,48.738],[16.423,48.741],[16.478,48.793],[16.513,48.8],[16.551,48.796],[16.556,48.804],[16.588,48.81],[16.608,48.807],[16.665,48.76],[16.764,48.738],[16.785,48.725],[16.822,48.72],[16.873,48.73],[16.89,48.724],[16.905,48.699],[16.908,48.609],[16.935,48.573],[16.938,48.523],[16.9,48.485],[16.865,48.395],[16.837,48.349],[16.788,48.35],[16.801,48.3],[16.789,48.299],[16.798,48.261],[16.786,48.239],[16.84,48.173],[16.845,48.135],[16.881,48.098],[16.867,48.093],[16.866,48.083],[16.912,48.001],[16.96,47.964],[16.971,47.934],[16.93,47.941],[16.937,47.905],[16.927,47.892],[16.889,47.881],[16.86,47.892],[16.827,47.927],[16.814,47.907],[16.684,47.908],[16.679,47.88],[16.641,47.883],[16.572,47.83],[16.532,47.844],[16.498,47.881],[16.478,47.891],[16.456,47.89],[16.398,47.869],[16.368,47.845],[16.35,47.79],[16.34,47.78],[16.284,47.796],[16.284,47.785],[16.305,47.769],[16.297,47.74],[16.318,47.704],[16.343,47.611],[16.312,47.562],[16.305,47.517],[16.279,47.48],[16.272,47.443],[16.24,47.422],[16.166,47.409],[16.126,47.425],[16.109,47.441],[16.088,47.491],[16.072,47.5],[16.052,47.504],[15.986,47.488],[15.959,47.49],[15.925,47.52],[15.897,47.531],[15.804,47.547],[15.782,47.558],[15.742,47.606],[15.718,47.616],[15.662,47.62],[15.511,47.716],[15.401,47.74],[15.376,47.77],[15.332,47.772],[15.3,47.789],[15.277,47.792],[15.247,47.816],[15.226,47.82],[15.191,47.803],[15.15,47.812],[15.1,47.803],[15.066,47.783],[14.994,47.798],[14.967,47.779],[14.89,47.798],[14.828,47.77],[14.744,47.781],[14.787,47.824],[14.85,47.83],[14.873,47.84],[14.882,47.865],[14.862,47.886],[14.847,47.89],[14.784,47.864],[14.748,47.859],[14.741,47.867],[14.749,47.906],[14.804,47.951],[14.808,47.964],[14.793,47.988],[14.759,48.002],[14.748,48.014],[14.747,48.043],[14.76,48.071],[14.752,48.077],[14.712,48.063],[14.678,48.013]]]}}],"metadata":{"borrowedFrom":[{"name":"Archduchy of Austria","year":1500,"file":"data/hre_1500.geojson","sourceRef":"Roller territories_manual: id=Österreich","reason":"1490 年のチロル継承・1493 年の世襲領統合を経たハプスブルク家の世襲領で、1492 年と 1500 年で上・下オーストリアの領域に有意な変動が無い。1453 年の大公位昇格は称号の変更であって領域の断絶ではない。"}],"source":"Territories of the Holy Roman Empire (Roller, ETH Zürich)","sourceUrl":"https://doi.org/10.3929/ethz-b-000472583","license":"CC BY-NC-SA 4.0","borderPrecision":"史料に基づく復元（概略。測量された境界ではない）"}}