{"type":"FeatureCollection","features":[{"type":"Feature","properties":{"NAME":"Electorate of Saxony","SUBJECTO":"Holy Roman Empire","PARTOF":"Holy Roman Empire","BORROWED_FROM":{"year":1700,"file":"data/hre_1700.geojson","sourceRef":"Roller territories_manual: id=albertinischesSachsennach1635"}},"geometry":{"type":"MultiPolygon","coordinates":[[[[10.48,51.215],[10.477,51.205],[10.465,51.202],[10.449,51.203],[10.428,51.218],[10.445,51.23],[10.48,51.215]]],[[[11.458,51.056],[11.456,51.044],[11.412,51.031],[11.38,51.034],[11.374,51.043],[11.379,51.061],[11.408,51.077],[11.442,51.073],[11.458,51.056]]],[[[11.083,51.087],[11.092,51.066],[11.053,51.053],[11.018,51.059],[10.999,51.074],[10.998,51.086],[11.083,51.087]]],[[[10.987,51.331],[10.991,51.32],[10.938,51.311],[10.917,51.311],[10.902,51.324],[10.857,51.334],[10.874,51.351],[10.902,51.359],[10.94,51.345],[10.967,51.345],[10.987,51.331]]],[[[10.792,51.346],[10.768,51.333],[10.746,51.333],[10.717,51.339],[10.708,51.345],[10.708,51.355],[10.752,51.364],[10.792,51.346]]],[[[12.201,50.714],[12.201,50.706],[12.172,50.706],[12.152,50.724],[12.118,50.735],[12.091,50.719],[12.073,50.727],[12.05,50.711],[12.017,50.706],[12.015,50.695],[11.978,50.683],[11.976,50.669],[11.95,50.657],[11.9,50.653],[11.88,50.664],[11.81,50.637],[11.747,50.58],[11.731,50.581],[11.694,50.604],[11.661,50.597],[11.662,50.582],[11.63,50.577],[11.601,50.561],[11.582,50.583],[11.562,50.583],[11.533,50.568],[11.521,50.576],[11.492,50.608],[11.497,50.664],[11.472,50.684],[11.473,50.706],[11.497,50.716],[11.509,50.718],[11.538,50.702],[11.587,50.713],[11.589,50.732],[11.554,50.732],[11.559,50.754],[11.693,50.789],[11.699,50.807],[11.715,50.814],[11.787,50.827],[11.871,50.896],[11.966,50.881],[12.045,50.845],[12.064,50.844],[12.091,50.858],[12.109,50.852],[12.127,50.827],[12.29,50.808],[12.312,50.82],[12.31,50.863],[12.383,50.867],[12.404,50.88],[12.417,50.873],[12.44,50.88],[12.548,50.95],[12.615,50.949],[12.625,50.935],[12.65,50.934],[12.668,50.938],[12.674,50.956],[12.637,50.985],[12.564,50.982],[12.536,50.997],[12.528,51.007],[12.535,51.008],[12.52,51.016],[12.526,51.025],[12.557,51.032],[12.52,51.088],[12.486,51.097],[12.48,51.123],[12.377,51.122],[12.358,51.126],[12.356,51.134],[12.344,51.123],[12.273,51.119],[12.238,51.136],[12.226,51.157],[12.192,51.153],[12.187,51.086],[12.179,51.079],[12.117,51.076],[12.102,51.051],[12.06,51.049],[12.047,51.026],[11.988,51.009],[11.96,50.983],[11.95,50.988],[11.939,51.019],[11.924,51.022],[11.912,51.018],[11.907,51.006],[11.91,50.987],[11.875,50.985],[11.866,51.001],[11.829,51.004],[11.78,50.988],[11.74,50.96],[11.646,50.953],[11.602,50.953],[11.478,50.996],[11.495,51.017],[11.537,51.006],[11.563,51.016],[11.551,51.047],[11.586,51.065],[11.591,51.082],[11.575,51.089],[11.537,51.078],[11.524,51.083],[11.509,51.107],[11.492,51.106],[11.487,51.086],[11.478,51.08],[11.425,51.103],[11.458,51.126],[11.452,51.159],[11.463,51.186],[11.447,51.188],[11.363,51.174],[11.358,51.169],[11.371,51.154],[11.332,51.133],[11.305,51.134],[11.266,51.15],[11.197,51.114],[11.171,51.115],[11.162,51.151],[11.124,51.162],[11.118,51.153],[11.125,51.146],[11.118,51.141],[11.051,51.128],[11.02,51.133],[10.999,51.129],[10.878,51.068],[10.799,51.072],[10.793,51.086],[10.816,51.109],[10.814,51.119],[10.791,51.126],[10.76,51.118],[10.748,51.1],[10.698,51.099],[10.625,51.063],[10.53,51.093],[10.449,51.095],[10.395,51.134],[10.399,51.146],[10.422,51.155],[10.474,51.159],[10.55,51.189],[10.577,51.19],[10.585,51.18],[10.597,51.186],[10.596,51.209],[10.633,51.228],[10.695,51.207],[10.722,51.211],[10.727,51.219],[10.804,51.199],[10.916,51.182],[10.952,51.184],[10.967,51.192],[10.927,51.221],[10.941,51.241],[11.001,51.268],[10.983,51.285],[10.989,51.29],[11.13,51.297],[11.184,51.29],[11.261,51.256],[11.316,51.278],[11.339,51.28],[11.356,51.307],[11.369,51.31],[11.369,51.34],[11.38,51.361],[11.381,51.372],[11.35,51.415],[11.338,51.422],[11.327,51.408],[11.298,51.398],[11.163,51.381],[11.139,51.385],[11.123,51.408],[11.132,51.432],[11.128,51.452],[11.222,51.492],[11.179,51.499],[11.161,51.513],[11.3,51.541],[11.316,51.541],[11.355,51.521],[11.407,51.524],[11.426,51.518],[11.47,51.481],[11.474,51.467],[11.453,51.439],[11.496,51.419],[11.478,51.361],[11.389,51.32],[11.383,51.306],[11.501,51.284],[11.529,51.272],[11.561,51.272],[11.59,51.292],[11.619,51.28],[11.678,51.27],[11.687,51.264],[11.69,51.218],[11.697,51.21],[11.767,51.206],[11.773,51.194],[11.767,51.165],[11.781,51.132],[11.792,51.128],[11.856,51.125],[11.889,51.14],[11.899,51.169],[11.873,51.186],[11.859,51.214],[11.915,51.234],[11.978,51.296],[11.999,51.28],[12.011,51.243],[12.082,51.238],[12.123,51.219],[12.164,51.219],[12.17,51.234],[12.181,51.237],[12.203,51.237],[12.209,51.228],[12.232,51.247],[12.269,51.253],[12.315,51.274],[12.328,51.285],[12.28,51.342],[12.326,51.353],[12.33,51.362],[12.316,51.408],[12.324,51.42],[12.36,51.435],[12.362,51.446],[12.344,51.476],[12.344,51.491],[12.315,51.488],[12.311,51.481],[12.319,51.469],[12.222,51.467],[12.208,51.475],[12.181,51.463],[12.126,51.5],[12.07,51.505],[12.042,51.551],[12.062,51.568],[12.088,51.573],[12.137,51.602],[12.135,51.625],[12.093,51.624],[12.049,51.634],[11.948,51.625],[11.94,51.638],[11.947,51.659],[11.927,51.68],[11.962,51.689],[11.994,51.681],[12.069,51.69],[12.144,51.724],[12.161,51.724],[12.171,51.748],[12.166,51.763],[12.176,51.768],[12.207,51.761],[12.239,51.732],[12.325,51.74],[12.341,51.766],[12.341,51.817],[12.424,51.836],[12.458,51.855],[12.462,51.863],[12.454,51.876],[12.431,51.899],[12.463,51.922],[12.492,51.957],[12.498,52.013],[12.493,52.033],[12.426,52.079],[12.352,52.076],[12.294,52.091],[12.28,52.103],[12.273,52.123],[12.255,52.136],[12.229,52.14],[12.194,52.179],[12.214,52.199],[12.307,52.223],[12.337,52.249],[12.383,52.263],[12.381,52.284],[12.369,52.296],[12.336,52.303],[12.329,52.316],[12.324,52.335],[12.341,52.344],[12.4,52.346],[12.418,52.359],[12.442,52.355],[12.447,52.342],[12.567,52.339],[12.584,52.342],[12.624,52.37],[12.704,52.4],[12.718,52.391],[12.723,52.354],[12.696,52.357],[12.688,52.349],[12.729,52.31],[12.688,52.275],[12.67,52.273],[12.677,52.252],[12.713,52.217],[12.719,52.201],[12.724,52.166],[12.699,52.163],[12.73,52.115],[12.734,52.095],[12.825,52.022],[12.992,51.958],[13.058,51.922],[13.086,51.858],[13.081,51.812],[13.108,51.802],[13.127,51.757],[13.189,51.753],[13.192,51.794],[13.223,51.763],[13.244,51.757],[13.277,51.76],[13.35,51.747],[13.362,51.761],[13.382,51.757],[13.384,51.781],[13.391,51.788],[13.331,51.862],[13.346,51.874],[13.408,51.885],[13.426,51.903],[13.483,51.916],[13.506,51.929],[13.517,51.948],[13.544,51.95],[13.577,51.978],[13.577,52.021],[13.604,52.048],[13.631,52.048],[13.67,51.942],[13.691,51.942],[13.719,51.953],[13.714,51.986],[13.809,52.007],[13.856,52.025],[13.877,52.048],[13.96,52.036],[14.096,52.06],[14.118,52.071],[14.138,52.103],[14.281,52.141],[14.34,52.166],[14.346,52.205],[14.415,52.239],[14.475,52.256],[14.547,52.256],[14.641,52.279],[14.695,52.264],[14.743,52.233],[14.737,52.179],[14.707,52.158],[14.702,52.143],[14.708,52.128],[14.81,52.092],[14.922,52.072],[14.925,52.046],[14.944,52.01],[14.933,51.984],[14.962,51.981],[14.971,51.909],[14.985,51.888],[14.965,51.872],[14.921,51.878],[14.913,51.866],[14.948,51.829],[14.954,51.813],[14.946,51.792],[14.949,51.772],[14.98,51.758],[15.002,51.764],[15.008,51.78],[14.992,51.822],[14.998,51.843],[15.05,51.868],[15.077,51.9],[15.109,51.914],[15.176,51.894],[15.213,51.856],[15.246,51.852],[15.248,51.822],[15.309,51.68],[15.304,51.649],[15.233,51.634],[15.226,51.613],[15.194,51.612],[15.165,51.586],[15.139,51.579],[15.052,51.58],[15.036,51.584],[15.021,51.605],[14.968,51.602],[14.947,51.609],[14.898,51.575],[14.846,51.554],[14.746,51.546],[14.749,51.514],[14.734,51.496],[14.719,51.456],[14.722,51.435],[14.742,51.435],[14.816,51.459],[14.853,51.445],[14.918,51.462],[15.139,51.474],[15.142,51.494],[15.165,51.529],[15.204,51.527],[15.232,51.499],[15.286,51.494],[15.333,51.507],[15.347,51.53],[15.383,51.546],[15.41,51.538],[15.409,51.496],[15.384,51.479],[15.418,51.457],[15.43,51.39],[15.431,51.377],[15.413,51.35],[15.415,51.278],[15.374,51.235],[15.304,51.188],[15.291,51.166],[15.292,51.144],[15.27,51.118],[15.268,51.098],[15.281,51.089],[15.366,51.111],[15.379,51.101],[15.363,51.057],[15.374,51.018],[15.352,51.013],[15.302,50.958],[15.256,50.967],[15.252,50.984],[15.263,51.006],[15.238,51.015],[15.235,51.035],[15.131,51.026],[15.109,51.043],[15.088,51.029],[15.064,51.033],[15.04,51.024],[15.029,51.011],[15.04,50.994],[15.032,50.968],[14.982,50.946],[14.988,50.925],[14.924,50.877],[14.845,50.882],[14.802,50.848],[14.697,50.849],[14.608,50.862],[14.616,50.889],[14.587,50.9],[14.542,50.936],[14.519,50.969],[14.461,51.014],[14.292,51.012],[14.306,50.988],[14.364,50.969],[14.387,50.952],[14.38,50.915],[14.323,50.924],[14.258,50.889],[14.107,50.861],[14.096,50.851],[13.989,50.855],[13.955,50.839],[13.942,50.803],[13.926,50.792],[13.86,50.777],[13.799,50.78],[13.702,50.77],[13.641,50.741],[13.597,50.709],[13.514,50.713],[13.441,50.705],[13.429,50.695],[13.425,50.668],[13.354,50.659],[13.252,50.577],[13.178,50.572],[13.164,50.55],[13.077,50.501],[13.069,50.489],[12.958,50.435],[12.81,50.396],[12.646,50.395],[12.61,50.376],[12.523,50.354],[12.52,50.311],[12.471,50.304],[12.437,50.287],[12.421,50.268],[12.415,50.24],[12.431,50.185],[12.338,50.183],[12.324,50.234],[12.285,50.265],[12.235,50.279],[12.207,50.298],[12.116,50.309],[12.047,50.339],[12.022,50.359],[11.948,50.394],[11.895,50.445],[11.944,50.465],[11.97,50.489],[11.969,50.503],[11.932,50.534],[11.93,50.547],[11.947,50.56],[11.959,50.594],[11.993,50.603],[11.999,50.639],[12.021,50.642],[12.032,50.6],[12.072,50.572],[12.075,50.547],[12.091,50.543],[12.157,50.558],[12.146,50.588],[12.118,50.618],[12.13,50.624],[12.231,50.611],[12.253,50.631],[12.324,50.631],[12.368,50.669],[12.354,50.685],[12.317,50.679],[12.269,50.682],[12.252,50.69],[12.248,50.723],[12.227,50.731],[12.208,50.735],[12.201,50.714]],[[13.813,51.512],[13.831,51.498],[13.826,51.481],[13.879,51.492],[13.888,51.498],[13.897,51.541],[13.972,51.557],[14.019,51.628],[14.054,51.642],[14.096,51.637],[14.117,51.62],[14.157,51.628],[14.223,51.609],[14.307,51.616],[14.338,51.626],[14.337,51.633],[14.35,51.642],[14.479,51.643],[14.485,51.652],[14.472,51.659],[14.476,51.689],[14.464,51.699],[14.51,51.78],[14.518,51.844],[14.528,51.867],[14.603,51.923],[14.552,51.938],[14.486,51.942],[14.426,51.929],[14.317,51.922],[14.295,51.918],[14.213,51.872],[14.149,51.864],[14.131,51.855],[14.111,51.831],[14.054,51.825],[14.041,51.815],[14.038,51.79],[14.056,51.727],[14.02,51.688],[14.02,51.672],[14.009,51.66],[13.952,51.635],[13.923,51.589],[13.849,51.571],[13.827,51.546],[13.813,51.512]],[[14.011,51.12],[13.996,51.12],[13.983,51.098],[13.997,51.079],[13.984,51.06],[14,51.045],[14.017,51.048],[14.054,51.035],[14.108,51.043],[14.114,51.059],[14.143,51.066],[14.212,51.054],[14.249,51.06],[14.274,51.088],[14.326,51.109],[14.33,51.144],[14.311,51.156],[14.234,51.17],[14.201,51.16],[14.298,51.124],[14.23,51.106],[14.214,51.111],[14.209,51.119],[14.215,51.127],[14.173,51.141],[14.135,51.125],[14.085,51.124],[14.093,51.105],[14.083,51.099],[14.06,51.104],[14.047,51.116],[14.011,51.12]],[[12.887,51.344],[12.834,51.347],[12.822,51.365],[12.86,51.375],[12.898,51.416],[12.921,51.424],[12.913,51.441],[12.769,51.449],[12.638,51.467],[12.611,51.437],[12.569,51.431],[12.562,51.42],[12.566,51.394],[12.574,51.387],[12.666,51.378],[12.687,51.357],[12.689,51.336],[12.721,51.333],[12.727,51.326],[12.741,51.323],[12.768,51.336],[12.786,51.335],[12.842,51.311],[12.856,51.312],[12.882,51.327],[12.887,51.344]],[[14.42,51.121],[14.403,51.132],[14.383,51.13],[14.332,51.063],[14.327,51.052],[14.334,51.045],[14.359,51.038],[14.412,51.052],[14.417,51.067],[14.44,51.079],[14.418,51.097],[14.42,51.121]],[[14.154,51.56],[14.127,51.578],[14.095,51.574],[14.1,51.558],[14.139,51.525],[14.162,51.523],[14.194,51.543],[14.204,51.562],[14.184,51.574],[14.154,51.56]]],[[[12.247,51.376],[12.221,51.357],[12.18,51.35],[12.169,51.372],[12.152,51.375],[12.145,51.39],[12.164,51.4],[12.196,51.392],[12.233,51.397],[12.247,51.376]]],[[[13.218,51.891],[13.246,51.88],[13.251,51.86],[13.212,51.822],[13.181,51.842],[13.169,51.856],[13.169,51.869],[13.216,51.877],[13.218,51.891]]],[[[11.746,51.985],[11.8,51.997],[11.812,52.007],[11.78,52.021],[11.757,52.014],[11.751,52.033],[11.786,52.054],[11.788,52.06],[11.769,52.062],[11.77,52.074],[11.824,52.106],[11.853,52.134],[11.875,52.127],[11.888,52.112],[11.875,52.101],[11.879,52.091],[11.899,52.096],[11.91,52.071],[12.014,52.053],[12.024,52.049],[12.031,52.032],[11.965,51.999],[11.926,51.99],[11.92,51.965],[11.931,51.943],[11.908,51.927],[11.878,51.931],[11.853,51.909],[11.812,51.912],[11.742,51.977],[11.746,51.985]]],[[[12.979,52.308],[13.003,52.315],[13.039,52.303],[13.051,52.289],[13.042,52.247],[13,52.24],[12.979,52.222],[12.947,52.24],[12.957,52.254],[12.944,52.28],[12.976,52.288],[12.983,52.295],[12.979,52.308]]]]}}],"metadata":{"borrowedFrom":[{"name":"Electorate of Saxony","year":1700,"file":"data/hre_1700.geojson","sourceRef":"Roller territories_manual: id=albertinischesSachsennach1635","reason":"1700 年・1715 年ともアウグスト強王（フリードリヒ・アウグスト 1 世）のザクセン選帝侯領で、領域は 1635 年のプラハ条約（ラウジッツ獲得）以降 1815 年まで安定している。1697 年のポーランド王位兼任は同君連合であり選帝侯領の領域を変えず、大北方戦争のスウェーデン占領（1706〜1707）も占領であって割譲ではない。"}],"source":"Territories of the Holy Roman Empire (Roller, ETH Zürich)","sourceUrl":"https://doi.org/10.3929/ethz-b-000472583","license":"CC BY-NC-SA 4.0","borderPrecision":"史料に基づく復元（概略。測量された境界ではない）"}}