{"type":"FeatureCollection","features":[{"type":"Feature","properties":{"NAME":"Kingdom of Leinster","ADMIN_LEVEL":2,"OHM_RELATION_ID":2875840,"START_DATE":"0800","END_DATE":"1603"},"geometry":{"type":"MultiPolygon","coordinates":[[[[-7.542,53.181],[-7.583,53.17],[-7.623,53.171],[-7.643,53.149],[-7.589,53.104],[-7.609,53.075],[-7.65,53.055],[-7.659,53.041],[-7.685,53.031],[-7.707,53.009],[-7.708,52.98],[-7.732,52.956],[-7.7,52.937],[-7.662,52.93],[-7.725,52.884],[-7.721,52.873],[-7.734,52.853],[-7.698,52.827],[-7.647,52.735],[-7.548,52.701],[-7.514,52.648],[-7.475,52.612],[-7.48,52.601],[-7.452,52.575],[-7.462,52.52],[-7.451,52.507],[-7.427,52.519],[-7.421,52.51],[-7.464,52.471],[-7.426,52.455],[-7.384,52.419],[-7.397,52.367],[-7.388,52.357],[-7.363,52.34],[-7.307,52.321],[-7.285,52.298],[-7.277,52.276],[-7.239,52.262],[-7.219,52.245],[-7.197,52.252],[-7.169,52.28],[-7.085,52.253],[-7.039,52.257],[-7.007,52.277],[-6.985,52.275],[-6.986,52.251],[-6.956,52.231],[-6.937,52.192],[-6.919,52.178],[-6.958,52.145],[-6.978,52.113],[-6.939,52.093],[-6.887,52.102],[-6.846,52.137],[-6.793,52.151],[-6.775,52.172],[-6.73,52.165],[-6.692,52.182],[-6.646,52.165],[-6.634,52.152],[-6.669,52.131],[-6.674,52.103],[-6.647,52.082],[-6.618,52.079],[-6.588,52.086],[-6.546,52.113],[-6.528,52.155],[-6.455,52.16],[-6.354,52.143],[-6.299,52.166],[-6.192,52.173],[-6.162,52.189],[-6.156,52.207],[-6.167,52.222],[-6.25,52.24],[-6.273,52.266],[-6.34,52.288],[-6.34,52.298],[-6.333,52.316],[-6.31,52.336],[-6.314,52.373],[-6.307,52.396],[-6.158,52.534],[-6.144,52.565],[-6.178,52.63],[-6.174,52.643],[-6.143,52.684],[-6.094,52.724],[-6.087,52.79],[-6.063,52.82],[-6.013,52.844],[-6.007,52.857],[-6.011,52.871],[-5.978,52.905],[-5.948,52.962],[-5.959,52.985],[-6,53.005],[-5.985,53.065],[-5.992,53.123],[-6.021,53.166],[-6.029,53.198],[-6.056,53.225],[-6.062,53.243],[-6.04,53.255],[-6.032,53.273],[-6.037,53.286],[-6.07,53.306],[-6.072,53.33],[-6.251,53.348],[-6.333,53.345],[-6.364,53.36],[-6.405,53.36],[-6.423,53.369],[-6.458,53.357],[-6.487,53.363],[-6.5,53.375],[-6.553,53.381],[-6.6,53.398],[-6.659,53.398],[-6.743,53.427],[-6.78,53.426],[-6.79,53.417],[-6.88,53.414],[-6.913,53.424],[-6.923,53.44],[-6.962,53.453],[-7.006,53.438],[-7.032,53.411],[-7.071,53.397],[-7.086,53.38],[-7.143,53.397],[-7.142,53.404],[-7.195,53.424],[-7.209,53.422],[-7.218,53.405],[-7.28,53.4],[-7.28,53.392],[-7.346,53.362],[-7.368,53.341],[-7.403,53.33],[-7.423,53.334],[-7.506,53.3],[-7.542,53.181]]]]}},{"type":"Feature","properties":{"NAME":"Lordship of Eastern Meath","ADMIN_LEVEL":2,"OHM_RELATION_ID":2875843,"START_DATE":"1244","END_DATE":"1328"},"geometry":{"type":"MultiPolygon","coordinates":[[[[-6.955,53.654],[-6.986,53.616],[-6.983,53.594],[-6.998,53.58],[-7.021,53.578],[-7.033,53.564],[-7.016,53.527],[-7.034,53.507],[-7.065,53.495],[-7.06,53.486],[-7.067,53.473],[-7.092,53.454],[-7.145,53.45],[-7.158,53.44],[-7.193,53.434],[-7.195,53.424],[-7.145,53.407],[-7.143,53.397],[-7.086,53.38],[-7.071,53.397],[-7.032,53.411],[-7.006,53.438],[-6.962,53.453],[-6.923,53.44],[-6.913,53.424],[-6.88,53.414],[-6.79,53.417],[-6.78,53.426],[-6.743,53.427],[-6.659,53.398],[-6.6,53.398],[-6.553,53.381],[-6.5,53.375],[-6.492,53.364],[-6.458,53.357],[-6.423,53.369],[-6.405,53.36],[-6.364,53.36],[-6.333,53.345],[-6.251,53.348],[-6.072,53.33],[-6.035,53.333],[-6.007,53.348],[-5.996,53.388],[-6.017,53.423],[-6.04,53.435],[-6.027,53.453],[-5.978,53.461],[-5.957,53.476],[-5.946,53.495],[-5.971,53.52],[-6.027,53.529],[-6.032,53.562],[-6.059,53.603],[-6.084,53.614],[-6.115,53.615],[-6.183,53.673],[-6.2,53.746],[-6.166,53.796],[-6.176,53.813],[-6.208,53.827],[-6.19,53.852],[-6.196,53.876],[-6.248,53.898],[-6.314,53.908],[-6.323,53.919],[-6.423,53.913],[-6.445,53.904],[-6.488,53.854],[-6.515,53.759],[-6.539,53.731],[-6.561,53.707],[-6.631,53.668],[-6.656,53.669],[-6.68,53.654],[-6.684,53.644],[-6.649,53.617],[-6.65,53.604],[-6.732,53.577],[-6.741,53.562],[-6.833,53.552],[-6.855,53.559],[-6.919,53.633],[-6.938,53.65],[-6.955,53.654]]]]}},{"type":"Feature","properties":{"NAME":"Lordship of Western Meath","ADMIN_LEVEL":2,"OHM_RELATION_ID":2875844,"START_DATE":"1244","END_DATE":"1328"},"geometry":{"type":"MultiPolygon","coordinates":[[[[-7.884,53.786],[-7.876,53.778],[-7.889,53.761],[-7.916,53.749],[-7.918,53.738],[-7.929,53.733],[-7.946,53.74],[-7.95,53.713],[-7.987,53.701],[-7.986,53.681],[-8.007,53.661],[-8.024,53.657],[-8.035,53.631],[-8.037,53.607],[-7.981,53.552],[-7.955,53.482],[-7.964,53.442],[-7.936,53.418],[-7.943,53.406],[-7.925,53.398],[-7.911,53.373],[-7.939,53.356],[-7.942,53.343],[-7.984,53.338],[-7.993,53.325],[-8.024,53.321],[-8.026,53.3],[-8.057,53.275],[-8.026,53.253],[-7.974,53.234],[-7.975,53.21],[-7.994,53.193],[-8.043,53.195],[-8.081,53.172],[-8.056,53.154],[-7.981,53.135],[-7.903,53.098],[-7.844,53.089],[-7.79,53.099],[-7.782,53.076],[-7.768,53.063],[-7.674,53.034],[-7.609,53.075],[-7.593,53.095],[-7.589,53.104],[-7.643,53.149],[-7.623,53.171],[-7.583,53.17],[-7.542,53.181],[-7.506,53.3],[-7.423,53.334],[-7.403,53.33],[-7.368,53.341],[-7.28,53.392],[-7.28,53.4],[-7.218,53.405],[-7.193,53.434],[-7.158,53.44],[-7.145,53.45],[-7.092,53.454],[-7.067,53.473],[-7.06,53.486],[-7.065,53.495],[-7.034,53.507],[-7.016,53.527],[-7.033,53.564],[-7.021,53.578],[-6.998,53.58],[-6.983,53.594],[-6.986,53.616],[-6.955,53.654],[-6.991,53.675],[-7.03,53.668],[-7.069,53.644],[-7.085,53.649],[-7.118,53.687],[-7.132,53.676],[-7.142,53.678],[-7.224,53.71],[-7.227,53.732],[-7.26,53.743],[-7.283,53.77],[-7.343,53.799],[-7.394,53.78],[-7.421,53.792],[-7.453,53.795],[-7.468,53.808],[-7.468,53.848],[-7.49,53.858],[-7.507,53.863],[-7.567,53.852],[-7.586,53.855],[-7.581,53.867],[-7.557,53.878],[-7.552,53.892],[-7.579,53.906],[-7.592,53.927],[-7.625,53.942],[-7.659,53.934],[-7.715,53.888],[-7.776,53.868],[-7.771,53.843],[-7.785,53.839],[-7.803,53.855],[-7.817,53.851],[-7.823,53.834],[-7.86,53.831],[-7.862,53.808],[-7.884,53.786]]]]}}],"metadata":{"source":"OpenHistoricalMap","sourceUrl":"https://www.openhistoricalmap.org/","license":"CC0-1.0","year":1300,"featureCount":3,"missingWays":{},"unclosedRings":{},"droppedInnerRings":{},"tagDrift":{},"relationsWithoutGeometry":[],"borderPrecision":"史料に基づく復元（概略。測量された境界ではない）"}}