{"type":"FeatureCollection","features":[{"type":"Feature","properties":{"NAME":"Isle of Man","ADMIN_LEVEL":2,"OHM_RELATION_ID":2693293,"START_DATE":"1333-08-09","END_DATE":"1987-05-15"},"geometry":{"type":"MultiPolygon","coordinates":[[[[-4.243,54.263],[-4.225,54.287],[-4.226,54.312],[-4.249,54.337],[-4.292,54.352],[-4.278,54.417],[-4.284,54.436],[-4.302,54.452],[-4.338,54.464],[-4.372,54.466],[-4.515,54.441],[-4.603,54.399],[-4.687,54.297],[-4.762,54.261],[-4.789,54.239],[-4.825,54.182],[-4.821,54.148],[-4.853,54.125],[-4.868,54.102],[-4.911,54.075],[-4.92,54.041],[-4.887,54.01],[-4.843,53.996],[-4.788,53.996],[-4.708,54.019],[-4.635,54.007],[-4.587,54.012],[-4.561,54.024],[-4.528,54.055],[-4.422,54.102],[-4.393,54.127],[-4.346,54.149],[-4.32,54.173],[-4.28,54.231],[-4.243,54.263]]]]}},{"type":"Feature","properties":{"NAME":"Kingdom of Leinster","ADMIN_LEVEL":2,"OHM_RELATION_ID":2875840,"START_DATE":"0800","END_DATE":"1603"},"geometry":{"type":"MultiPolygon","coordinates":[[[[-7.542,53.181],[-7.583,53.17],[-7.623,53.171],[-7.643,53.149],[-7.589,53.104],[-7.609,53.075],[-7.65,53.055],[-7.659,53.041],[-7.685,53.031],[-7.707,53.009],[-7.708,52.98],[-7.732,52.956],[-7.7,52.937],[-7.662,52.93],[-7.725,52.884],[-7.721,52.873],[-7.734,52.853],[-7.698,52.827],[-7.647,52.735],[-7.548,52.701],[-7.514,52.648],[-7.475,52.612],[-7.48,52.601],[-7.452,52.575],[-7.462,52.52],[-7.451,52.507],[-7.427,52.519],[-7.421,52.51],[-7.464,52.471],[-7.426,52.455],[-7.384,52.419],[-7.397,52.367],[-7.388,52.357],[-7.363,52.34],[-7.307,52.321],[-7.285,52.298],[-7.277,52.276],[-7.239,52.262],[-7.219,52.245],[-7.197,52.252],[-7.169,52.28],[-7.085,52.253],[-7.039,52.257],[-7.007,52.277],[-6.985,52.275],[-6.986,52.251],[-6.956,52.231],[-6.937,52.192],[-6.919,52.178],[-6.958,52.145],[-6.978,52.113],[-6.939,52.093],[-6.887,52.102],[-6.846,52.137],[-6.793,52.151],[-6.775,52.172],[-6.73,52.165],[-6.692,52.182],[-6.646,52.165],[-6.634,52.152],[-6.669,52.131],[-6.674,52.103],[-6.647,52.082],[-6.618,52.079],[-6.588,52.086],[-6.546,52.113],[-6.528,52.155],[-6.455,52.16],[-6.354,52.143],[-6.299,52.166],[-6.192,52.173],[-6.162,52.189],[-6.156,52.207],[-6.167,52.222],[-6.25,52.24],[-6.273,52.266],[-6.34,52.288],[-6.34,52.298],[-6.333,52.316],[-6.31,52.336],[-6.314,52.373],[-6.307,52.396],[-6.158,52.534],[-6.144,52.565],[-6.178,52.63],[-6.174,52.643],[-6.143,52.684],[-6.094,52.724],[-6.087,52.79],[-6.063,52.82],[-6.013,52.844],[-6.007,52.857],[-6.011,52.871],[-5.978,52.905],[-5.948,52.962],[-5.959,52.985],[-6,53.005],[-5.985,53.065],[-5.992,53.123],[-6.021,53.166],[-6.029,53.198],[-6.056,53.225],[-6.062,53.243],[-6.04,53.255],[-6.032,53.273],[-6.037,53.286],[-6.07,53.306],[-6.072,53.33],[-6.251,53.348],[-6.333,53.345],[-6.364,53.36],[-6.405,53.36],[-6.423,53.369],[-6.458,53.357],[-6.487,53.363],[-6.5,53.375],[-6.553,53.381],[-6.6,53.398],[-6.659,53.398],[-6.743,53.427],[-6.78,53.426],[-6.79,53.417],[-6.88,53.414],[-6.913,53.424],[-6.923,53.44],[-6.962,53.453],[-7.006,53.438],[-7.032,53.411],[-7.071,53.397],[-7.086,53.38],[-7.143,53.397],[-7.142,53.404],[-7.195,53.424],[-7.209,53.422],[-7.218,53.405],[-7.28,53.4],[-7.28,53.392],[-7.346,53.362],[-7.368,53.341],[-7.403,53.33],[-7.423,53.334],[-7.506,53.3],[-7.542,53.181]]]]}}],"metadata":{"generatedBy":"scripts/build-fief-flat.ts","input":"data/britain_fiefs_1530.geojson","year":1530,"cutPolicy":"keep-smaller","containmentCoverageThreshold":0.9,"minOverlapAreaM2":1000,"sliverAreaLimitM2":1000000000,"resolutions":[],"source":"OpenHistoricalMap","sourceUrl":"https://www.openhistoricalmap.org/","license":"CC0-1.0","borderPrecision":"史料に基づく復元（概略。測量された境界ではない）"}}