{"type":"FeatureCollection","features":[{"type":"Feature","properties":{"NAME":"Kingdom of Gwynedd","ADMIN_LEVEL":2,"OHM_RELATION_ID":2800203,"START_DATE":"1165","END_DATE":"1282-12-11"},"geometry":{"type":"MultiPolygon","coordinates":[[[[-3.013,53.243],[-3.09,53.258],[-3.166,53.312],[-3.247,53.352],[-3.298,53.404],[-3.321,53.412],[-3.516,53.374],[-3.612,53.342],[-3.674,53.344],[-3.749,53.376],[-3.87,53.393],[-3.914,53.385],[-3.958,53.356],[-4.007,53.371],[-4.144,53.366],[-4.217,53.444],[-4.276,53.467],[-4.437,53.486],[-4.53,53.465],[-4.632,53.472],[-4.677,53.453],[-4.696,53.419],[-4.68,53.391],[-4.652,53.377],[-4.717,53.369],[-4.744,53.356],[-4.778,53.325],[-4.784,53.303],[-4.775,53.284],[-4.75,53.252],[-4.693,53.233],[-4.655,53.203],[-4.594,53.191],[-4.578,53.161],[-4.472,53.098],[-4.424,53.085],[-4.421,53.069],[-4.447,53.05],[-4.505,53.028],[-4.546,52.997],[-4.612,52.991],[-4.71,52.94],[-4.788,52.887],[-4.874,52.784],[-4.885,52.767],[-4.885,52.742],[-4.867,52.714],[-4.811,52.695],[-4.759,52.703],[-4.711,52.732],[-4.608,52.755],[-4.549,52.729],[-4.499,52.731],[-4.43,52.753],[-4.396,52.772],[-4.38,52.789],[-4.376,52.807],[-4.388,52.83],[-4.227,52.865],[-4.21,52.851],[-4.233,52.824],[-4.228,52.79],[-4.143,52.709],[-4.188,52.666],[-4.211,52.614],[-4.197,52.582],[-4.144,52.521],[-4.024,52.546],[-3.998,52.539],[-3.996,52.549],[-3.965,52.558],[-3.93,52.554],[-3.924,52.568],[-3.929,52.57],[-3.876,52.583],[-3.874,52.594],[-3.846,52.601],[-3.85,52.621],[-3.834,52.633],[-3.844,52.643],[-3.818,52.673],[-3.803,52.679],[-3.758,52.67],[-3.744,52.681],[-3.709,52.675],[-3.704,52.683],[-3.685,52.68],[-3.697,52.685],[-3.684,52.694],[-3.66,52.691],[-3.602,52.705],[-3.599,52.726],[-3.585,52.735],[-3.595,52.774],[-3.609,52.794],[-3.639,52.788],[-3.648,52.799],[-3.667,52.788],[-3.686,52.792],[-3.701,52.787],[-3.738,52.795],[-3.73,52.801],[-3.761,52.822],[-3.766,52.844],[-3.776,52.842],[-3.786,52.853],[-3.782,52.863],[-3.806,52.871],[-3.813,52.885],[-3.811,52.945],[-3.774,52.956],[-3.739,52.978],[-3.686,52.985],[-3.608,53.01],[-3.612,52.992],[-3.603,52.99],[-3.588,52.965],[-3.484,52.968],[-3.459,52.985],[-3.448,53.003],[-3.481,53.019],[-3.476,53.027],[-3.485,53.028],[-3.485,53.042],[-3.437,53.051],[-3.429,53.042],[-3.433,53.028],[-3.341,53.051],[-3.325,53.06],[-3.323,53.079],[-3.302,53.09],[-3.312,53.115],[-3.277,53.151],[-3.257,53.155],[-3.208,53.16],[-3.183,53.154],[-3.186,53.142],[-3.177,53.116],[-3.146,53.104],[-3.152,53.093],[-3.137,53.074],[-3.113,53.073],[-3.032,53.098],[-3.028,53.093],[-3.029,53.104],[-3.014,53.109],[-2.996,53.131],[-2.964,53.133],[-2.99,53.158],[-2.944,53.165],[-2.921,53.178],[-2.922,53.189],[-2.951,53.212],[-3.013,53.243]]]]}},{"type":"Feature","properties":{"NAME":"Kingdom of Leinster","ADMIN_LEVEL":2,"OHM_RELATION_ID":2875840,"START_DATE":"0800","END_DATE":"1603"},"geometry":{"type":"MultiPolygon","coordinates":[[[[-7.542,53.181],[-7.583,53.17],[-7.623,53.171],[-7.643,53.149],[-7.589,53.104],[-7.609,53.075],[-7.65,53.055],[-7.659,53.041],[-7.685,53.031],[-7.707,53.009],[-7.708,52.98],[-7.732,52.956],[-7.7,52.937],[-7.662,52.93],[-7.725,52.884],[-7.721,52.873],[-7.734,52.853],[-7.698,52.827],[-7.647,52.735],[-7.548,52.701],[-7.514,52.648],[-7.475,52.612],[-7.48,52.601],[-7.452,52.575],[-7.462,52.52],[-7.451,52.507],[-7.427,52.519],[-7.421,52.51],[-7.464,52.471],[-7.426,52.455],[-7.384,52.419],[-7.397,52.367],[-7.388,52.357],[-7.363,52.34],[-7.307,52.321],[-7.285,52.298],[-7.277,52.276],[-7.239,52.262],[-7.219,52.245],[-7.197,52.252],[-7.169,52.28],[-7.085,52.253],[-7.039,52.257],[-7.007,52.277],[-6.985,52.275],[-6.986,52.251],[-6.956,52.231],[-6.937,52.192],[-6.919,52.178],[-6.958,52.145],[-6.978,52.113],[-6.939,52.093],[-6.887,52.102],[-6.846,52.137],[-6.793,52.151],[-6.775,52.172],[-6.73,52.165],[-6.692,52.182],[-6.646,52.165],[-6.634,52.152],[-6.669,52.131],[-6.674,52.103],[-6.647,52.082],[-6.618,52.079],[-6.588,52.086],[-6.546,52.113],[-6.528,52.155],[-6.455,52.16],[-6.354,52.143],[-6.299,52.166],[-6.192,52.173],[-6.162,52.189],[-6.156,52.207],[-6.167,52.222],[-6.25,52.24],[-6.273,52.266],[-6.34,52.288],[-6.34,52.298],[-6.333,52.316],[-6.31,52.336],[-6.314,52.373],[-6.307,52.396],[-6.158,52.534],[-6.144,52.565],[-6.178,52.63],[-6.174,52.643],[-6.143,52.684],[-6.094,52.724],[-6.087,52.79],[-6.063,52.82],[-6.013,52.844],[-6.007,52.857],[-6.011,52.871],[-5.978,52.905],[-5.948,52.962],[-5.959,52.985],[-6,53.005],[-5.985,53.065],[-5.992,53.123],[-6.021,53.166],[-6.029,53.198],[-6.056,53.225],[-6.062,53.243],[-6.04,53.255],[-6.032,53.273],[-6.037,53.286],[-6.07,53.306],[-6.072,53.33],[-6.251,53.348],[-6.333,53.345],[-6.364,53.36],[-6.405,53.36],[-6.423,53.369],[-6.458,53.357],[-6.487,53.363],[-6.5,53.375],[-6.553,53.381],[-6.6,53.398],[-6.659,53.398],[-6.743,53.427],[-6.78,53.426],[-6.79,53.417],[-6.88,53.414],[-6.913,53.424],[-6.923,53.44],[-6.962,53.453],[-7.006,53.438],[-7.032,53.411],[-7.071,53.397],[-7.086,53.38],[-7.143,53.397],[-7.142,53.404],[-7.195,53.424],[-7.209,53.422],[-7.218,53.405],[-7.28,53.4],[-7.28,53.392],[-7.346,53.362],[-7.368,53.341],[-7.403,53.33],[-7.423,53.334],[-7.506,53.3],[-7.542,53.181]]]]}},{"type":"Feature","properties":{"NAME":"Lordship of Eastern Meath","ADMIN_LEVEL":2,"OHM_RELATION_ID":2875843,"START_DATE":"1244","END_DATE":"1328"},"geometry":{"type":"MultiPolygon","coordinates":[[[[-6.955,53.654],[-6.986,53.616],[-6.983,53.594],[-6.998,53.58],[-7.021,53.578],[-7.033,53.564],[-7.016,53.527],[-7.034,53.507],[-7.065,53.495],[-7.06,53.486],[-7.067,53.473],[-7.092,53.454],[-7.145,53.45],[-7.158,53.44],[-7.193,53.434],[-7.195,53.424],[-7.145,53.407],[-7.143,53.397],[-7.086,53.38],[-7.071,53.397],[-7.032,53.411],[-7.006,53.438],[-6.962,53.453],[-6.923,53.44],[-6.913,53.424],[-6.88,53.414],[-6.79,53.417],[-6.78,53.426],[-6.743,53.427],[-6.659,53.398],[-6.6,53.398],[-6.553,53.381],[-6.5,53.375],[-6.492,53.364],[-6.458,53.357],[-6.423,53.369],[-6.405,53.36],[-6.364,53.36],[-6.333,53.345],[-6.251,53.348],[-6.072,53.33],[-6.035,53.333],[-6.007,53.348],[-5.996,53.388],[-6.017,53.423],[-6.04,53.435],[-6.027,53.453],[-5.978,53.461],[-5.957,53.476],[-5.946,53.495],[-5.971,53.52],[-6.027,53.529],[-6.032,53.562],[-6.059,53.603],[-6.084,53.614],[-6.115,53.615],[-6.183,53.673],[-6.2,53.746],[-6.166,53.796],[-6.176,53.813],[-6.208,53.827],[-6.19,53.852],[-6.196,53.876],[-6.248,53.898],[-6.314,53.908],[-6.323,53.919],[-6.423,53.913],[-6.445,53.904],[-6.488,53.854],[-6.515,53.759],[-6.539,53.731],[-6.561,53.707],[-6.631,53.668],[-6.656,53.669],[-6.68,53.654],[-6.684,53.644],[-6.649,53.617],[-6.65,53.604],[-6.732,53.577],[-6.741,53.562],[-6.833,53.552],[-6.855,53.559],[-6.919,53.633],[-6.938,53.65],[-6.955,53.654]]]]}},{"type":"Feature","properties":{"NAME":"Lordship of Western Meath","ADMIN_LEVEL":2,"OHM_RELATION_ID":2875844,"START_DATE":"1244","END_DATE":"1328"},"geometry":{"type":"MultiPolygon","coordinates":[[[[-7.884,53.786],[-7.876,53.778],[-7.889,53.761],[-7.916,53.749],[-7.918,53.738],[-7.929,53.733],[-7.946,53.74],[-7.95,53.713],[-7.987,53.701],[-7.986,53.681],[-8.007,53.661],[-8.024,53.657],[-8.035,53.631],[-8.037,53.607],[-7.981,53.552],[-7.955,53.482],[-7.964,53.442],[-7.936,53.418],[-7.943,53.406],[-7.925,53.398],[-7.911,53.373],[-7.939,53.356],[-7.942,53.343],[-7.984,53.338],[-7.993,53.325],[-8.024,53.321],[-8.026,53.3],[-8.057,53.275],[-8.026,53.253],[-7.974,53.234],[-7.975,53.21],[-7.994,53.193],[-8.043,53.195],[-8.081,53.172],[-8.056,53.154],[-7.981,53.135],[-7.903,53.098],[-7.844,53.089],[-7.79,53.099],[-7.782,53.076],[-7.768,53.063],[-7.674,53.034],[-7.609,53.075],[-7.593,53.095],[-7.589,53.104],[-7.643,53.149],[-7.623,53.171],[-7.583,53.17],[-7.542,53.181],[-7.506,53.3],[-7.423,53.334],[-7.403,53.33],[-7.368,53.341],[-7.28,53.392],[-7.28,53.4],[-7.218,53.405],[-7.193,53.434],[-7.158,53.44],[-7.145,53.45],[-7.092,53.454],[-7.067,53.473],[-7.06,53.486],[-7.065,53.495],[-7.034,53.507],[-7.016,53.527],[-7.033,53.564],[-7.021,53.578],[-6.998,53.58],[-6.983,53.594],[-6.986,53.616],[-6.955,53.654],[-6.991,53.675],[-7.03,53.668],[-7.069,53.644],[-7.085,53.649],[-7.118,53.687],[-7.132,53.676],[-7.142,53.678],[-7.224,53.71],[-7.227,53.732],[-7.26,53.743],[-7.283,53.77],[-7.343,53.799],[-7.394,53.78],[-7.421,53.792],[-7.453,53.795],[-7.468,53.808],[-7.468,53.848],[-7.49,53.858],[-7.507,53.863],[-7.567,53.852],[-7.586,53.855],[-7.581,53.867],[-7.557,53.878],[-7.552,53.892],[-7.579,53.906],[-7.592,53.927],[-7.625,53.942],[-7.659,53.934],[-7.715,53.888],[-7.776,53.868],[-7.771,53.843],[-7.785,53.839],[-7.803,53.855],[-7.817,53.851],[-7.823,53.834],[-7.86,53.831],[-7.862,53.808],[-7.884,53.786]]]]}},{"type":"Feature","properties":{"NAME":"Southern Powys","ADMIN_LEVEL":2,"OHM_RELATION_ID":2798863,"START_DATE":"1160","END_DATE":"1283"},"geometry":{"type":"MultiPolygon","coordinates":[[[[-3.161,52.804],[-3.187,52.805],[-3.241,52.786],[-3.284,52.789],[-3.272,52.799],[-3.283,52.803],[-3.282,52.81],[-3.311,52.831],[-3.396,52.859],[-3.389,52.876],[-3.436,52.861],[-3.483,52.865],[-3.503,52.839],[-3.567,52.83],[-3.568,52.823],[-3.587,52.828],[-3.598,52.814],[-3.606,52.79],[-3.598,52.784],[-3.591,52.766],[-3.595,52.757],[-3.583,52.738],[-3.599,52.726],[-3.602,52.705],[-3.66,52.691],[-3.681,52.693],[-3.694,52.687],[-3.683,52.681],[-3.701,52.684],[-3.707,52.675],[-3.744,52.681],[-3.758,52.67],[-3.808,52.678],[-3.841,52.651],[-3.842,52.638],[-3.835,52.637],[-3.85,52.621],[-3.846,52.601],[-3.874,52.594],[-3.876,52.583],[-3.891,52.576],[-3.915,52.579],[-3.928,52.564],[-3.861,52.561],[-3.841,52.552],[-3.836,52.527],[-3.844,52.517],[-3.826,52.484],[-3.771,52.489],[-3.75,52.506],[-3.733,52.506],[-3.73,52.499],[-3.74,52.495],[-3.745,52.475],[-3.765,52.472],[-3.771,52.442],[-3.712,52.413],[-3.713,52.402],[-3.695,52.367],[-3.681,52.368],[-3.663,52.355],[-3.636,52.37],[-3.587,52.358],[-3.593,52.373],[-3.572,52.374],[-3.535,52.405],[-3.514,52.41],[-3.491,52.392],[-3.463,52.395],[-3.424,52.413],[-3.415,52.427],[-3.395,52.433],[-3.403,52.436],[-3.393,52.441],[-3.367,52.444],[-3.344,52.435],[-3.287,52.458],[-3.254,52.464],[-3.232,52.457],[-3.161,52.804]]]]}}],"metadata":{"source":"OpenHistoricalMap","sourceUrl":"https://www.openhistoricalmap.org/","license":"CC0-1.0","year":1279,"featureCount":5,"missingWays":{},"unclosedRings":{"2798863":1},"droppedInnerRings":{},"tagDrift":{},"relationsWithoutGeometry":[],"borderPrecision":"史料に基づく復元（概略。測量された境界ではない）"}}