{"type":"FeatureCollection","features":[{"type":"Feature","properties":{"NAME":"Isle of Man","ADMIN_LEVEL":2,"OHM_RELATION_ID":2693293,"START_DATE":"1333-08-09","END_DATE":"1987-05-15"},"geometry":{"type":"MultiPolygon","coordinates":[[[[-4.243,54.263],[-4.225,54.287],[-4.226,54.312],[-4.249,54.337],[-4.292,54.352],[-4.278,54.417],[-4.284,54.436],[-4.302,54.452],[-4.338,54.464],[-4.372,54.466],[-4.515,54.441],[-4.603,54.399],[-4.687,54.297],[-4.762,54.261],[-4.789,54.239],[-4.825,54.182],[-4.821,54.148],[-4.853,54.125],[-4.868,54.102],[-4.911,54.075],[-4.92,54.041],[-4.887,54.01],[-4.843,53.996],[-4.788,53.996],[-4.708,54.019],[-4.635,54.007],[-4.587,54.012],[-4.561,54.024],[-4.528,54.055],[-4.422,54.102],[-4.393,54.127],[-4.346,54.149],[-4.32,54.173],[-4.28,54.231],[-4.243,54.263]]]]}},{"type":"Feature","properties":{"NAME":"Kingdom of Ireland","ADMIN_LEVEL":2,"OHM_RELATION_ID":2697729,"START_DATE":"1660-04-04","END_DATE":"1800-12-31"},"geometry":{"type":"MultiPolygon","coordinates":[[[[-7.002,55.295],[-7.11,55.322],[-7.119,55.328],[-7.123,55.348],[-7.151,55.366],[-7.259,55.395],[-7.263,55.403],[-7.229,55.402],[-7.191,55.411],[-7.171,55.43],[-7.189,55.456],[-7.249,55.475],[-7.281,55.47],[-7.303,55.455],[-7.305,55.439],[-7.288,55.417],[-7.327,55.42],[-7.43,55.401],[-7.447,55.387],[-7.45,55.37],[-7.424,55.347],[-7.449,55.327],[-7.558,55.309],[-7.575,55.293],[-7.574,55.272],[-7.603,55.301],[-7.659,55.307],[-7.73,55.284],[-7.826,55.279],[-7.884,55.261],[-7.915,55.237],[-7.97,55.254],[-8.003,55.253],[-8.054,55.233],[-8.074,55.199],[-8.11,55.189],[-8.115,55.218],[-8.159,55.234],[-8.143,55.252],[-8.148,55.279],[-8.223,55.302],[-8.277,55.298],[-8.301,55.275],[-8.291,55.249],[-8.237,55.229],[-8.199,55.225],[-8.235,55.182],[-8.28,55.187],[-8.316,55.181],[-8.346,55.153],[-8.387,55.143],[-8.425,55.106],[-8.433,55.089],[-8.482,55.085],[-8.502,55.075],[-8.515,55.054],[-8.563,55.05],[-8.61,55.023],[-8.61,55.003],[-8.625,54.986],[-8.621,54.968],[-8.596,54.953],[-8.543,54.943],[-8.511,54.918],[-8.503,54.904],[-8.508,54.897],[-8.556,54.899],[-8.579,54.891],[-8.592,54.879],[-8.593,54.853],[-8.616,54.833],[-8.612,54.811],[-8.713,54.791],[-8.778,54.766],[-8.796,54.752],[-8.799,54.735],[-8.847,54.716],[-8.855,54.697],[-8.879,54.682],[-8.887,54.664],[-8.88,54.649],[-8.861,54.638],[-8.735,54.618],[-8.697,54.592],[-8.631,54.59],[-8.553,54.569],[-8.511,54.576],[-8.506,54.555],[-8.475,54.539],[-8.423,54.545],[-8.342,54.582],[-8.298,54.572],[-8.273,54.577],[-8.274,54.56],[-8.318,54.532],[-8.313,54.511],[-8.413,54.491],[-8.455,54.502],[-8.495,54.495],[-8.533,54.464],[-8.539,54.45],[-8.568,54.439],[-8.638,54.464],[-8.703,54.456],[-8.72,54.443],[-8.722,54.427],[-8.691,54.402],[-8.688,54.392],[-8.72,54.377],[-8.742,54.354],[-8.743,54.339],[-8.729,54.317],[-8.744,54.307],[-8.793,54.304],[-8.821,54.292],[-8.862,54.298],[-8.903,54.317],[-8.938,54.324],[-9.06,54.323],[-9.101,54.306],[-9.187,54.312],[-9.243,54.336],[-9.334,54.357],[-9.374,54.352],[-9.393,54.339],[-9.609,54.355],[-9.671,54.349],[-9.735,54.367],[-9.758,54.392],[-9.812,54.395],[-9.839,54.38],[-9.842,54.365],[-9.893,54.354],[-9.913,54.341],[-9.965,54.334],[-10.016,54.339],[-10.07,54.311],[-10.096,54.314],[-10.129,54.304],[-10.143,54.288],[-10.138,54.269],[-10.155,54.253],[-10.159,54.24],[-10.198,54.216],[-10.215,54.186],[-10.251,54.168],[-10.258,54.142],[-10.293,54.101],[-10.36,54.085],[-10.37,54.061],[-10.343,54.04],[-10.314,54.037],[-10.268,54.047],[-10.235,54.041],[-10.24,54.012],[-10.304,53.988],[-10.309,53.973],[-10.299,53.957],[-10.195,53.924],[-10.163,53.922],[-10.134,53.934],[-10.107,53.928],[-10.097,53.9],[-10.075,53.887],[-10.049,53.884],[-10.012,53.855],[-10.03,53.841],[-10.092,53.817],[-10.101,53.787],[-10.071,53.762],[-10.082,53.744],[-10.143,53.739],[-10.181,53.718],[-10.19,53.697],[-10.175,53.672],[-10.179,53.664],[-10.287,53.66],[-10.358,53.617],[-10.364,53.601],[-10.351,53.581],[-10.299,53.568],[-10.317,53.549],[-10.309,53.524],[-10.214,53.489],[-10.21,53.469],[-10.253,53.43],[-10.288,53.41],[-10.284,53.387],[-10.245,53.367],[-10.222,53.364],[-10.18,53.372],[-10.1,53.352],[-10.044,53.35],[-10.024,53.341],[-10.029,53.326],[-10.064,53.316],[-10.077,53.298],[-10.058,53.273],[-10.061,53.247],[-10.03,53.229],[-9.97,53.226],[-9.942,53.244],[-9.941,53.262],[-9.931,53.274],[-9.895,53.267],[-9.885,53.258],[-9.892,53.242],[-9.888,53.228],[-9.863,53.212],[-9.853,53.188],[-9.906,53.164],[-9.912,53.146],[-9.896,53.127],[-9.865,53.112],[-9.709,53.076],[-9.668,53.061],[-9.645,53.041],[-9.513,53.002],[-9.503,52.994],[-9.504,52.978],[-9.526,52.946],[-9.523,52.923],[-9.497,52.905],[-9.474,52.901],[-9.501,52.855],[-9.552,52.847],[-9.584,52.828],[-9.586,52.811],[-9.575,52.782],[-9.647,52.764],[-9.68,52.742],[-9.704,52.706],[-9.825,52.648],[-9.853,52.628],[-9.899,52.619],[-9.948,52.598],[-9.987,52.566],[-9.977,52.54],[-9.936,52.526],[-9.882,52.525],[-9.837,52.538],[-9.801,52.535],[-9.729,52.551],[-9.735,52.51],[-9.794,52.479],[-9.847,52.464],[-9.91,52.464],[-9.963,52.452],[-9.994,52.429],[-9.997,52.406],[-10.047,52.369],[-10.078,52.365],[-10.107,52.348],[-10.123,52.327],[-10.148,52.318],[-10.191,52.321],[-10.267,52.303],[-10.344,52.269],[-10.384,52.263],[-10.517,52.198],[-10.531,52.181],[-10.529,52.155],[-10.571,52.168],[-10.603,52.163],[-10.644,52.133],[-10.636,52.107],[-10.692,52.105],[-10.726,52.088],[-10.73,52.069],[-10.713,52.052],[-10.671,52.044],[-10.644,52.015],[-10.604,52.003],[-10.56,52.012],[-10.547,52.029],[-10.548,52.047],[-10.484,52.072],[-10.446,52.066],[-10.316,52.083],[-10.26,52.083],[-10.241,52.068],[-10.234,52.042],[-10.253,52.023],[-10.29,52.015],[-10.307,51.998],[-10.357,51.977],[-10.4,51.945],[-10.449,51.931],[-10.474,51.906],[-10.482,51.882],[-10.477,51.864],[-10.457,51.852],[-10.465,51.83],[-10.497,51.814],[-10.53,51.811],[-10.581,51.792],[-10.597,51.765],[-10.588,51.747],[-10.564,51.736],[-10.533,51.735],[-10.459,51.77],[-10.398,51.782],[-10.362,51.755],[-10.319,51.756],[-10.305,51.75],[-10.316,51.724],[-10.302,51.706],[-10.283,51.697],[-10.245,51.694],[-10.192,51.706],[-10.136,51.707],[-10.132,51.693],[-10.155,51.669],[-10.151,51.651],[-10.259,51.616],[-10.295,51.581],[-10.295,51.559],[-10.271,51.543],[-10.241,51.539],[-10.2,51.556],[-10.143,51.551],[-10.113,51.566],[-10.082,51.568],[-10.039,51.558],[-9.951,51.584],[-9.883,51.579],[-9.877,51.569],[-9.899,51.55],[-9.9,51.533],[-9.866,51.511],[-9.883,51.496],[-9.889,51.477],[-9.87,51.457],[-9.869,51.439],[-9.852,51.424],[-9.761,51.417],[-9.671,51.444],[-9.655,51.457],[-9.613,51.452],[-9.569,51.457],[-9.564,51.449],[-9.578,51.429],[-9.566,51.407],[-9.531,51.391],[-9.503,51.389],[-9.383,51.437],[-9.323,51.433],[-9.289,51.454],[-9.235,51.436],[-9.205,51.438],[-9.183,51.449],[-9.16,51.477],[-9.09,51.491],[-9.068,51.516],[-9.006,51.527],[-8.987,51.505],[-8.947,51.498],[-8.865,51.524],[-8.82,51.562],[-8.761,51.539],[-8.699,51.54],[-8.656,51.563],[-8.628,51.603],[-8.603,51.608],[-8.56,51.578],[-8.507,51.578],[-8.477,51.608],[-8.485,51.643],[-8.428,51.647],[-8.387,51.67],[-8.306,51.694],[-8.269,51.715],[-8.253,51.735],[-8.247,51.762],[-8.164,51.754],[-8.111,51.774],[-8.049,51.779],[-7.984,51.797],[-7.956,51.814],[-7.952,51.836],[-7.817,51.86],[-7.803,51.874],[-7.802,51.886],[-7.821,51.908],[-7.692,51.912],[-7.669,51.923],[-7.658,51.945],[-7.586,51.953],[-7.546,51.971],[-7.529,51.988],[-7.528,52.012],[-7.488,52.044],[-7.485,52.056],[-7.492,52.07],[-7.418,52.098],[-7.351,52.106],[-7.233,52.097],[-7.148,52.109],[-7.097,52.097],[-6.978,52.113],[-6.958,52.098],[-6.92,52.093],[-6.872,52.11],[-6.846,52.137],[-6.793,52.151],[-6.775,52.172],[-6.73,52.165],[-6.692,52.182],[-6.646,52.165],[-6.634,52.152],[-6.669,52.131],[-6.675,52.113],[-6.668,52.095],[-6.647,52.082],[-6.618,52.079],[-6.588,52.086],[-6.546,52.113],[-6.528,52.155],[-6.455,52.16],[-6.354,52.143],[-6.299,52.166],[-6.192,52.173],[-6.162,52.189],[-6.156,52.207],[-6.167,52.222],[-6.25,52.24],[-6.273,52.266],[-6.34,52.288],[-6.34,52.298],[-6.333,52.316],[-6.31,52.336],[-6.314,52.373],[-6.307,52.396],[-6.158,52.534],[-6.144,52.565],[-6.178,52.63],[-6.174,52.643],[-6.143,52.684],[-6.094,52.724],[-6.087,52.79],[-6.063,52.82],[-6.013,52.844],[-6.007,52.857],[-6.011,52.871],[-5.978,52.905],[-5.948,52.962],[-5.959,52.985],[-6,53.005],[-5.985,53.065],[-5.992,53.123],[-6.021,53.166],[-6.029,53.198],[-6.056,53.225],[-6.062,53.243],[-6.04,53.255],[-6.032,53.273],[-6.037,53.286],[-6.07,53.306],[-6.072,53.33],[-6.035,53.333],[-6.007,53.348],[-5.996,53.388],[-6.017,53.423],[-6.04,53.435],[-6.027,53.453],[-5.978,53.461],[-5.957,53.476],[-5.946,53.495],[-5.971,53.52],[-6.027,53.529],[-6.032,53.562],[-6.059,53.603],[-6.084,53.614],[-6.115,53.615],[-6.151,53.65],[-6.17,53.658],[-6.187,53.683],[-6.201,53.736],[-6.195,53.762],[-6.166,53.796],[-6.176,53.813],[-6.208,53.827],[-6.19,53.852],[-6.19,53.868],[-6.217,53.889],[-6.314,53.908],[-6.323,53.919],[-6.321,53.946],[-6.305,53.974],[-6.259,53.957],[-6.169,53.948],[-6.113,53.955],[-6.062,53.984],[-6.054,54],[-6.025,53.978],[-6.018,53.981],[-5.905,54.027],[-5.827,54.077],[-5.808,54.104],[-5.789,54.159],[-5.793,54.194],[-5.733,54.198],[-5.696,54.18],[-5.65,54.176],[-5.612,54.185],[-5.553,54.212],[-5.416,54.319],[-5.378,54.376],[-5.378,54.42],[-5.355,54.443],[-5.351,54.499],[-5.386,54.53],[-5.403,54.589],[-5.445,54.626],[-5.445,54.649],[-5.427,54.696],[-5.441,54.725],[-5.464,54.74],[-5.515,54.749],[-5.56,54.744],[-5.596,54.728],[-5.63,54.73],[-5.606,54.753],[-5.603,54.768],[-5.607,54.815],[-5.631,54.853],[-5.671,54.886],[-5.759,54.911],[-5.778,54.932],[-5.812,54.95],[-5.846,54.988],[-5.888,55.011],[-5.878,55.043],[-5.887,55.072],[-5.91,55.09],[-5.949,55.104],[-5.94,55.158],[-5.951,55.185],[-5.997,55.231],[-6.092,55.267],[-6.083,55.308],[-6.119,55.342],[-6.221,55.361],[-6.279,55.359],[-6.333,55.342],[-6.385,55.295],[-6.414,55.289],[-6.455,55.3],[-6.513,55.299],[-6.552,55.289],[-6.613,55.259],[-6.694,55.259],[-6.79,55.221],[-6.883,55.21],[-6.872,55.239],[-6.888,55.258],[-6.93,55.278],[-7.002,55.295]]]]}}],"metadata":{"generatedBy":"scripts/build-fief-flat.ts","input":"data/britain_fiefs_1700.geojson","year":1700,"cutPolicy":"keep-smaller","containmentCoverageThreshold":0.9,"minOverlapAreaM2":1000,"sliverAreaLimitM2":1000000000,"resolutions":[],"source":"OpenHistoricalMap","sourceUrl":"https://www.openhistoricalmap.org/","license":"CC0-1.0","borderPrecision":"史料に基づく復元（概略。測量された境界ではない）"}}