{"type":"FeatureCollection","features":[{"type":"Feature","properties":{"NAME":"Kingdom of Galloway","ADMIN_LEVEL":2,"OHM_RELATION_ID":2869805,"START_DATE":"1034","END_DATE":"1235"},"geometry":{"type":"MultiPolygon","coordinates":[[[[-5.135,55.066],[-5.208,55.049],[-5.245,55.024],[-5.273,54.981],[-5.274,54.934],[-5.265,54.897],[-5.206,54.82],[-5.092,54.751],[-5.071,54.714],[-5.056,54.702],[-5.06,54.679],[-5.034,54.635],[-4.964,54.6],[-4.89,54.584],[-4.816,54.589],[-4.78,54.61],[-4.768,54.631],[-4.768,54.648],[-4.785,54.667],[-4.781,54.683],[-4.789,54.704],[-4.823,54.726],[-4.848,54.78],[-4.839,54.785],[-4.754,54.777],[-4.665,54.738],[-4.636,54.705],[-4.559,54.668],[-4.444,54.633],[-4.389,54.627],[-4.341,54.637],[-4.304,54.656],[-4.242,54.723],[-4.221,54.733],[-4.196,54.735],[-4.087,54.714],[-3.959,54.72],[-3.784,54.777],[-3.743,54.808],[-3.682,54.829],[-3.553,54.815],[-3.541,54.82],[-3.467,54.91],[-3.526,54.929],[-3.542,54.943],[-3.566,54.969],[-3.572,55.009],[-3.61,55.043],[-3.598,55.054],[-3.636,55.084],[-3.673,55.097],[-3.851,55.107],[-3.886,55.118],[-3.971,55.173],[-3.998,55.198],[-4.02,55.236],[-4.064,55.263],[-4.069,55.272],[-4.044,55.331],[-4.048,55.34],[-4.084,55.353],[-4.097,55.349],[-4.124,55.293],[-4.156,55.285],[-4.195,55.318],[-4.225,55.32],[-4.246,55.31],[-4.289,55.315],[-4.304,55.307],[-4.348,55.267],[-4.379,55.206],[-4.41,55.181],[-4.409,55.154],[-4.428,55.142],[-4.44,55.142],[-4.452,55.171],[-4.469,55.154],[-4.568,55.16],[-4.588,55.147],[-4.64,55.133],[-4.664,55.12],[-4.664,55.098],[-4.638,55.079],[-4.631,55.064],[-4.651,55.054],[-4.721,55.041],[-4.835,55.04],[-4.866,55.042],[-4.903,55.067],[-4.923,55.067],[-4.936,55.059],[-4.955,55.025],[-5.058,54.998],[-5.087,55.032],[-5.135,55.066]]]]}},{"type":"Feature","properties":{"NAME":"Kingdom of Gwynedd","ADMIN_LEVEL":2,"OHM_RELATION_ID":2800203,"START_DATE":"1165","END_DATE":"1282-12-11"},"geometry":{"type":"Polygon","coordinates":[[[-4.885,52.742],[-4.867,52.714],[-4.811,52.695],[-4.759,52.703],[-4.711,52.732],[-4.608,52.755],[-4.549,52.729],[-4.499,52.731],[-4.43,52.753],[-4.396,52.772],[-4.38,52.789],[-4.376,52.807],[-4.388,52.83],[-4.227,52.865],[-4.21,52.851],[-4.233,52.824],[-4.228,52.79],[-4.143,52.709],[-4.188,52.666],[-4.211,52.614],[-4.197,52.582],[-4.144,52.521],[-4.024,52.546],[-3.998,52.539],[-3.996,52.549],[-3.965,52.558],[-3.93,52.554],[-3.926,52.564],[-3.928,52.564],[-3.924,52.568],[-3.929,52.57],[-3.921,52.572],[-3.915,52.579],[-3.9,52.577],[-3.876,52.583],[-3.874,52.594],[-3.846,52.601],[-3.85,52.621],[-3.836,52.635],[-3.838,52.638],[-3.842,52.638],[-3.842,52.641],[-3.844,52.643],[-3.841,52.646],[-3.841,52.651],[-3.827,52.662],[-3.818,52.673],[-3.81,52.676],[-3.808,52.678],[-3.806,52.678],[-3.803,52.679],[-3.758,52.67],[-3.744,52.681],[-3.709,52.675],[-3.704,52.683],[-3.702,52.683],[-3.701,52.684],[-3.69,52.682],[-3.697,52.685],[-3.684,52.694],[-3.66,52.691],[-3.602,52.705],[-3.599,52.726],[-3.585,52.736],[-3.588,52.745],[-3.595,52.757],[-3.592,52.763],[-3.595,52.774],[-3.609,52.794],[-3.639,52.788],[-3.648,52.799],[-3.667,52.788],[-3.686,52.792],[-3.701,52.787],[-3.738,52.795],[-3.73,52.801],[-3.761,52.822],[-3.766,52.844],[-3.776,52.842],[-3.786,52.853],[-3.782,52.863],[-3.806,52.871],[-3.813,52.885],[-3.811,52.945],[-3.774,52.956],[-3.739,52.978],[-3.686,52.985],[-3.608,53.01],[-3.612,52.992],[-3.603,52.99],[-3.588,52.965],[-3.484,52.968],[-3.459,52.985],[-3.448,53.003],[-3.481,53.019],[-3.476,53.027],[-3.485,53.028],[-3.485,53.042],[-3.437,53.051],[-3.429,53.042],[-3.433,53.028],[-3.341,53.051],[-3.325,53.06],[-3.323,53.079],[-3.302,53.09],[-3.312,53.115],[-3.277,53.151],[-3.257,53.155],[-3.208,53.16],[-3.183,53.154],[-3.186,53.142],[-3.177,53.116],[-3.146,53.104],[-3.152,53.093],[-3.137,53.074],[-3.113,53.073],[-3.032,53.098],[-3.028,53.093],[-3.029,53.104],[-3.014,53.109],[-2.996,53.131],[-2.964,53.133],[-2.99,53.158],[-2.944,53.165],[-2.921,53.178],[-2.922,53.189],[-2.951,53.212],[-3.013,53.243],[-3.09,53.258],[-3.166,53.312],[-3.247,53.352],[-3.298,53.404],[-3.321,53.412],[-3.516,53.374],[-3.612,53.342],[-3.674,53.344],[-3.749,53.376],[-3.87,53.393],[-3.914,53.385],[-3.958,53.356],[-4.007,53.371],[-4.144,53.366],[-4.217,53.444],[-4.276,53.467],[-4.437,53.486],[-4.53,53.465],[-4.632,53.472],[-4.677,53.453],[-4.696,53.419],[-4.68,53.391],[-4.652,53.377],[-4.717,53.369],[-4.744,53.356],[-4.778,53.325],[-4.784,53.303],[-4.775,53.284],[-4.75,53.252],[-4.693,53.233],[-4.655,53.203],[-4.594,53.191],[-4.578,53.161],[-4.472,53.098],[-4.424,53.085],[-4.421,53.069],[-4.447,53.05],[-4.505,53.028],[-4.546,52.997],[-4.612,52.991],[-4.71,52.94],[-4.788,52.887],[-4.874,52.784],[-4.885,52.767],[-4.885,52.742]]]}},{"type":"Feature","properties":{"NAME":"Kingdom of Leinster","ADMIN_LEVEL":2,"OHM_RELATION_ID":2875840,"START_DATE":"0800","END_DATE":"1603"},"geometry":{"type":"Polygon","coordinates":[[[-7.734,52.853],[-7.698,52.827],[-7.647,52.735],[-7.548,52.701],[-7.514,52.648],[-7.475,52.612],[-7.48,52.601],[-7.452,52.575],[-7.462,52.52],[-7.451,52.507],[-7.427,52.519],[-7.421,52.51],[-7.464,52.471],[-7.426,52.455],[-7.384,52.419],[-7.397,52.367],[-7.388,52.357],[-7.363,52.34],[-7.307,52.321],[-7.285,52.298],[-7.277,52.276],[-7.239,52.262],[-7.219,52.245],[-7.197,52.252],[-7.169,52.28],[-7.085,52.253],[-7.039,52.257],[-7.007,52.277],[-6.985,52.275],[-6.986,52.251],[-6.956,52.231],[-6.937,52.192],[-6.919,52.178],[-6.958,52.145],[-6.978,52.113],[-6.939,52.093],[-6.887,52.102],[-6.846,52.137],[-6.793,52.151],[-6.775,52.172],[-6.73,52.165],[-6.692,52.182],[-6.646,52.165],[-6.634,52.152],[-6.669,52.131],[-6.674,52.103],[-6.647,52.082],[-6.618,52.079],[-6.588,52.086],[-6.546,52.113],[-6.528,52.155],[-6.455,52.16],[-6.354,52.143],[-6.299,52.166],[-6.192,52.173],[-6.162,52.189],[-6.156,52.207],[-6.167,52.222],[-6.25,52.24],[-6.273,52.266],[-6.34,52.288],[-6.34,52.298],[-6.333,52.316],[-6.31,52.336],[-6.314,52.373],[-6.307,52.396],[-6.158,52.534],[-6.144,52.565],[-6.178,52.63],[-6.174,52.643],[-6.143,52.684],[-6.094,52.724],[-6.087,52.79],[-6.063,52.82],[-6.013,52.844],[-6.007,52.857],[-6.011,52.871],[-5.978,52.905],[-5.948,52.962],[-5.959,52.985],[-6,53.005],[-5.985,53.065],[-5.992,53.123],[-6.021,53.166],[-6.029,53.198],[-6.056,53.225],[-6.062,53.243],[-6.04,53.255],[-6.032,53.273],[-6.037,53.286],[-6.07,53.306],[-6.072,53.33],[-6.251,53.348],[-6.333,53.345],[-6.364,53.36],[-6.405,53.36],[-6.423,53.369],[-6.458,53.357],[-6.492,53.364],[-6.5,53.375],[-6.553,53.381],[-6.6,53.398],[-6.659,53.398],[-6.743,53.427],[-6.78,53.426],[-6.79,53.417],[-6.88,53.414],[-6.913,53.424],[-6.923,53.44],[-6.962,53.453],[-7.006,53.438],[-7.032,53.411],[-7.071,53.397],[-7.086,53.38],[-7.143,53.397],[-7.145,53.405],[-7.158,53.41],[-7.209,53.422],[-7.218,53.405],[-7.28,53.4],[-7.28,53.392],[-7.368,53.341],[-7.403,53.33],[-7.423,53.334],[-7.506,53.3],[-7.542,53.181],[-7.583,53.17],[-7.623,53.171],[-7.643,53.149],[-7.589,53.104],[-7.593,53.095],[-7.609,53.075],[-7.656,53.045],[-7.659,53.041],[-7.669,53.037],[-7.674,53.034],[-7.676,53.035],[-7.685,53.031],[-7.707,53.009],[-7.708,52.98],[-7.732,52.956],[-7.7,52.937],[-7.662,52.93],[-7.725,52.884],[-7.721,52.873],[-7.734,52.853]]]}},{"type":"Feature","properties":{"NAME":"Lordship of Meath","ADMIN_LEVEL":2,"OHM_RELATION_ID":2875845,"START_DATE":"1172-03","END_DATE":"1244"},"geometry":{"type":"MultiPolygon","coordinates":[[[[-6.072,53.33],[-6.035,53.333],[-6.007,53.348],[-5.996,53.388],[-6.017,53.423],[-6.04,53.435],[-6.027,53.453],[-5.978,53.461],[-5.957,53.476],[-5.946,53.495],[-5.971,53.52],[-6.027,53.529],[-6.032,53.562],[-6.059,53.603],[-6.084,53.614],[-6.115,53.615],[-6.183,53.673],[-6.2,53.746],[-6.166,53.796],[-6.176,53.813],[-6.208,53.827],[-6.188,53.861],[-6.196,53.876],[-6.217,53.889],[-6.314,53.908],[-6.323,53.919],[-6.423,53.913],[-6.445,53.904],[-6.488,53.854],[-6.515,53.759],[-6.539,53.731],[-6.561,53.707],[-6.631,53.668],[-6.656,53.669],[-6.68,53.654],[-6.684,53.644],[-6.649,53.617],[-6.65,53.604],[-6.732,53.577],[-6.741,53.562],[-6.833,53.552],[-6.855,53.559],[-6.938,53.65],[-6.971,53.657],[-6.991,53.675],[-7.03,53.668],[-7.069,53.644],[-7.085,53.649],[-7.118,53.687],[-7.132,53.676],[-7.142,53.678],[-7.224,53.71],[-7.227,53.732],[-7.26,53.743],[-7.283,53.77],[-7.316,53.788],[-7.338,53.791],[-7.343,53.799],[-7.394,53.78],[-7.421,53.792],[-7.453,53.795],[-7.468,53.808],[-7.468,53.848],[-7.507,53.863],[-7.567,53.852],[-7.586,53.855],[-7.581,53.867],[-7.557,53.878],[-7.552,53.892],[-7.579,53.906],[-7.592,53.927],[-7.625,53.942],[-7.645,53.94],[-7.715,53.888],[-7.776,53.868],[-7.771,53.843],[-7.785,53.839],[-7.803,53.855],[-7.817,53.851],[-7.823,53.834],[-7.86,53.831],[-7.862,53.808],[-7.881,53.794],[-7.884,53.786],[-7.876,53.778],[-7.889,53.761],[-7.916,53.749],[-7.918,53.738],[-7.929,53.733],[-7.946,53.74],[-7.95,53.713],[-7.987,53.701],[-7.986,53.681],[-8.034,53.644],[-8.037,53.607],[-7.981,53.552],[-7.955,53.482],[-7.964,53.442],[-7.936,53.418],[-7.943,53.406],[-7.925,53.398],[-7.911,53.373],[-7.939,53.356],[-7.942,53.343],[-7.984,53.338],[-7.993,53.325],[-8.024,53.321],[-8.026,53.3],[-8.057,53.275],[-8.026,53.253],[-7.974,53.234],[-7.975,53.21],[-7.994,53.193],[-8.043,53.195],[-8.081,53.172],[-8.056,53.154],[-7.981,53.135],[-7.903,53.098],[-7.844,53.089],[-7.79,53.099],[-7.782,53.076],[-7.768,53.063],[-7.674,53.034],[-7.609,53.075],[-7.593,53.095],[-7.589,53.104],[-7.643,53.149],[-7.623,53.171],[-7.583,53.17],[-7.542,53.181],[-7.506,53.3],[-7.423,53.334],[-7.403,53.33],[-7.368,53.341],[-7.28,53.392],[-7.28,53.4],[-7.218,53.405],[-7.209,53.422],[-7.145,53.407],[-7.143,53.397],[-7.086,53.38],[-7.071,53.397],[-7.032,53.411],[-7.006,53.438],[-6.962,53.453],[-6.923,53.44],[-6.913,53.424],[-6.88,53.414],[-6.79,53.417],[-6.78,53.426],[-6.743,53.427],[-6.659,53.398],[-6.6,53.398],[-6.553,53.381],[-6.5,53.375],[-6.492,53.364],[-6.458,53.357],[-6.423,53.369],[-6.405,53.36],[-6.364,53.36],[-6.333,53.345],[-6.251,53.348],[-6.072,53.33]]]]}},{"type":"Feature","properties":{"NAME":"Sodor","ADMIN_LEVEL":2,"OHM_RELATION_ID":2851756,"START_DATE":"0877","END_DATE":"1265"},"geometry":{"type":"MultiPolygon","coordinates":[[[[-5.909,57.626],[-5.912,57.644],[-5.947,57.65],[-5.996,57.648],[-6.054,57.633],[-6.117,57.703],[-6.167,57.727],[-6.184,57.758],[-6.235,57.784],[-6.279,57.793],[-6.34,57.79],[-6.439,57.811],[-6.518,57.798],[-6.559,57.767],[-6.565,57.742],[-6.557,57.724],[-6.512,57.693],[-6.537,57.665],[-6.657,57.671],[-6.7,57.662],[-6.735,57.644],[-6.754,57.621],[-6.759,57.585],[-6.77,57.57],[-6.847,57.535],[-6.87,57.5],[-6.893,57.482],[-6.91,57.436],[-6.906,57.41],[-6.833,57.341],[-6.79,57.319],[-6.748,57.284],[-6.684,57.269],[-6.593,57.27],[-6.555,57.231],[-6.426,57.126],[-6.479,57.138],[-6.543,57.139],[-6.595,57.133],[-6.675,57.111],[-6.723,57.076],[-6.732,57.057],[-6.731,57.036],[-6.768,57.022],[-6.796,57.001],[-6.809,56.973],[-6.801,56.947],[-6.777,56.925],[-6.74,56.91],[-6.661,56.903],[-6.581,56.925],[-6.562,56.941],[-6.55,56.965],[-6.457,56.907],[-6.394,56.879],[-6.406,56.849],[-6.392,56.809],[-6.357,56.782],[-6.305,56.765],[-6.046,56.83],[-6.027,56.914],[-5.991,56.96],[-5.912,56.997],[-5.822,57.087],[-5.772,57.112],[-5.75,57.132],[-5.719,57.176],[-5.652,57.206],[-5.651,57.22],[-5.663,57.232],[-5.632,57.26],[-5.646,57.272],[-5.729,57.278],[-5.872,57.328],[-5.919,57.367],[-5.935,57.451],[-5.889,57.604],[-5.909,57.626]]],[[[-5.761,55.787],[-5.79,55.795],[-5.843,55.762],[-5.883,55.713],[-5.894,55.685],[-5.892,55.64],[-5.866,55.597],[-5.836,55.575],[-5.832,55.487],[-5.834,55.477],[-5.896,55.432],[-5.915,55.407],[-5.929,55.36],[-5.925,55.289],[-5.896,55.26],[-5.816,55.229],[-5.764,55.224],[-5.686,55.229],[-5.601,55.208],[-5.533,55.213],[-5.48,55.231],[-5.448,55.258],[-5.439,55.298],[-5.408,55.329],[-5.392,55.357],[-5.393,55.39],[-5.408,55.42],[-5.289,55.372],[-5.111,55.357],[-5.031,55.377],[-4.973,55.429],[-4.963,55.448],[-4.964,55.47],[-4.939,55.503],[-4.94,55.535],[-4.97,55.577],[-5,55.602],[-5.016,55.647],[-4.979,55.642],[-4.986,55.697],[-4.974,55.733],[-4.968,55.794],[-4.907,55.927],[-4.874,55.967],[-4.948,55.991],[-5.025,55.993],[-5.077,56.008],[-5.126,56.004],[-5.137,55.995],[-5.182,55.984],[-5.223,55.999],[-5.251,55.998],[-5.338,56.017],[-5.393,55.975],[-5.382,55.901],[-5.366,55.869],[-5.406,55.868],[-5.441,55.855],[-5.503,55.802],[-5.582,55.767],[-5.596,55.753],[-5.664,55.753],[-5.761,55.787]]],[[[-5.781,55.86],[-5.804,55.898],[-5.792,55.954],[-5.66,56.111],[-5.669,56.132],[-5.662,56.154],[-5.599,56.182],[-5.582,56.198],[-5.586,56.232],[-5.614,56.236],[-5.582,56.332],[-5.608,56.349],[-5.66,56.358],[-5.598,56.429],[-5.626,56.442],[-5.645,56.482],[-5.954,56.563],[-6.079,56.666],[-6.291,56.671],[-6.309,56.658],[-6.336,56.658],[-6.321,56.695],[-6.333,56.732],[-6.381,56.761],[-6.444,56.771],[-6.491,56.766],[-6.577,56.743],[-6.719,56.669],[-6.763,56.653],[-6.829,56.611],[-6.893,56.6],[-7.054,56.595],[-7.108,56.573],[-7.135,56.544],[-7.137,56.524],[-7.122,56.484],[-7.081,56.417],[-7.038,56.394],[-6.935,56.374],[-6.83,56.387],[-6.778,56.423],[-6.618,56.493],[-6.577,56.501],[-6.599,56.478],[-6.607,56.454],[-6.594,56.422],[-6.561,56.398],[-6.592,56.357],[-6.591,56.337],[-6.575,56.313],[-6.586,56.288],[-6.581,56.268],[-6.56,56.245],[-6.535,56.231],[-6.51,56.197],[-6.438,56.163],[-6.352,56.16],[-6.302,56.175],[-6.274,56.197],[-6.222,56.201],[-6.179,56.217],[-6.016,56.229],[-5.925,56.253],[-5.939,56.229],[-5.935,56.203],[-5.913,56.177],[-5.884,56.162],[-6.019,56.097],[-6.013,56.134],[-6.04,56.172],[-6.086,56.193],[-6.148,56.201],[-6.196,56.196],[-6.244,56.181],[-6.307,56.151],[-6.36,56.115],[-6.416,56.044],[-6.405,55.982],[-6.394,55.963],[-6.437,55.945],[-6.464,55.925],[-6.526,55.907],[-6.557,55.886],[-6.604,55.811],[-6.607,55.791],[-6.599,55.772],[-6.653,55.714],[-6.655,55.693],[-6.645,55.665],[-6.592,55.619],[-6.528,55.604],[-6.455,55.607],[-6.449,55.57],[-6.416,55.541],[-6.37,55.522],[-6.303,55.509],[-6.226,55.514],[-6.145,55.549],[-6.041,55.567],[-5.944,55.613],[-5.916,55.634],[-5.897,55.679],[-5.907,55.73],[-5.851,55.763],[-5.797,55.826],[-5.781,55.86]]],[[[-6.95,57.618],[-6.891,57.679],[-6.846,57.708],[-6.777,57.742],[-6.729,57.752],[-6.645,57.787],[-6.573,57.804],[-6.542,57.822],[-6.525,57.851],[-6.499,57.856],[-6.402,57.822],[-6.333,57.817],[-6.27,57.834],[-6.219,57.871],[-6.208,57.902],[-6.224,57.935],[-6.249,57.957],[-6.283,57.97],[-6.236,58.023],[-6.237,58.052],[-6.252,58.093],[-6.251,58.115],[-6.247,58.122],[-6.149,58.135],[-6.079,58.169],[-6.042,58.201],[-6.015,58.252],[-6.021,58.283],[-6.061,58.311],[-6.04,58.344],[-6.044,58.362],[-6.064,58.385],[-6.049,58.427],[-6.071,58.489],[-6.085,58.506],[-6.148,58.551],[-6.194,58.571],[-6.238,58.579],[-6.319,58.576],[-6.367,58.559],[-6.398,58.531],[-6.439,58.51],[-6.516,58.483],[-6.632,58.422],[-6.711,58.406],[-6.817,58.37],[-6.987,58.341],[-7.044,58.309],[-7.111,58.292],[-7.221,58.208],[-7.253,58.141],[-7.253,58.102],[-7.282,58.081],[-7.292,58.057],[-7.377,58.033],[-7.4,58.018],[-7.415,57.994],[-7.414,57.975],[-7.397,57.952],[-7.34,57.925],[-7.271,57.92],[-7.203,57.939],[-7.187,57.928],[-7.208,57.893],[-7.269,57.87],[-7.322,57.86],[-7.365,57.837],[-7.386,57.809],[-7.389,57.763],[-7.427,57.73],[-7.512,57.727],[-7.558,57.713],[-7.574,57.738],[-7.606,57.757],[-7.687,57.769],[-7.751,57.756],[-7.82,57.72],[-7.832,57.702],[-7.835,57.683],[-7.817,57.653],[-7.774,57.631],[-7.715,57.623],[-7.719,57.607],[-7.784,57.595],[-7.826,57.572],[-7.842,57.542],[-7.834,57.517],[-7.809,57.496],[-7.77,57.478],[-7.666,57.449],[-7.602,57.443],[-7.536,57.457],[-7.527,57.431],[-7.547,57.412],[-7.553,57.386],[-7.521,57.334],[-7.555,57.304],[-7.581,57.241],[-7.539,57.156],[-7.533,57.119],[-7.57,57.079],[-7.612,57.061],[-7.64,57.04],[-7.65,57.008],[-7.698,56.952],[-7.695,56.901],[-7.732,56.879],[-7.768,56.845],[-7.785,56.797],[-7.776,56.766],[-7.762,56.748],[-7.729,56.729],[-7.657,56.712],[-7.59,56.714],[-7.539,56.73],[-7.499,56.761],[-7.494,56.794],[-7.347,56.875],[-7.326,56.895],[-7.32,56.914],[-7.242,56.961],[-7.176,57.025],[-7.117,57.057],[-7.09,57.117],[-7.102,57.142],[-7.125,57.161],[-7.111,57.195],[-7.133,57.229],[-7.104,57.244],[-7.085,57.267],[-7.074,57.306],[-7.087,57.333],[-7.087,57.357],[-7.065,57.393],[-7.068,57.42],[-6.982,57.574],[-6.978,57.592],[-6.95,57.618]]],[[[-7.488,58.236],[-7.45,58.26],[-7.441,58.296],[-7.463,58.325],[-7.52,58.347],[-7.586,58.353],[-7.695,58.345],[-7.751,58.322],[-7.777,58.289],[-7.776,58.27],[-7.759,58.247],[-7.695,58.221],[-7.567,58.209],[-7.524,58.218],[-7.488,58.236]]],[[[-8.373,57.901],[-8.399,57.923],[-8.448,57.942],[-8.495,57.948],[-8.542,57.944],[-8.591,57.926],[-8.614,57.904],[-8.733,57.878],[-8.765,57.852],[-8.771,57.826],[-8.76,57.804],[-8.736,57.783],[-8.637,57.743],[-8.567,57.73],[-8.47,57.732],[-8.43,57.745],[-8.398,57.771],[-8.392,57.795],[-8.4,57.816],[-8.37,57.838],[-8.36,57.856],[-8.362,57.883],[-8.373,57.901]]],[[[-7.144,56.256],[-7.084,56.256],[-7.024,56.277],[-6.995,56.308],[-6.992,56.327],[-6.999,56.346],[-7.032,56.374],[-7.095,56.39],[-7.156,56.386],[-7.21,56.365],[-7.239,56.33],[-7.232,56.297],[-7.197,56.27],[-7.144,56.256]]],[[[-6.593,56.195],[-6.667,56.2],[-6.729,56.183],[-6.765,56.149],[-6.763,56.115],[-6.722,56.08],[-6.67,56.066],[-6.602,56.067],[-6.552,56.083],[-6.52,56.11],[-6.513,56.129],[-6.517,56.148],[-6.545,56.178],[-6.593,56.195]]],[[[-4.218,54.255],[-4.197,54.283],[-4.199,54.315],[-4.221,54.344],[-4.256,54.361],[-4.252,54.429],[-4.282,54.463],[-4.319,54.478],[-4.375,54.483],[-4.528,54.456],[-4.625,54.41],[-4.708,54.31],[-4.735,54.291],[-4.782,54.272],[-4.814,54.247],[-4.853,54.185],[-4.851,54.153],[-4.937,54.083],[-4.948,54.064],[-4.948,54.038],[-4.936,54.019],[-4.907,53.998],[-4.849,53.98],[-4.78,53.98],[-4.703,54.002],[-4.637,53.99],[-4.573,53.997],[-4.539,54.014],[-4.508,54.042],[-4.404,54.089],[-4.371,54.116],[-4.324,54.138],[-4.298,54.16],[-4.254,54.223],[-4.218,54.255]]]]}},{"type":"Feature","properties":{"NAME":"Southern Powys","ADMIN_LEVEL":2,"OHM_RELATION_ID":2798863,"START_DATE":"1160","END_DATE":"1283"},"geometry":{"type":"MultiPolygon","coordinates":[[[[-3.161,52.804],[-3.187,52.805],[-3.241,52.786],[-3.284,52.789],[-3.272,52.799],[-3.283,52.803],[-3.282,52.81],[-3.311,52.831],[-3.396,52.859],[-3.389,52.876],[-3.436,52.861],[-3.483,52.865],[-3.503,52.839],[-3.567,52.83],[-3.568,52.823],[-3.587,52.828],[-3.598,52.814],[-3.606,52.79],[-3.598,52.784],[-3.591,52.766],[-3.595,52.757],[-3.583,52.738],[-3.599,52.726],[-3.602,52.705],[-3.66,52.691],[-3.681,52.693],[-3.694,52.687],[-3.683,52.681],[-3.701,52.684],[-3.707,52.675],[-3.744,52.681],[-3.758,52.67],[-3.808,52.678],[-3.841,52.651],[-3.842,52.638],[-3.835,52.637],[-3.85,52.621],[-3.846,52.601],[-3.874,52.594],[-3.876,52.583],[-3.891,52.576],[-3.915,52.579],[-3.928,52.564],[-3.861,52.561],[-3.841,52.552],[-3.836,52.527],[-3.844,52.517],[-3.826,52.484],[-3.771,52.489],[-3.75,52.506],[-3.733,52.506],[-3.73,52.499],[-3.74,52.495],[-3.745,52.475],[-3.765,52.472],[-3.771,52.442],[-3.712,52.413],[-3.713,52.402],[-3.695,52.367],[-3.681,52.368],[-3.663,52.355],[-3.636,52.37],[-3.587,52.358],[-3.593,52.373],[-3.572,52.374],[-3.535,52.405],[-3.514,52.41],[-3.491,52.392],[-3.463,52.395],[-3.424,52.413],[-3.415,52.427],[-3.395,52.433],[-3.403,52.436],[-3.393,52.441],[-3.367,52.444],[-3.344,52.435],[-3.287,52.458],[-3.254,52.464],[-3.232,52.457],[-3.161,52.804]]]]}}],"metadata":{"generatedBy":"scripts/build-fief-flat.ts","input":"data/britain_fiefs_1200.geojson","year":1200,"cutPolicy":"keep-smaller","containmentCoverageThreshold":0.9,"minOverlapAreaM2":1000,"sliverAreaLimitM2":1000000000,"resolutions":[{"kind":"sliver","cutName":"Kingdom of Gwynedd","keptName":"Southern Powys","overlapKm2":1.59,"coverageOfSmaller":0.0009},{"kind":"sliver","cutName":"Kingdom of Leinster","keptName":"Lordship of Meath","overlapKm2":5.22,"coverageOfSmaller":0.0008}],"source":"OpenHistoricalMap","sourceUrl":"https://www.openhistoricalmap.org/","license":"CC0-1.0","borderPrecision":"史料に基づく復元（概略。測量された境界ではない）"}}