{"type":"FeatureCollection","features":[{"type":"Feature","properties":{"NAME":"Duchy of Bavaria","SUBJECTO":"Holy Roman Empire","PARTOF":"Holy Roman Empire","START_DATE":"1395","END_DATE":"1421","CLIOPATRIA_NAME":"Duchy of Bavaria","CLIOPATRIA_SESHAT_ID":"de_empire_3","CLIOPATRIA_AREA_KM2":47598,"WIKIDATA":"Q47261","WIKIPEDIA":"Duchy of Bavaria","SNAPSHOT_YEAR":1400},"geometry":{"type":"MultiPolygon","coordinates":[[[[3.39925,51.64724],[3.40621,51.51342],[4.08441,51.51342],[4.20683,51.66667],[4.15626,51.68277],[4.04434,51.69852],[4.0107,51.75849],[3.92761,51.77124],[3.88092,51.74744],[3.78411,51.78114],[3.6471,51.78114],[3.73869,51.64724],[3.39925,51.64724]]],[[[3.53828,50.57886],[3.54161,50.51225],[3.54493,50.44566],[3.54824,50.37908],[3.96861,50.37908],[4.14281,50.24598],[4.15184,50.04647],[4.15484,49.98001],[4.40635,49.98001],[4.3948,50.24598],[4.63842,50.44566],[4.299,50.51225],[4.20582,50.71214],[4.03417,50.77881],[3.53828,50.57886]]],[[[3.8104,51.91513],[3.81367,51.84859],[3.82563,51.86002],[3.94728,51.89165],[3.96476,51.91513],[3.8104,51.91513]]],[[[3.97402,52.04919],[3.97951,51.93495],[4.04206,52.01899],[4.32682,52.23791],[4.42555,52.35441],[4.50694,52.5139],[4.54248,52.61735],[4.55669,52.74669],[4.62293,52.89079],[4.53433,52.85537],[4.46381,52.51908],[4.21693,52.31758],[4.22317,52.18334],[3.97402,52.04919]]],[[[4.60811,53.12479],[4.64147,53.05353],[4.64285,53.07091],[4.69398,53.14242],[4.74924,53.1922],[4.69101,53.1922],[4.60811,53.12479]]],[[[5.04822,52.03792],[5.10315,52.00317],[5.1289,51.99408],[5.04822,52.03792]]],[[[10.02738,49.0772],[10.02781,48.98506],[10.27802,48.85268],[10.27844,48.72037],[10.44497,48.58812],[10.52859,48.25777],[10.52871,48.19175],[10.48208,47.96624],[10.48714,47.96763],[10.47752,47.9428],[10.49126,47.93176],[10.47169,47.91266],[10.49057,47.90783],[10.48267,47.88527],[10.50087,47.90392],[10.53692,47.89333],[10.57331,47.86777],[10.5637,47.84911],[10.61279,47.83574],[10.60009,47.76979],[10.5742,47.76207],[10.69478,47.73],[10.61239,47.59821],[10.69491,47.59821],[10.69497,47.53233],[10.94241,47.53233],[11.2725,47.59821],[11.27237,47.55174],[11.31866,47.55151],[11.41222,47.49586],[11.38493,47.47406],[11.39431,47.46647],[11.43703,47.46647],[11.43655,47.33479],[11.60099,47.26897],[11.74537,47.26897],[11.74473,47.28284],[11.78679,47.3522],[11.88941,47.37928],[11.91048,47.36771],[12.01463,47.53233],[12.26206,47.53233],[12.28778,47.46929],[12.34177,47.45781],[12.36151,47.41159],[12.34194,47.37882],[12.33954,47.34246],[12.34267,47.33479],[12.50811,47.40062],[12.5109,47.6641],[12.59849,47.6641],[12.60578,47.67394],[12.78431,47.67198],[12.76451,47.65438],[12.78313,47.62404],[12.77985,47.6337],[12.82173,47.65706],[12.85057,47.64642],[12.83684,47.66631],[12.89791,47.69157],[12.95185,47.70595],[12.90948,47.69466],[12.90439,47.72732],[12.9248,47.75075],[12.92503,47.76807],[12.89014,47.74515],[12.84842,47.75496],[12.83074,47.77908],[12.76637,47.78813],[12.68466,47.90098],[12.70989,47.92491],[12.64621,47.96924],[12.54441,47.99636],[12.54544,48.01404],[12.57591,48.02966],[12.58947,48.065],[12.66629,48.07527],[12.71419,48.11121],[12.74871,48.1067],[12.7637,48.07848],[12.76513,48.19175],[12.92898,48.05975],[13.17725,48.05975],[13.71542,48.37801],[13.68553,48.40687],[13.70167,48.41986],[13.68553,48.44697],[13.69849,48.47563],[13.72709,48.50901],[13.74355,48.52822],[13.69553,48.47218],[13.63678,48.52843],[13.6385,48.54389],[13.65734,48.54429],[13.64875,48.55066],[13.59129,48.56857],[13.57262,48.56051],[13.51689,48.58812],[13.50788,48.58812],[13.47542,48.55616],[13.44996,48.56393],[13.43645,48.55264],[13.45722,48.51149],[13.44745,48.49436],[13.38667,48.47349],[13.36178,48.48817],[13.36246,48.5307],[13.38959,48.54161],[13.40075,48.56741],[13.44967,48.57576],[13.37975,48.58812],[13.26854,48.58812],[13.24697,48.66055],[13.23441,48.67147],[13.24228,48.67633],[13.18977,48.85268],[13.35615,48.85268],[13.35848,48.98506],[13.02955,49.25001],[12.86078,49.1175],[12.61076,49.1175],[12.52422,48.85268],[12.35713,48.78652],[12.27397,48.78652],[12.27532,48.91887],[12.02621,48.98506],[11.94294,48.98506],[11.76257,48.93735],[11.84326,48.92656],[11.86438,48.94156],[11.9224,48.93457],[11.95158,48.90417],[11.99364,48.93023],[12.01046,48.90569],[12.11123,48.90625],[12.14521,48.88944],[12.13783,48.87623],[12.00617,48.87533],[11.94077,48.88199],[11.92532,48.88899],[11.92592,48.91122],[11.86145,48.91621],[11.83309,48.89852],[11.84051,48.87759],[11.86798,48.87714],[11.92635,48.8245],[11.9648,48.82947],[12.01836,48.81048],[12.01904,48.79013],[12.03552,48.79691],[12.06505,48.76388],[12.00806,48.758],[11.98746,48.7331],[11.95244,48.74713],[11.93802,48.734],[11.95862,48.72404],[11.94832,48.70864],[11.89682,48.72177],[11.88858,48.73898],[11.84875,48.73763],[11.8158,48.67373],[11.7952,48.69323],[11.76498,48.68053],[11.76704,48.7109],[11.81854,48.73627],[11.80824,48.76886],[11.58577,48.82495],[11.55487,48.90264],[11.57204,48.92746],[11.68084,48.93314],[11.52733,49.1175],[11.44637,49.13898],[11.48483,49.10782],[11.53427,49.09478],[11.53461,49.04304],[11.5947,49.01671],[11.51745,48.97165],[11.51745,48.95407],[11.4838,48.95926],[11.50097,48.93242],[11.49239,48.92069],[11.38733,48.89858],[11.40518,48.84936],[11.33102,48.81184],[11.32484,48.78696],[11.34819,48.77746],[11.32553,48.76026],[11.23249,48.77452],[11.12709,48.81365],[11.07765,48.79013],[11.03199,48.79533],[11.01414,48.82382],[11.14803,48.83015],[11.14065,48.84834],[10.99869,48.84088],[11.00847,48.86042],[10.99766,48.87014],[11.0368,48.89994],[11.07628,48.90467],[11.05499,48.9216],[11.08932,48.95362],[11.06804,48.97616],[11.06804,49.00184],[11.0907,49.02301],[10.98633,49.02819],[11.01311,49.05902],[10.93689,49.07477],[10.93037,49.05587],[10.95818,49.04034],[10.91745,49.02863],[11.02701,48.98506],[10.98818,48.92346],[11.03542,48.90986],[10.97671,48.85726],[10.94814,48.85995],[10.94356,48.85268],[10.71279,48.89857],[10.70892,48.8961],[10.67553,48.90598],[10.61073,48.91887],[10.53689,49.01648],[10.53434,49.01344],[10.41229,49.01986],[10.33779,49.0597],[10.36491,49.07522],[10.31342,49.09006],[10.2935,49.06622],[10.26157,49.08556],[10.24166,49.07656],[10.25454,49.10332],[10.22501,49.10377],[10.196,49.07983],[10.15686,49.07533],[10.16098,49.06588],[10.11103,49.07409],[10.09712,49.10197],[10.04974,49.07656],[10.02738,49.0772]],[[11.2706,48.34256],[11.30768,48.36446],[11.32004,48.34073],[11.28433,48.33069],[11.2706,48.34256]],[[11.33652,48.41097],[11.37359,48.421],[11.40278,48.40892],[11.39419,48.39274],[11.35986,48.38818],[11.33652,48.41097]],[[11.54251,48.43831],[11.56036,48.45471],[11.61255,48.43285],[11.56723,48.39456],[11.55212,48.39821],[11.56311,48.42191],[11.54251,48.43831]],[[11.60687,48.15764],[11.68044,48.24688],[11.70016,48.32083],[11.73556,48.37044],[11.73487,48.39865],[11.71108,48.42297],[11.74335,48.43271],[11.7861,48.41312],[11.75344,48.40447],[11.82114,48.40609],[11.75018,48.24125],[11.71198,48.20324],[11.66831,48.19577],[11.65182,48.15178],[11.60687,48.15764]],[[12.02453,48.19722],[12.09114,48.22147],[12.09354,48.18509],[12.02866,48.17791],[12.02453,48.19722]],[[12.46536,48.23874],[12.5342,48.27565],[12.5778,48.24057],[12.53574,48.22147],[12.48648,48.22193],[12.46536,48.23874]],[[13.28796,48.33845],[13.35714,48.36885],[13.37628,48.35732],[13.31989,48.31859],[13.28796,48.33845]]],[[[10.19242,49.12627],[10.22162,49.11766],[10.2554,49.13049],[10.21845,49.16102],[10.19242,49.12627]]],[[[10.36594,49.11029],[10.38963,49.09298],[10.42705,49.10152],[10.36594,49.11029]]],[[[10.41882,49.02414],[10.45898,49.02391],[10.45452,49.04349],[10.41882,49.03899],[10.41882,49.02414]]],[[[10.46997,49.05497],[10.49091,49.04057],[10.50739,49.05092],[10.46997,49.05497]]],[[[11.06774,49.1171],[11.07319,49.09905],[11.09894,49.07904],[11.20708,49.08444],[11.18889,49.10782],[11.22219,49.1496],[11.30356,49.06757],[11.28845,49.09658],[11.32278,49.14331],[11.4135,49.14769],[11.27756,49.18375],[11.06774,49.1171]]],[[[11.0907,49.02301],[11.18889,49.02932],[11.20641,49.03447],[11.1906,49.05115],[11.17001,49.0489],[11.16784,49.03099],[11.0907,49.02301]]],[[[11.80241,47.27923],[11.80432,47.26897],[11.81968,47.26897],[11.83708,47.29227],[11.86636,47.29797],[11.88508,47.32756],[11.83674,47.32277],[11.80241,47.27923]]]]}},{"type":"Feature","properties":{"NAME":"Kingdom of Bohemia","SUBJECTO":"Holy Roman Empire","PARTOF":"Holy Roman Empire","START_DATE":"1385","END_DATE":"1414","CLIOPATRIA_NAME":"Kingdom of Bohemia","CLIOPATRIA_SESHAT_ID":"cz_bohemian_k_2","CLIOPATRIA_AREA_KM2":106361,"WIKIDATA":"Q42585","WIKIPEDIA":"Kingdom of Bohemia","SNAPSHOT_YEAR":1400},"geometry":{"type":"MultiPolygon","coordinates":[[[[12.12222,50.23549],[12.18797,50.20035],[12.21597,50.1682],[12.19516,50.14317],[12.1986,50.11786],[12.21993,50.1008],[12.27307,50.07442],[12.26544,50.06439],[12.37092,49.98001],[12.36765,49.71431],[12.53414,49.64793],[12.53241,49.51522],[13.02955,49.25001],[13.35848,48.98506],[13.52501,48.98506],[13.5247,48.96847],[13.58687,48.96615],[13.66274,48.88898],[13.6779,48.88085],[13.73151,48.88674],[13.7646,48.83443],[13.76497,48.83415],[14.10047,48.65424],[14.44443,48.60846],[14.45605,48.62514],[14.45083,48.64375],[14.47019,48.64839],[14.50725,48.61764],[14.56372,48.60552],[14.60842,48.62809],[14.63439,48.60754],[14.71542,48.64994],[14.71464,48.65639],[14.7293,48.68934],[14.80657,48.73631],[14.81951,48.80059],[14.86918,48.83721],[14.88815,48.90443],[14.91246,48.90296],[14.94054,48.98506],[14.98191,48.98506],[14.99236,49.01075],[15.02077,49.0205],[15.05868,49.01547],[15.06968,48.99907],[15.15043,48.99495],[15.15261,48.98506],[15.19034,48.98506],[15.19635,49.18375],[15.23493,49.20875],[15.21041,49.21198],[15.18172,49.17305],[15.13729,49.18724],[15.19148,49.23645],[15.21982,49.22677],[15.23819,49.25415],[15.27932,49.24666],[15.26855,49.24935],[15.27762,49.27681],[15.33143,49.27127],[15.3359,49.27416],[15.34601,49.3146],[15.38383,49.31949],[15.3581,49.33678],[15.4064,49.31984],[15.48537,49.371],[15.5134,49.41002],[15.54536,49.40986],[15.70798,49.51522],[15.80101,49.78071],[16.03007,49.70715],[16.05049,49.70847],[16.06632,49.69551],[16.11458,49.68001],[16.13916,49.69133],[16.19541,49.67564],[16.22336,49.66536],[16.224,49.66215],[16.39242,49.91356],[16.7107,50.01314],[16.69512,50.05252],[16.80548,50.05229],[16.81712,50.08767],[16.80148,50.13222],[16.84051,50.20105],[16.87217,50.19897],[16.91308,50.31252],[17.01935,50.225],[17.03025,50.23023],[17.07354,50.18726],[17.11298,50.18067],[17.15382,50.12392],[17.22047,50.10194],[17.23941,50.05466],[17.31558,50.01284],[17.3219,49.98353],[17.38471,49.9375],[17.41075,49.94795],[17.39878,49.97175],[17.42906,49.96901],[17.4597,49.95979],[17.47471,49.92636],[17.49412,49.93158],[17.53949,49.90112],[17.55903,49.90837],[17.5996,49.87703],[17.69426,49.90739],[17.71041,49.89545],[17.73828,49.9121],[17.80439,49.91562],[17.85426,49.93238],[17.84674,49.95844],[17.87632,49.95618],[17.88227,49.93707],[17.84877,49.90845],[17.83699,49.87267],[17.65295,49.86573],[17.65525,49.81898],[17.64142,49.80464],[17.69901,49.72546],[17.75747,49.71217],[17.7625,49.69272],[17.74417,49.67676],[17.76555,49.64793],[17.89152,49.64793],[17.88044,49.65584],[17.8457,49.65568],[17.86987,49.70124],[17.84278,49.73146],[17.87088,49.78297],[17.89094,49.78101],[17.91676,49.71189],[17.97963,49.73581],[17.99084,49.68689],[18.0094,49.67832],[18.01286,49.67983],[18.03408,49.696],[18.03356,49.69587],[18.00143,49.71765],[18.05982,49.72762],[18.06109,49.71657],[18.22011,49.83773],[18.22743,49.85314],[18.27588,49.86699],[18.29983,49.83495],[18.2752,49.80123],[18.29861,49.77905],[18.30597,49.72831],[18.36503,49.65743],[18.3566,49.60973],[18.36948,49.56204],[18.46053,49.4573],[18.5199,49.46929],[18.54095,49.4925],[18.54391,49.46504],[18.5009,49.42947],[18.88354,49.51522],[19.23756,49.84713],[19.16577,50.04647],[19.0819,50.04647],[19.08589,50.11296],[19.0899,50.17946],[19.17385,50.17946],[19.18613,50.37908],[19.02203,50.44566],[19.03019,50.57886],[18.70133,50.71214],[18.70932,50.84549],[18.04935,51.11243],[17.97229,51.24602],[17.54926,51.24602],[17.31974,51.71418],[16.98013,51.71418],[16.719,51.58032],[16.55562,51.71418],[16.1311,51.71418],[16.13699,51.84813],[15.80826,52.11626],[15.81395,52.25045],[15.64623,52.31758],[15.47028,52.18334],[15.13196,52.25045],[14.77944,51.91513],[14.616,52.11626],[14.36051,52.11626],[13.94037,52.31758],[13.42535,52.18334],[13.4234,52.10212],[13.49269,52.10852],[13.53207,52.14255],[13.54879,52.1371],[13.54082,52.09724],[13.6376,52.06613],[13.66781,52.01904],[13.56073,51.98215],[13.59068,51.98215],[13.75732,51.84813],[14.09727,51.84813],[14.26325,51.71418],[14.25931,51.58032],[14.25735,51.51342],[14.2554,51.44654],[14.25346,51.37968],[14.25153,51.31284],[14.33618,51.31284],[14.33422,51.24602],[14.32651,50.97892],[14.06964,50.84549],[13.98528,50.84549],[13.22205,50.64549],[12.79645,50.37908],[12.37608,50.37908],[12.29033,50.24598],[12.12234,50.24598],[12.12222,50.23549]],[[17.42548,50.23426],[17.43375,50.25331],[17.48687,50.27354],[17.5835,50.27787],[17.61176,50.26591],[17.68163,50.29702],[17.69256,50.327],[17.71805,50.32065],[17.7474,50.29427],[17.72702,50.25568],[17.76512,50.23581],[17.7585,50.20664],[17.61966,50.17117],[17.60571,50.1891],[17.54233,50.18909],[17.51757,50.21237],[17.42694,50.20487],[17.42548,50.23426]],[[17.79201,49.75799],[17.80231,49.76729],[17.82279,49.75642],[17.79201,49.75799]],[[17.796,49.96886],[17.82839,49.96232],[17.80757,49.95633],[17.796,49.96886]],[[17.94754,50.07025],[17.95115,50.10781],[17.97432,50.12713],[18.06539,50.11348],[18.12255,50.06463],[18.09525,50.05989],[18.08118,50.09245],[18.0768,50.06788],[18.0756,50.08309],[18.04976,50.08094],[18.005,50.0498],[17.94754,50.07025]],[[17.9536,49.79493],[17.988,49.80597],[18.00561,49.7859],[17.96633,49.77882],[17.9536,49.79493]],[[17.98013,49.92172],[17.99397,49.90186],[17.98078,49.88619],[17.98013,49.92172]]],[[[13.24691,51.82662],[13.25848,51.81986],[13.3234,51.82855],[13.31019,51.83055],[13.31597,51.84813],[13.31211,51.84813],[13.31079,51.84477],[13.30794,51.84813],[13.24739,51.84813],[13.24691,51.82662]]],[[[13.44998,51.6792],[13.45137,51.67319],[13.5824,51.64724],[13.66726,51.64724],[13.66894,51.71418],[13.67063,51.78114],[13.58573,51.78114],[13.57121,51.76901],[13.57593,51.75512],[13.5452,51.74401],[13.51942,51.70431],[13.44998,51.6792]]],[[[13.48663,51.84139],[13.53627,51.8257],[13.57685,51.84235],[13.5872,51.84244],[13.58734,51.84813],[13.509,51.84813],[13.51204,51.83336],[13.48663,51.84139]]]]}},{"type":"Feature","properties":{"NAME":"Margraviate of Brandenburg","SUBJECTO":"Holy Roman Empire","PARTOF":"Holy Roman Empire","START_DATE":"1395","END_DATE":"1401","CLIOPATRIA_NAME":"Margraviate of Brandenburg","CLIOPATRIA_SESHAT_ID":"de_empire_3","CLIOPATRIA_AREA_KM2":41923,"WIKIDATA":"Q148499","WIKIPEDIA":"Margraviate of Brandenburg","SNAPSHOT_YEAR":1400},"geometry":{"type":"MultiPolygon","coordinates":[[[[11.04376,52.85537],[11.12705,52.51908],[11.89675,52.5863],[12.01347,52.64099],[12.01046,52.66087],[12.0393,52.7259],[12.02273,52.81226],[12.06599,52.81838],[12.10912,52.78278],[12.14127,52.78325],[12.16598,52.8038],[12.21319,52.79456],[12.22366,52.77587],[12.20581,52.76092],[12.2222,52.73998],[12.21918,52.73737],[12.31066,52.78023],[12.28207,52.7962],[12.32563,52.79695],[12.35069,52.84218],[12.33009,52.85504],[12.36374,52.84736],[12.41421,52.90248],[12.45644,52.92174],[12.48322,52.91718],[12.51781,52.96332],[12.61668,52.97705],[12.65252,53.00291],[12.61046,53.01272],[12.62724,53.07031],[12.49849,53.13678],[12.51102,53.14564],[12.54536,53.1547],[12.73916,53.11855],[12.82036,53.15007],[12.91168,53.15439],[12.94271,53.19572],[12.96842,53.1986],[12.94202,53.17461],[12.98005,53.16262],[13.0188,53.18541],[13.06124,53.15727],[13.08718,53.16426],[13.13201,53.1341],[13.11386,53.12682],[13.10617,53.09923],[13.15089,53.09668],[13.23449,53.05615],[13.2792,53.06225],[13.23561,53.05345],[13.21981,53.02852],[13.2375,53.01411],[13.16875,52.97661],[13.18359,52.95572],[13.24125,52.95342],[13.24471,52.93721],[13.19115,52.91263],[13.15407,52.9207],[13.12737,52.9074],[13.1545,52.86581],[13.09673,52.86405],[13.09442,52.84109],[12.97133,52.82885],[12.98571,52.8287],[12.92829,52.79057],[12.85555,52.78501],[12.7907,52.82745],[12.72569,52.82307],[12.54742,52.77224],[12.53918,52.7525],[12.40219,52.75437],[12.39601,52.77099],[12.33318,52.76764],[12.32712,52.77103],[12.32525,52.6564],[12.33357,52.65184],[12.33177,52.64829],[12.57808,52.45189],[12.4399,52.3446],[12.46579,52.32752],[12.45769,52.31778],[12.40499,52.31127],[12.40308,52.19488],[12.43515,52.19561],[12.44268,52.1781],[12.44682,52.17756],[12.4476,52.17846],[12.49611,52.17508],[12.49655,52.19882],[12.54029,52.2004],[12.5254,52.22509],[12.5363,52.24765],[12.56836,52.25166],[12.57128,52.26837],[12.62329,52.23989],[12.78379,52.2035],[12.83615,52.24746],[12.78156,52.26879],[12.78826,52.28948],[12.89739,52.29662],[12.91078,52.27407],[12.84542,52.24546],[12.85486,52.18804],[12.82654,52.1773],[12.81933,52.15235],[12.8322,52.14023],[12.81869,52.12861],[12.98986,52.10608],[12.98241,52.12927],[12.95151,52.14276],[12.98447,52.14697],[13.09759,52.2176],[13.10686,52.24515],[13.17003,52.26784],[13.21793,52.23495],[13.19218,52.19077],[13.19424,52.15498],[13.22239,52.11958],[13.27382,52.08514],[13.32719,52.07745],[13.27153,52.0881],[13.4234,52.10212],[13.42535,52.18334],[13.94037,52.31758],[14.36051,52.11626],[14.616,52.11626],[14.77944,51.91513],[15.13196,52.25045],[15.47028,52.18334],[15.64623,52.31758],[15.48927,52.65353],[16.09714,52.85537],[16.02382,53.12479],[16.10966,53.12479],[16.11918,53.32709],[16.29441,53.39457],[16.30103,53.52959],[16.47667,53.59714],[16.40071,53.79992],[16.31441,53.79992],[16.39723,53.97395],[16.3135,53.98905],[16.29135,53.98491],[16.2826,53.95755],[16.1699,53.98138],[16.15977,53.98905],[16.19548,54.00464],[16.12982,54.02834],[16.15178,54.04383],[15.98204,54.07063],[15.96922,53.79992],[16.05552,53.79992],[16.0523,53.7323],[15.70427,53.66471],[15.78133,53.46207],[15.43993,53.52959],[15.25675,53.25963],[15.25064,53.25868],[15.29168,53.25007],[15.36826,53.25073],[15.35198,53.20896],[15.37957,53.19904],[15.34842,53.11268],[15.40086,53.08923],[15.38944,53.06288],[15.42137,53.05195],[15.45845,53.00962],[15.41226,52.98041],[15.39471,53.00147],[15.35866,52.98917],[15.37549,52.97739],[15.28159,52.96467],[15.22769,53.02883],[15.20228,53.03627],[15.21155,53.06774],[15.19899,53.08495],[15.13117,53.03031],[15.08213,53.04005],[15.07247,53.05819],[15.02535,53.05267],[15.01814,53.07835],[15.05071,53.10281],[15.0408,53.11263],[15.00762,53.11255],[14.96879,53.08676],[14.88544,53.1218],[14.84974,53.10268],[14.84974,53.06298],[14.80957,53.03306],[14.81609,53.01809],[14.73245,53.03672],[14.65134,52.98395],[14.52088,52.96343],[14.42707,53.00056],[14.42848,53.02222],[14.37149,53.03946],[14.33956,53.07526],[14.35415,53.07897],[14.3708,53.13647],[14.32484,53.15537],[14.30055,53.18523],[14.26373,53.12087],[14.12121,53.16427],[14.09306,53.22207],[14.10747,53.28102],[14.22729,53.36387],[14.24163,53.42232],[14.17142,53.47599],[14.1661,53.51393],[14.07726,53.51663],[14.0237,53.46649],[13.96903,53.48181],[13.96045,53.49571],[13.97435,53.49913],[13.89427,53.51357],[13.89316,53.49862],[13.87972,53.504],[13.90238,53.56896],[13.86835,53.58137],[13.786,53.56287],[13.81694,53.59217],[13.7763,53.59836],[13.76123,53.62168],[13.86131,53.67038],[13.70351,53.69478],[13.5492,53.66471],[13.19619,53.32709],[12.16561,53.39457],[11.91039,53.59714],[11.73808,53.59714],[11.5635,53.39457],[11.30606,53.46207],[11.1329,53.32709],[11.21776,53.1922],[11.38952,53.1922],[11.38824,53.0574],[11.21667,53.0574],[11.04376,52.85537]],[[12.45403,52.24467],[12.4639,52.26451],[12.51706,52.25565],[12.49575,52.23074],[12.45403,52.24467]],[[13.03987,53.19434],[13.07206,53.20047],[13.05566,53.17914],[13.03987,53.19434]]],[[[14.74082,53.11051],[14.74812,53.0684],[14.79013,53.07918],[14.77052,53.11649],[14.74082,53.11051]]],[[[15.18918,53.11559],[15.23031,53.13297],[15.21713,53.14727],[15.18997,53.14203],[15.18918,53.11559]]]]}}],"metadata":{"generatedBy":"scripts/build-fief-flat.ts","input":"data/cliopatria_fiefs_1400.geojson","year":1400,"cutPolicy":"keep-smaller","containmentCoverageThreshold":0.9,"minOverlapAreaM2":1000,"sliverAreaLimitM2":1000000000,"resolutions":[],"externalInputs":["data/italy_fiefs_flat_1400.geojson","data/hre_fiefs_flat_1400.geojson"],"externalRemovals":[{"cutName":"Duchy of Bavaria","externalName":"County of Abensberg","overlapKm2":564.51},{"cutName":"Duchy of Bavaria","externalName":"County of Holland","overlapKm2":5898.77},{"cutName":"Duchy of Bavaria","externalName":"County of Schaunberg","overlapKm2":81.67},{"cutName":"Duchy of Bavaria","externalName":"Duchy of Austria","overlapKm2":51.41},{"cutName":"Duchy of Bavaria","externalName":"Duchy of Guelders","overlapKm2":220.3},{"cutName":"Duchy of Bavaria","externalName":"Imperial Abbey of Berchtesgaden","overlapKm2":243.76},{"cutName":"Duchy of Bavaria","externalName":"Prince-Archbishopric of Salzburg","overlapKm2":685.97},{"cutName":"Duchy of Bavaria","externalName":"Prince-Bishopric of Eichstätt","overlapKm2":1017.89},{"cutName":"Duchy of Bavaria","externalName":"Prince-Bishopric of Freising","overlapKm2":277.71},{"cutName":"Duchy of Bavaria","externalName":"Prince-Bishopric of Passau","overlapKm2":184.27},{"cutName":"Duchy of Bavaria","externalName":"Prince-Bishopric of Utrecht","overlapKm2":505.82},{"cutName":"Duchy of Bavaria","externalName":"Princely Abbey of Kempten","overlapKm2":135.05},{"cutName":"Duchy of Bavaria","externalName":"Principality of Ansbach","overlapKm2":584.88},{"cutName":"Kingdom of Bohemia","externalName":"Duchy of Austria","overlapKm2":150.37},{"cutName":"Kingdom of Bohemia","externalName":"Electorate of Saxony(-Wittenberg)","overlapKm2":481.82},{"cutName":"Kingdom of Bohemia","externalName":"Moravia","overlapKm2":1345.38},{"cutName":"Kingdom of Bohemia","externalName":"Prince-Archbishopric of Magdeburg","overlapKm2":24},{"cutName":"Kingdom of Bohemia","externalName":"Prince-Bishopric of Passau","overlapKm2":48.99},{"cutName":"Kingdom of Bohemia","externalName":"Principality of Bayreuth","overlapKm2":45.5},{"cutName":"Margraviate of Brandenburg","externalName":"Duchy of Pomerania-Stettin","overlapKm2":1722.9},{"cutName":"Margraviate of Brandenburg","externalName":"Electorate of Saxony(-Wittenberg)","overlapKm2":293.41},{"cutName":"Margraviate of Brandenburg","externalName":"Lordship of Ruppin","overlapKm2":1752.89},{"cutName":"Margraviate of Brandenburg","externalName":"Prince-Archbishopric of Magdeburg","overlapKm2":388.71},{"cutName":"Margraviate of Brandenburg","externalName":"Prince-Bishopric of Cammin","overlapKm2":83.54}],"source":"Cliopatria (Seshat Global History Databank)","sourceUrl":"https://github.com/Seshat-Global-History-Databank/cliopatria","license":"CC BY 4.0","commit":"ad28a691b7c07c1fca89d0e0636d324667d2a258","borderPrecision":"史料地図のデジタイズ（概略。手描き地図の自動抽出を 0.07 度で平滑化）"}}