{"type":"FeatureCollection","features":[{"type":"Feature","properties":{"NAME":"County of Armagnac","START_DATE":"1279","END_DATE":"1332","CLIOPATRIA_NAME":"County of Armagnac","CLIOPATRIA_SESHAT_ID":"fr_capetian_k_2","CLIOPATRIA_AREA_KM2":6985,"WIKIDATA":"Q676745","WIKIPEDIA":"County of Armagnac","SNAPSHOT_YEAR":1279},"geometry":{"type":"MultiPolygon","coordinates":[[[[-0.28113,43.99384],[-0.32871,43.47235],[0.00901,43.21183],[0.08936,43.21183],[0.08153,43.34207],[0.40318,43.34207],[0.47603,43.47235],[0.63698,43.47235],[0.94799,43.66784],[0.92225,44.12432],[0.2839,43.99384],[0.03771,44.05907],[0.04174,43.99384],[-0.03898,43.99384],[-0.11969,43.99384],[-0.20041,43.99384],[-0.28113,43.99384]]]]}},{"type":"Feature","properties":{"NAME":"County of Auvergne","START_DATE":"1272","END_DATE":"1332","CLIOPATRIA_NAME":"County of Auvergne","CLIOPATRIA_SESHAT_ID":"fr_capetian_k_2","CLIOPATRIA_AREA_KM2":19408,"WIKIDATA":"Q1152","WIKIPEDIA":"Auvergne","SNAPSHOT_YEAR":1279},"geometry":{"type":"MultiPolygon","coordinates":[[[[4.35172,45.30044],[4.35424,45.235],[4.35675,45.16959],[4.12323,44.90802],[3.96092,44.90802],[3.96617,44.77729],[3.5607,44.77729],[3.47398,44.90802],[3.23051,44.90802],[3.15816,44.71195],[2.91798,44.64661],[2.74667,44.84265],[2.58442,44.84265],[2.51599,44.58129],[2.27624,44.51598],[2.10101,44.77729],[2.16879,45.03878],[2.40265,45.235],[2.30465,45.56227],[2.53596,45.8243],[2.60112,46.15209],[2.77113,46.02094],[3.01311,46.08651],[3.2674,45.88983],[3.34904,45.88983],[3.34306,46.02094],[3.66988,46.02094],[3.6756,45.88983],[3.92327,45.8243],[3.93147,45.62776],[4.01298,45.62776],[3.94229,45.36588],[4.27037,45.30044],[4.35172,45.30044]]],[[[1.58038,50.9122],[1.84193,50.77881],[1.60179,50.57886],[1.5176,50.57886],[1.42471,50.71214],[1.50898,50.71214],[1.49598,50.9122],[1.58038,50.9122]]]]}},{"type":"Feature","properties":{"NAME":"County of Blôis","START_DATE":"1250","END_DATE":"1293","CLIOPATRIA_NAME":"County of Blôis","CLIOPATRIA_SESHAT_ID":"fr_capetian_k_2","CLIOPATRIA_AREA_KM2":8090,"WIKIDATA":"Q19336869","WIKIPEDIA":"County of Blois","SNAPSHOT_YEAR":1279},"geometry":{"type":"MultiPolygon","coordinates":[[[[1.31239,47.20317],[1.40254,47.07159],[1.89226,47.13737],[1.76812,47.86186],[1.68547,47.86186],[1.73301,48.45594],[1.56706,48.45594],[1.3888,48.65424],[1.06073,48.58812],[0.8203,48.45594],[0.92467,48.12574],[0.92892,48.05975],[1.27627,47.79593],[1.19774,47.73],[1.30842,47.26897],[1.31239,47.20317]]]]}},{"type":"Feature","properties":{"NAME":"County of Foix","START_DATE":"1279","END_DATE":"1293","CLIOPATRIA_NAME":"County of Foix","CLIOPATRIA_SESHAT_ID":"fr_capetian_k_2","CLIOPATRIA_AREA_KM2":4515,"WIKIDATA":"Q1481436","WIKIPEDIA":"County of Foix","SNAPSHOT_YEAR":1279},"geometry":{"type":"MultiPolygon","coordinates":[[[[1.07469,42.82134],[1.48554,42.62621],[1.56562,42.62621],[1.64571,42.62621],[1.7258,42.62621],[1.87324,42.8864],[1.30498,43.01654],[1.27728,43.5375],[0.94799,43.66784],[0.63698,43.47235],[0.96608,43.34207],[0.81254,43.21183],[0.98393,43.01654],[0.99452,42.82134],[1.07469,42.82134]]]]}},{"type":"Feature","properties":{"NAME":"County of Périgord","START_DATE":"1272","END_DATE":"1332","CLIOPATRIA_NAME":"County of Périgord","CLIOPATRIA_SESHAT_ID":"fr_capetian_k_2","CLIOPATRIA_AREA_KM2":8547,"WIKIDATA":"Q1947408","WIKIPEDIA":"County of Périgord","SNAPSHOT_YEAR":1279},"geometry":{"type":"MultiPolygon","coordinates":[[[[-0.17808,44.90802],[0.22361,44.97339],[0.68311,45.43133],[1.10159,45.235],[1.19787,44.97339],[1.44866,44.84265],[1.3784,44.64661],[1.06543,44.45068],[-0.07183,44.51598],[-0.17808,44.90802]]]]}},{"type":"Feature","properties":{"NAME":"Duchy of Aquitaine","START_DATE":"1250","END_DATE":"1304","CLIOPATRIA_NAME":"Duchy of Aquitaine","CLIOPATRIA_SESHAT_ID":"fr_capetian_k_2","CLIOPATRIA_AREA_KM2":9626,"WIKIDATA":"Q7703611","WIKIPEDIA":"Duchy of Aquitaine","SNAPSHOT_YEAR":1279},"geometry":{"type":"MultiPolygon","coordinates":[[[[1.19787,44.97339],[1.10159,45.235],[0.68311,45.43133],[0.91171,45.69326],[0.90383,45.8243],[2.30465,45.56227],[2.40265,45.235],[2.16879,45.03878],[2.10101,44.77729],[1.44866,44.84265],[1.19787,44.97339]]]]}},{"type":"Feature","properties":{"NAME":"Duchy of Bavaria","SUBJECTO":"Holy Roman Empire","PARTOF":"Holy Roman Empire","START_DATE":"1279","END_DATE":"1293","CLIOPATRIA_NAME":"Duchy of Bavaria","CLIOPATRIA_SESHAT_ID":"de_empire_3","CLIOPATRIA_AREA_KM2":35323,"WIKIDATA":"Q47261","WIKIPEDIA":"Duchy of Bavaria","SNAPSHOT_YEAR":1279},"geometry":{"type":"MultiPolygon","coordinates":[[[[11.44272,48.85268],[11.27522,48.52202],[10.94311,48.45594],[10.86008,48.32381],[11.8549,48.32381],[11.93683,48.19175],[12.35032,48.12574],[12.43037,47.86186],[12.59419,47.73],[12.50811,47.40062],[12.34267,47.33479],[12.26206,47.53233],[12.01463,47.53233],[11.84801,47.26897],[11.60099,47.26897],[11.43655,47.33479],[11.43703,47.46647],[11.27214,47.46647],[11.27232,47.53233],[10.69491,47.59821],[10.61239,47.59821],[10.69478,47.73],[10.44686,47.79593],[10.52847,48.32381],[10.44557,48.32381],[10.44497,48.58812],[10.27844,48.72037],[10.27802,48.85268],[10.02781,48.98506],[10.02719,49.1175],[10.36024,49.25001],[10.61073,48.91887],[10.94356,48.85268],[11.02701,48.98506],[10.86053,49.05127],[11.2773,49.1175],[11.27781,49.25001],[11.02757,49.25001],[11.02804,49.44889],[11.2789,49.51522],[11.19636,49.78071],[11.6997,49.91356],[11.86973,50.17946],[12.1216,50.17946],[12.37092,49.98001],[12.36765,49.71431],[12.78024,49.31629],[12.44331,49.05127],[11.85918,48.91887],[11.77595,48.91887],[11.44272,48.85268]]],[[[7.69093,49.25001],[7.68822,49.38258],[7.35726,49.25001],[7.0153,49.58157],[7.60054,49.58157],[7.50977,49.91356],[7.76117,49.91356],[7.8488,49.71431],[8.26721,49.71431],[8.35509,49.44889],[8.60568,49.44889],[8.77447,49.31629],[8.27484,49.25001],[8.11267,48.98506],[8.02941,48.98506],[7.69093,49.25001]]]]}},{"type":"Feature","properties":{"NAME":"Kingdom of Bohemia","SUBJECTO":"Holy Roman Empire","PARTOF":"Holy Roman Empire","START_DATE":"1279","END_DATE":"1284","CLIOPATRIA_NAME":"Kingdom of Bohemia","CLIOPATRIA_SESHAT_ID":"cz_bohemian_k_1","CLIOPATRIA_AREA_KM2":80824,"WIKIDATA":"Q42585","WIKIPEDIA":"Kingdom of Bohemia","SNAPSHOT_YEAR":1279},"geometry":{"type":"MultiPolygon","coordinates":[[[[14.09756,48.52202],[14.01455,48.52202],[14.01596,48.58812],[14.09901,48.58812],[14.09756,48.52202]]],[[[18.37862,49.44889],[17.93814,48.98506],[16.92799,48.72037],[16.17991,48.72037],[15.68774,48.91887],[14.94054,48.98506],[14.76513,48.65424],[14.09901,48.58812],[13.93709,48.78652],[13.607,48.91887],[13.52377,48.91887],[13.52501,48.98506],[13.44174,48.98506],[13.35848,48.98506],[13.11297,49.25001],[12.78024,49.31629],[12.36765,49.71431],[12.37092,49.98001],[12.1216,50.17946],[12.12234,50.24598],[12.29033,50.24598],[12.37608,50.37908],[12.79645,50.37908],[13.22205,50.64549],[13.98528,50.84549],[14.06964,50.84549],[14.154,50.84549],[14.15581,50.9122],[14.2402,50.9122],[14.24207,50.97892],[14.32651,50.97892],[14.32842,51.04567],[14.49738,51.04567],[14.5778,50.9122],[15.25535,50.97892],[15.41695,50.77881],[15.92286,50.77881],[17.24604,50.24598],[17.5787,50.17946],[17.65599,50.04647],[18.48738,49.91356],[18.80743,49.64793],[18.79997,49.51522],[18.37862,49.44889]]]]}},{"type":"Feature","properties":{"NAME":"Margraviate of Brandenburg","SUBJECTO":"Holy Roman Empire","PARTOF":"Holy Roman Empire","START_DATE":"1272","END_DATE":"1304","CLIOPATRIA_NAME":"Margraviate of Brandenburg","CLIOPATRIA_SESHAT_ID":"de_empire_3","CLIOPATRIA_AREA_KM2":41413,"WIKIDATA":"Q148499","WIKIPEDIA":"Margraviate of Brandenburg","SNAPSHOT_YEAR":1279},"geometry":{"type":"MultiPolygon","coordinates":[[[[16.01149,52.85537],[16.28132,53.12479],[16.71397,53.1922],[16.72449,53.39457],[16.9038,53.52959],[16.6596,53.79992],[16.31441,53.79992],[16.41101,54.00291],[15.98204,54.07063],[16.04909,53.66471],[15.79355,53.7323],[15.70427,53.66471],[15.78133,53.46207],[15.43993,53.52959],[15.25675,53.25963],[14.82465,53.1922],[14.64814,53.0574],[14.47656,53.0574],[14.22566,53.25963],[14.31603,53.39457],[13.89605,53.7323],[13.5492,53.66471],[13.19619,53.32709],[12.16561,53.39457],[11.91039,53.59714],[11.73808,53.59714],[11.5635,53.39457],[11.30606,53.46207],[11.1329,53.32709],[11.21776,53.1922],[11.38952,53.1922],[11.38824,53.0574],[11.21667,53.0574],[11.04376,52.85537],[11.04246,52.65353],[11.2135,52.65353],[11.0408,52.38472],[12.23759,52.51908],[12.4927,52.45189],[12.49038,52.31758],[12.40509,52.31758],[12.48696,52.11626],[13.16825,52.11626],[13.17123,52.25045],[13.42535,52.18334],[13.68449,52.31758],[13.68804,52.45189],[14.62271,52.31758],[14.70801,52.31758],[14.71262,52.45189],[15.05415,52.45189],[15.31293,52.51908],[15.23272,52.65353],[16.00843,52.78807],[16.01149,52.85537]]]]}}],"metadata":{"generatedBy":"scripts/build-cliopatria-fiefs.ts","year":1279,"featureCount":9,"archiveUrl":"https://raw.githubusercontent.com/Seshat-Global-History-Databank/cliopatria/ad28a691b7c07c1fca89d0e0636d324667d2a258/cliopatria.geojson.zip","archiveSha256":"d01ae3a20d358cc5d54f69d9d725d390767d9c8759ac89ad6f90c58d106f3370","doi":"10.5281/zenodo.14714684","citation":"Bennett, J., Mutch, E., Chalstrey, E. et al. (2025) Cliopatria: A geospatial database of world-wide political entities from 3400BCE to 2024CE. Scientific Data.","selected":[{"name":"County of Armagnac","upstreamName":"County of Armagnac","fromYear":1279,"toYear":1332,"upstreamAreaKm2":6985},{"name":"County of Auvergne","upstreamName":"County of Auvergne","fromYear":1272,"toYear":1332,"upstreamAreaKm2":19408},{"name":"County of Blôis","upstreamName":"County of Blôis","fromYear":1250,"toYear":1293,"upstreamAreaKm2":8090},{"name":"County of Foix","upstreamName":"County of Foix","fromYear":1279,"toYear":1293,"upstreamAreaKm2":4515},{"name":"County of Périgord","upstreamName":"County of Périgord","fromYear":1272,"toYear":1332,"upstreamAreaKm2":8547},{"name":"Duchy of Aquitaine","upstreamName":"Duchy of Aquitaine","fromYear":1250,"toYear":1304,"upstreamAreaKm2":9626},{"name":"Duchy of Bavaria","upstreamName":"Duchy of Bavaria","fromYear":1279,"toYear":1293,"upstreamAreaKm2":35323},{"name":"Kingdom of Bohemia","upstreamName":"Kingdom of Bohemia","fromYear":1279,"toYear":1284,"upstreamAreaKm2":80824},{"name":"Margraviate of Brandenburg","upstreamName":"Margraviate of Brandenburg","fromYear":1272,"toYear":1304,"upstreamAreaKm2":41413}],"source":"Cliopatria (Seshat Global History Databank)","sourceUrl":"https://github.com/Seshat-Global-History-Databank/cliopatria","license":"CC BY 4.0","commit":"ad28a691b7c07c1fca89d0e0636d324667d2a258","borderPrecision":"史料地図のデジタイズ（概略。手描き地図の自動抽出を 0.07 度で平滑化）"}}