{"type":"FeatureCollection","features":[{"type":"Feature","properties":{"NAME":"Duchy of Bavaria","SUBJECTO":"Holy Roman Empire","PARTOF":"Holy Roman Empire","START_DATE":"1395","END_DATE":"1421","CLIOPATRIA_NAME":"Duchy of Bavaria","CLIOPATRIA_SESHAT_ID":"de_empire_3","CLIOPATRIA_AREA_KM2":47598,"WIKIDATA":"Q47261","WIKIPEDIA":"Duchy of Bavaria","SNAPSHOT_YEAR":1400},"geometry":{"type":"MultiPolygon","coordinates":[[[[12.02621,48.98506],[12.27532,48.91887],[12.27397,48.78652],[12.35713,48.78652],[12.52422,48.85268],[12.61076,49.1175],[12.86078,49.1175],[13.02955,49.25001],[13.35848,48.98506],[13.35615,48.85268],[13.18977,48.85268],[13.26854,48.58812],[13.76682,48.58812],[13.84719,48.45594],[13.17725,48.05975],[12.92898,48.05975],[12.76513,48.19175],[12.76263,47.99377],[12.92718,47.92781],[12.92452,47.73],[13.08779,47.59821],[12.83941,47.53233],[12.75854,47.6641],[12.5109,47.6641],[12.50811,47.40062],[12.34267,47.33479],[12.26206,47.53233],[12.01463,47.53233],[11.84801,47.26897],[11.60099,47.26897],[11.43655,47.33479],[11.43703,47.46647],[11.27214,47.46647],[11.2725,47.59821],[10.94241,47.53233],[10.85993,47.53233],[10.77745,47.53233],[10.69497,47.53233],[10.69491,47.59821],[10.61239,47.59821],[10.69478,47.73],[10.44686,47.79593],[10.52871,48.19175],[10.52859,48.25777],[10.44497,48.58812],[10.27844,48.72037],[10.27802,48.85268],[10.02781,48.98506],[10.02719,49.1175],[10.36024,49.25001],[10.61073,48.91887],[10.94356,48.85268],[11.02701,48.98506],[10.86053,49.05127],[11.27756,49.18375],[11.52733,49.1175],[11.69272,48.91887],[11.94294,48.98506],[12.02621,48.98506]]],[[[4.03417,50.77881],[4.20582,50.71214],[4.299,50.51225],[4.63842,50.44566],[4.3948,50.24598],[4.40635,49.98001],[4.32251,49.98001],[4.23868,49.98001],[4.15484,49.98001],[4.15184,50.04647],[4.14281,50.24598],[3.96861,50.37908],[3.63231,50.37908],[3.54824,50.37908],[3.54493,50.44566],[3.54161,50.51225],[3.53828,50.57886],[4.03417,50.77881]]],[[[4.24478,51.71418],[4.08441,51.51342],[3.99963,51.51342],[3.40621,51.51342],[3.39925,51.64724],[3.73869,51.64724],[3.6471,51.78114],[3.81699,51.78114],[3.8104,51.91513],[3.98046,51.91513],[3.97402,52.04919],[4.22317,52.18334],[4.21693,52.31758],[4.46381,52.51908],[4.53433,52.85537],[4.70272,52.92269],[4.60811,53.12479],[4.69101,53.1922],[4.86277,53.1922],[4.78554,52.99003],[4.87128,52.99003],[4.97087,52.65353],[5.05638,52.65353],[5.06179,52.51908],[4.89094,52.51908],[4.8965,52.38472],[5.06986,52.31758],[4.99544,52.04919],[5.25079,52.04919],[5.2585,51.84813],[5.17351,51.84813],[5.08852,51.84813],[5.00353,51.84813],[4.91855,51.84813],[4.83356,51.84813],[4.83633,51.78114],[4.75139,51.78114],[4.66644,51.78114],[4.24478,51.71418]]]]}},{"type":"Feature","properties":{"NAME":"Kingdom of Bohemia","SUBJECTO":"Holy Roman Empire","PARTOF":"Holy Roman Empire","START_DATE":"1385","END_DATE":"1414","CLIOPATRIA_NAME":"Kingdom of Bohemia","CLIOPATRIA_SESHAT_ID":"cz_bohemian_k_2","CLIOPATRIA_AREA_KM2":106361,"WIKIDATA":"Q42585","WIKIPEDIA":"Kingdom of Bohemia","SNAPSHOT_YEAR":1400},"geometry":{"type":"MultiPolygon","coordinates":[[[[19.08589,50.11296],[19.0819,50.04647],[19.16577,50.04647],[19.23756,49.84713],[18.88354,49.51522],[18.29163,49.38258],[18.23245,49.84713],[17.97099,49.64793],[17.72006,49.64793],[16.91308,50.31252],[16.81722,50.04647],[16.39242,49.91356],[16.21447,49.64793],[15.80101,49.78071],[15.70798,49.51522],[15.19635,49.18375],[15.19034,48.98506],[14.94054,48.98506],[14.85001,48.72037],[14.59729,48.58812],[14.10047,48.65424],[13.607,48.91887],[13.52377,48.91887],[13.52501,48.98506],[13.44174,48.98506],[13.35848,48.98506],[13.02955,49.25001],[12.53241,49.51522],[12.53414,49.64793],[12.36765,49.71431],[12.37092,49.98001],[12.1216,50.17946],[12.12234,50.24598],[12.29033,50.24598],[12.37608,50.37908],[12.79645,50.37908],[13.22205,50.64549],[13.98528,50.84549],[14.06964,50.84549],[14.32651,50.97892],[14.33422,51.24602],[14.33618,51.31284],[14.25153,51.31284],[14.25346,51.37968],[14.2554,51.44654],[14.25735,51.51342],[14.25931,51.58032],[14.26325,51.71418],[14.09727,51.84813],[13.75732,51.84813],[13.59068,51.98215],[13.50561,51.98215],[13.50725,52.04919],[13.42213,52.04919],[13.42535,52.18334],[13.94037,52.31758],[14.36051,52.11626],[14.616,52.11626],[14.77944,51.91513],[15.13196,52.25045],[15.47028,52.18334],[15.64623,52.31758],[15.81395,52.25045],[15.80826,52.11626],[16.13699,51.84813],[16.1311,51.71418],[16.55562,51.71418],[16.719,51.58032],[16.98013,51.71418],[17.31974,51.71418],[17.54926,51.24602],[17.97229,51.24602],[18.04935,51.11243],[18.70932,50.84549],[18.70133,50.71214],[19.03019,50.57886],[19.02203,50.44566],[19.18613,50.37908],[19.17385,50.17946],[19.0899,50.17946],[19.08589,50.11296]]],[[[13.58568,51.78114],[13.67063,51.78114],[13.66894,51.71418],[13.66726,51.64724],[13.5824,51.64724],[13.24443,51.71418],[13.24739,51.84813],[13.50235,51.84813],[13.58734,51.84813],[13.58568,51.78114]]]]}},{"type":"Feature","properties":{"NAME":"Margraviate of Brandenburg","SUBJECTO":"Holy Roman Empire","PARTOF":"Holy Roman Empire","START_DATE":"1395","END_DATE":"1401","CLIOPATRIA_NAME":"Margraviate of Brandenburg","CLIOPATRIA_SESHAT_ID":"de_empire_3","CLIOPATRIA_AREA_KM2":41923,"WIKIDATA":"Q148499","WIKIPEDIA":"Margraviate of Brandenburg","SNAPSHOT_YEAR":1400},"geometry":{"type":"MultiPolygon","coordinates":[[[[15.64623,52.31758],[15.47028,52.18334],[15.13196,52.25045],[14.77944,51.91513],[14.616,52.11626],[14.36051,52.11626],[13.94037,52.31758],[13.42535,52.18334],[13.42213,52.04919],[12.40289,52.18334],[12.40509,52.31758],[12.57808,52.45189],[12.3252,52.65353],[12.3274,52.78807],[11.89675,52.5863],[11.12705,52.51908],[11.04376,52.85537],[11.21667,53.0574],[11.38824,53.0574],[11.38952,53.1922],[11.21776,53.1922],[11.1329,53.32709],[11.30606,53.46207],[11.5635,53.39457],[11.73808,53.59714],[11.91039,53.59714],[12.16561,53.39457],[13.19619,53.32709],[13.5492,53.66471],[13.89605,53.7323],[14.31603,53.39457],[14.22566,53.25963],[14.47656,53.0574],[14.64814,53.0574],[14.82465,53.1922],[15.25675,53.25963],[15.43993,53.52959],[15.78133,53.46207],[15.70427,53.66471],[16.0523,53.7323],[16.05552,53.79992],[15.96922,53.79992],[15.98204,54.07063],[16.41101,54.00291],[16.31441,53.79992],[16.40071,53.79992],[16.47667,53.59714],[16.30103,53.52959],[16.29441,53.39457],[16.11918,53.32709],[16.10966,53.12479],[16.02382,53.12479],[16.09714,52.85537],[15.48927,52.65353],[15.64623,52.31758]]]]}}],"metadata":{"generatedBy":"scripts/build-cliopatria-fiefs.ts","year":1400,"featureCount":3,"archiveUrl":"https://raw.githubusercontent.com/Seshat-Global-History-Databank/cliopatria/ad28a691b7c07c1fca89d0e0636d324667d2a258/cliopatria.geojson.zip","archiveSha256":"d01ae3a20d358cc5d54f69d9d725d390767d9c8759ac89ad6f90c58d106f3370","doi":"10.5281/zenodo.14714684","citation":"Bennett, J., Mutch, E., Chalstrey, E. et al. (2025) Cliopatria: A geospatial database of world-wide political entities from 3400BCE to 2024CE. Scientific Data.","selected":[{"name":"Duchy of Bavaria","upstreamName":"Duchy of Bavaria","fromYear":1395,"toYear":1421,"upstreamAreaKm2":47598},{"name":"Kingdom of Bohemia","upstreamName":"Kingdom of Bohemia","fromYear":1385,"toYear":1414,"upstreamAreaKm2":106361},{"name":"Margraviate of Brandenburg","upstreamName":"Margraviate of Brandenburg","fromYear":1395,"toYear":1401,"upstreamAreaKm2":41923}],"source":"Cliopatria (Seshat Global History Databank)","sourceUrl":"https://github.com/Seshat-Global-History-Databank/cliopatria","license":"CC BY 4.0","commit":"ad28a691b7c07c1fca89d0e0636d324667d2a258","borderPrecision":"史料地図のデジタイズ（概略。手描き地図の自動抽出を 0.07 度で平滑化）"}}