{"type":"FeatureCollection","features":[{"type":"Feature","properties":{"NAME":"County of Blôis","START_DATE":"1085","END_DATE":"1110","CLIOPATRIA_NAME":"County of Blôis","CLIOPATRIA_SESHAT_ID":"fr_capetian_k_1","CLIOPATRIA_AREA_KM2":32981,"WIKIDATA":"Q19336869","WIKIPEDIA":"County of Blois","SNAPSHOT_YEAR":1100},"geometry":{"type":"Polygon","coordinates":[[[1.02609,48.52202],[1.05606,48.51251],[1.09588,48.48294],[1.20163,48.45653],[1.21948,48.4055],[1.25519,48.38818],[1.27716,48.35899],[1.27441,48.31517],[1.33484,48.2448],[1.33209,48.22193],[1.27716,48.18807],[1.14532,48.17708],[1.06018,48.08267],[1.05056,48.03402],[1.03214,48.02493],[1.24355,47.82662],[1.24832,47.82699],[1.24804,47.82241],[1.27627,47.79593],[1.24475,47.76947],[1.2442,47.76056],[1.21811,47.71346],[1.20679,47.70584],[1.29644,47.46647],[1.30044,47.40062],[1.30443,47.33479],[1.30842,47.26897],[1.3103,47.23773],[1.36976,47.19598],[1.34582,47.1449],[1.35566,47.13737],[1.89226,47.13737],[1.76812,47.86186],[1.68547,47.86186],[1.73301,48.45594],[1.56706,48.45594],[1.3888,48.65424],[1.30572,48.65424],[1.30987,48.58812],[1.06073,48.58812],[1.06498,48.52202],[1.02609,48.52202]]]}},{"type":"Feature","properties":{"NAME":"County of Champagne","START_DATE":"1094","END_DATE":"1125","CLIOPATRIA_NAME":"County of Champagne","CLIOPATRIA_SESHAT_ID":"fr_capetian_k_1","CLIOPATRIA_AREA_KM2":25276,"WIKIDATA":"Q546266","WIKIPEDIA":"County of Champagne","SNAPSHOT_YEAR":1100},"geometry":{"type":"Polygon","coordinates":[[[2.79067,48.85268],[2.88429,48.65424],[3.05722,48.52202],[3.47546,48.45594],[3.56472,48.32381],[3.64762,48.32381],[3.91416,47.92781],[3.92837,47.91336],[3.93418,47.93732],[4.04475,47.93057],[4.0951,47.87257],[4.12051,47.87779],[4.11182,47.93395],[4.21188,47.96694],[4.24618,47.98913],[4.41053,48.00429],[4.43297,47.97518],[4.42633,47.93808],[4.47394,47.87747],[4.57763,47.87533],[4.55131,47.91539],[4.5759,47.92195],[4.57299,47.99377],[4.61589,47.99377],[4.68179,47.99893],[4.71931,48.02162],[4.71589,48.07423],[4.85666,48.04669],[4.90016,48.07576],[4.96677,48.06108],[4.97936,48.01991],[5.00385,47.99112],[5.0272,47.91293],[5.0613,47.87809],[5.05924,47.84031],[5.07183,47.80957],[5.11281,47.77743],[5.14188,47.70447],[5.18698,47.68998],[5.22475,47.71771],[5.38841,47.75851],[5.45708,47.79466],[5.49371,47.79619],[5.51202,47.77774],[5.67086,47.78625],[5.66482,47.73332],[5.61195,47.6922],[5.53848,47.6788],[5.42244,47.67556],[5.38639,47.65521],[5.37706,47.62394],[5.57686,47.6641],[5.82238,47.73],[5.81812,47.86186],[5.64618,48.05975],[5.61971,48.05975],[5.61333,48.05904],[5.61313,48.05975],[5.48066,48.05975],[5.47803,48.13522],[5.47119,48.13585],[5.46418,48.16452],[5.4566,48.16849],[5.46193,48.18177],[5.47394,48.22559],[5.43541,48.27284],[5.30566,48.32381],[5.30492,48.34414],[5.25421,48.35625],[5.2545,48.40522],[4.88344,48.52202],[4.86527,48.98506],[5.02656,49.11737],[5.02641,49.1178],[5.01565,49.12807],[4.9411,49.14758],[4.82162,49.16554],[4.73236,49.20055],[4.79141,49.28393],[4.79024,49.34339],[4.6798,49.44889],[4.57682,49.91356],[4.15484,49.98001],[4.08309,49.71431],[3.83829,49.58157],[3.84761,49.38258],[3.60354,49.25001],[3.61944,48.91887],[3.37302,48.85268],[3.03341,48.98506],[2.79067,48.85268]],[[5.58037,47.95855],[5.58921,47.96993],[5.60183,47.96619],[5.59925,47.94119],[5.58346,47.93946],[5.58037,47.95855]],[[5.59736,47.98774],[5.60157,47.99854],[5.62388,48.00078],[5.68946,47.99406],[5.69409,47.98699],[5.68525,47.97981],[5.62981,47.99078],[5.59736,47.98774]]]}},{"type":"Feature","properties":{"NAME":"County of Flanders","START_DATE":"1010","END_DATE":"1151","CLIOPATRIA_NAME":"County of Flanders","CLIOPATRIA_SESHAT_ID":"fr_capetian_k_1","CLIOPATRIA_AREA_KM2":17591,"WIKIDATA":"Q157070","WIKIPEDIA":"County of Flanders","SNAPSHOT_YEAR":1100},"geometry":{"type":"Polygon","coordinates":[[[1.4334,50.57886],[1.77852,50.44566],[1.78211,50.38804],[1.79901,50.38663],[1.814,50.36828],[1.93656,50.32602],[1.94904,50.33418],[1.98029,50.32179],[1.97848,50.31156],[2.55443,50.11296],[3.09371,50.11296],[3.09128,50.12102],[3.13076,50.18108],[3.18612,50.18978],[3.43347,50.11296],[3.72925,50.11296],[3.53828,50.57886],[4.03417,50.77881],[4.08641,51.03168],[3.46619,50.77077],[3.55476,50.81939],[3.57639,50.82177],[3.62411,50.85364],[3.63132,50.88073],[3.67836,50.89004],[3.68797,50.9078],[3.65879,50.92035],[3.64986,50.95475],[3.6866,50.95756],[3.72196,51.00015],[3.73844,51.04701],[3.76934,51.04852],[3.81637,50.99129],[3.91972,51.01678],[4.00864,51.00641],[4.067,51.04873],[4.08845,51.04155],[4.10309,51.11243],[3.25434,51.17921],[3.15907,51.37968],[3.07438,51.37968],[2.57783,51.17921],[1.65622,51.04567],[1.49598,50.9122],[1.4334,50.57886]],[[1.96793,50.42033],[1.99127,50.43083],[1.98852,50.45576],[2.02148,50.49508],[2.02629,50.51605],[2.10457,50.48941],[2.15744,50.49246],[2.18147,50.47411],[2.23846,50.4846],[2.33528,50.47586],[2.35313,50.44264],[2.3909,50.40502],[2.39365,50.36518],[2.41974,50.33889],[2.46849,50.30908],[2.46574,50.26389],[2.47673,50.22173],[2.43759,50.23183],[2.39502,50.22525],[2.33734,50.24281],[2.20688,50.2415],[2.20276,50.27442],[2.17598,50.28978],[2.18628,50.3196],[2.17598,50.3402],[2.17735,50.36737],[2.19315,50.39145],[2.1904,50.40458],[2.17255,50.40852],[2.10663,50.39101],[2.0826,50.39801],[2.06062,50.38926],[1.9693,50.40261],[1.96793,50.42033]]]}},{"type":"Feature","properties":{"NAME":"County of Nevers","START_DATE":"1056","END_DATE":"1138","CLIOPATRIA_NAME":"County of Nevers","CLIOPATRIA_SESHAT_ID":"fr_capetian_k_1","CLIOPATRIA_AREA_KM2":12490,"WIKIDATA":"Q2070440","WIKIPEDIA":"County of Nevers","SNAPSHOT_YEAR":1100},"geometry":{"type":"MultiPolygon","coordinates":[[[[2.36821,47.46647],[2.61899,47.40062],[2.7116,47.20317],[2.7939,47.20317],[2.80392,47.00583],[3.06973,46.61152],[3.5681,46.55479],[3.56793,46.55554],[3.59082,46.60195],[3.69589,46.64299],[3.66018,46.66781],[3.62585,46.76119],[3.53085,46.69639],[3.42647,46.69074],[3.39763,46.71742],[3.26532,46.7306],[3.18978,46.68037],[3.05244,46.73923],[3.03184,46.76668],[3.06503,46.85911],[3.04672,46.95372],[3.06961,46.99043],[3.03733,47.08824],[3.03034,47.13544],[2.9991,47.20391],[2.98194,47.26531],[2.88053,47.32849],[2.92975,47.44751],[2.84093,47.56395],[2.75894,47.60153],[2.69878,47.66024],[2.59692,47.6849],[2.5223,47.65453],[2.4566,47.7174],[2.46072,47.73388],[2.41332,47.75821],[2.36821,47.46647]]],[[[2.41575,47.77392],[2.5017,47.8108],[2.69718,47.76143],[2.75212,47.78835],[2.88717,47.7522],[2.93707,47.72295],[3.06045,47.73111],[3.11974,47.77528],[3.21382,47.76189],[3.27676,47.79681],[3.33925,47.86458],[3.48035,47.90337],[3.24941,47.99377],[2.76339,47.79593],[2.42935,47.86186],[2.41575,47.77392]]],[[[3.72679,47.78943],[3.75525,47.78626],[3.75481,47.79593],[3.72957,47.80581],[3.72679,47.78943]]]]}},{"type":"Feature","properties":{"NAME":"County of Toulouse","START_DATE":"1066","END_DATE":"1146","CLIOPATRIA_NAME":"County of Toulouse","CLIOPATRIA_SESHAT_ID":"fr_capetian_k_1","CLIOPATRIA_AREA_KM2":52864,"WIKIDATA":"Q1334322","WIKIPEDIA":"County of Toulouse","SNAPSHOT_YEAR":1100},"geometry":{"type":"MultiPolygon","coordinates":[[[[4.41231,43.66784],[4.72569,43.92862],[4.4766,44.12432],[4.46952,44.3201],[4.05753,44.51598],[3.96617,44.77729],[3.5607,44.77729],[3.47398,44.90802],[3.23051,44.90802],[3.15816,44.71195],[2.91798,44.64661],[2.74667,44.84265],[2.58442,44.84265],[2.51599,44.58129],[2.27624,44.51598],[2.10101,44.77729],[1.44866,44.84265],[1.3784,44.64661],[1.06172,44.51598],[1.06912,44.38538],[0.83396,44.25483],[0.91853,44.18957],[0.94799,43.66784],[0.63698,43.47235],[0.96608,43.34207],[0.81254,43.21183],[0.98393,43.01654],[0.99452,42.82134],[1.48554,42.62621],[1.56562,42.62621],[1.7258,42.62621],[1.81225,42.49618],[1.88913,42.56119],[1.96918,42.56119],[2.04303,42.69125],[2.51784,42.82134],[2.59215,42.95147],[2.99052,43.01654],[2.98772,43.08163],[3.14003,43.27695],[3.61714,43.4072],[3.85089,43.60266],[4.17303,43.60266],[4.17785,43.47235],[4.3388,43.47235],[4.41464,43.60266],[4.41231,43.66784]]]]}},{"type":"Feature","properties":{"NAME":"County of Vermandois","START_DATE":"1085","END_DATE":"1146","CLIOPATRIA_NAME":"County of Vermandois","CLIOPATRIA_SESHAT_ID":"fr_capetian_k_1","CLIOPATRIA_AREA_KM2":19332,"WIKIDATA":"Q26385","WIKIPEDIA":"Vermandois","SNAPSHOT_YEAR":1100},"geometry":{"type":"MultiPolygon","coordinates":[[[[1.44637,50.37908],[1.45068,50.31252],[1.45497,50.24598],[1.46066,50.23871],[1.47002,50.24633],[1.4628,50.28118],[1.47532,50.3679],[1.44637,50.37908]]],[[[1.71936,50.10473],[1.74683,50.05626],[1.72073,50.04832],[1.72897,49.99141],[1.76605,49.98479],[1.77704,49.97551],[1.73241,49.95785],[1.72211,49.93973],[1.73103,49.91984],[1.80382,49.91144],[1.81274,49.89331],[1.84158,49.89021],[1.86012,49.87163],[1.84914,49.81229],[1.79111,49.81707],[1.81961,49.78071],[1.79749,49.50093],[1.79901,49.49712],[1.79658,49.48938],[1.79061,49.41387],[1.82922,49.33497],[1.80176,49.31707],[1.81412,49.28483],[1.77986,49.27792],[1.77241,49.18375],[2.43944,49.18375],[2.61345,49.05127],[3.03341,48.98506],[3.37302,48.85268],[3.61944,48.91887],[3.60354,49.25001],[3.84761,49.38258],[3.83829,49.58157],[4.08309,49.71431],[4.15484,49.98001],[3.98716,49.98001],[3.98409,50.04647],[3.81633,50.04647],[3.81317,50.11296],[3.43347,50.11296],[3.64753,50.04648],[3.53142,50.03906],[3.46824,50.05097],[3.36182,50.02848],[3.26088,50.05185],[3.13642,50.05758],[3.10295,50.08226],[3.09371,50.11296],[2.55443,50.11296],[1.97848,50.31156],[1.97479,50.29066],[2.08534,50.25511],[2.05994,50.22261],[2.0105,50.22832],[1.98646,50.21119],[1.93222,50.20372],[1.93359,50.18349],[1.95076,50.17426],[1.99402,50.17954],[1.98715,50.13863],[2.0153,50.14479],[2.0311,50.16063],[2.06543,50.15579],[2.08534,50.12674],[2.15332,50.14391],[2.18971,50.06331],[2.21992,50.03377],[2.16705,49.99008],[2.16431,49.96006],[2.18285,49.92073],[2.1801,49.88269],[2.14439,49.88358],[2.12036,49.91321],[2.1183,49.96315],[2.14302,49.99935],[2.14233,50.05097],[2.12929,50.06684],[2.10251,50.06816],[2.08809,50.05097],[2.0826,50.01921],[2.02492,49.98964],[2.03384,49.92647],[2.01393,49.92382],[1.98509,49.94283],[1.95007,49.94636],[1.92192,49.92736],[1.87317,49.91807],[1.856,49.9278],[1.85532,49.96094],[1.91437,49.97375],[1.92604,49.99141],[1.92535,50.03862],[1.93703,50.05714],[1.88415,50.06155],[1.8718,49.99582],[1.8457,49.99229],[1.80382,50.07213],[1.77223,50.09944],[1.71936,50.10473]]],[[[1.79558,50.35116],[1.81412,50.32749],[1.89926,50.30162],[1.93656,50.32602],[1.814,50.36828],[1.81618,50.36561],[1.79558,50.35116]]]]}},{"type":"Feature","properties":{"NAME":"Duchy of Aquitaine","START_DATE":"1085","END_DATE":"1110","CLIOPATRIA_NAME":"Duchy of Aquitaine","CLIOPATRIA_SESHAT_ID":"fr_aquitania_duc_2","CLIOPATRIA_AREA_KM2":141788,"WIKIDATA":"Q7703611","WIKIPEDIA":"Duchy of Aquitaine","SNAPSHOT_YEAR":1100},"geometry":{"type":"MultiPolygon","coordinates":[[[[-2.19911,46.86613],[-2.19441,46.80862],[-1.87714,46.53259],[-1.90084,46.59032],[-1.93786,46.61968],[-1.96909,46.65809],[-2.00913,46.67382],[-2.03222,46.70724],[-2.05885,46.72733],[-2.18681,46.80347],[-2.19809,46.86415],[-2.19911,46.86613]]],[[[-2.16865,47.00583],[-2.16753,46.99285],[-2.11279,46.9656],[-2.09552,46.97536],[-2.08519,47.00583],[-2.16865,47.00583]]],[[[-1.85306,43.4072],[-1.8484,43.34207],[-1.76799,43.34207],[-1.77261,43.4072],[-1.85306,43.4072]]],[[[-1.77521,46.4439],[-1.66604,46.34892],[-1.50528,46.32345],[-1.51553,46.33026],[-1.53884,46.3716],[-1.67003,46.38954],[-1.77521,46.4439]]],[[[-1.69217,43.4072],[-1.68757,43.34207],[-0.96385,43.34207],[-0.85792,42.95147],[0.04014,42.69125],[0.60095,42.69125],[0.67382,42.82134],[0.99452,42.82134],[0.98393,43.01654],[0.81254,43.21183],[0.96608,43.34207],[0.63698,43.47235],[0.94799,43.66784],[0.91853,44.18957],[0.83396,44.25483],[1.06912,44.38538],[1.06172,44.51598],[1.3784,44.64661],[1.44866,44.84265],[2.10101,44.77729],[2.27624,44.51598],[2.51599,44.58129],[2.58442,44.84265],[2.74667,44.84265],[2.91798,44.64661],[3.15816,44.71195],[3.23051,44.90802],[3.47398,44.90802],[3.5607,44.77729],[3.96617,44.77729],[3.96092,44.90802],[4.12323,44.90802],[4.35925,45.10418],[4.26781,45.36588],[3.94229,45.36588],[4.01298,45.62776],[3.93147,45.62776],[3.91776,45.95538],[4.0784,46.02094],[4.01669,46.2329],[4.01384,46.23174],[3.98408,46.18183],[3.95661,46.18421],[3.96234,46.2349],[3.92457,46.25944],[3.92571,46.29345],[3.86047,46.30453],[3.84674,46.36221],[3.76433,46.37643],[3.73687,46.43798],[3.58739,46.47047],[3.5681,46.55479],[3.06973,46.61152],[2.80392,47.00583],[2.7939,47.20317],[2.7116,47.20317],[1.89226,47.13737],[1.35566,47.13737],[1.38977,47.11126],[1.35818,47.0589],[1.32023,47.07278],[1.3203,47.07159],[1.32424,47.00583],[1.32794,46.94407],[1.34582,46.94276],[1.42822,46.88366],[1.40762,46.83013],[1.37329,46.81228],[1.33346,46.74174],[1.16592,46.7088],[1.08353,46.72292],[1.00113,46.6909],[0.89676,46.6909],[0.88852,46.62115],[0.93658,46.59473],[1.02447,46.58341],[1.03134,46.54092],[1.13022,46.52675],[1.19339,46.55131],[1.28952,46.53525],[1.41037,46.55697],[1.48041,46.51541],[1.52435,46.46719],[1.71661,46.45205],[1.75781,46.4757],[1.9844,46.45016],[2.14371,46.30141],[2.2316,46.26914],[2.30163,46.31089],[2.35382,46.3052],[2.40188,46.31753],[2.48978,46.29382],[2.53784,46.24065],[2.50763,46.22925],[2.56393,46.14178],[2.65182,46.1218],[2.6889,46.17413],[2.75379,46.18221],[2.78641,46.19409],[2.83104,46.1513],[2.81799,46.11609],[2.79053,46.08276],[2.72323,46.05036],[2.6738,46.00364],[2.61474,45.97788],[2.57217,45.97502],[2.47055,45.85654],[2.42935,45.85846],[2.39776,45.83167],[2.42798,45.77327],[2.47879,45.7771],[2.48566,45.74165],[2.44171,45.70714],[2.37442,45.69947],[2.27966,45.66013],[2.1904,45.7033],[2.16843,45.75603],[2.09152,45.76369],[2.00775,45.76082],[1.99402,45.71481],[1.94595,45.72919],[1.9075,45.71098],[1.86561,45.72392],[1.88484,45.75363],[1.88553,45.79721],[1.75644,45.82306],[1.7894,45.87376],[1.6452,45.8422],[1.61911,45.85463],[1.66443,45.90817],[1.67404,45.95211],[1.604,45.92632],[1.55319,45.94829],[1.49414,45.92059],[1.43234,45.94733],[1.27991,45.96738],[1.15768,45.9225],[1.13159,45.86324],[1.10138,45.84794],[1.05331,45.87758],[1.01211,45.87567],[0.98602,45.83454],[0.93658,45.80391],[0.96679,45.72728],[0.93109,45.64669],[0.84045,45.61884],[0.82397,45.63901],[0.81573,45.67452],[0.79101,45.69755],[0.71823,45.70906],[0.6427,45.70618],[0.59326,45.69467],[0.55206,45.6726],[0.51086,45.55541],[0.41061,45.47554],[0.35843,45.41388],[0.37903,45.38591],[0.35019,45.28262],[0.29526,45.25846],[0.26367,45.26329],[0.16754,45.22074],[0.0185,45.22068],[0.00687,45.24589],[-0.04257,45.28358],[0.00549,45.32995],[0.03158,45.41581],[-0.00275,45.43701],[-0.03571,45.48228],[-0.10437,45.5179],[-0.19501,45.53233],[-0.27191,45.56503],[-0.39963,45.64285],[-0.44495,45.75507],[-0.42709,45.78093],[-0.39002,45.76752],[-0.29938,45.77806],[-0.3035,45.80391],[-0.28427,45.81253],[-0.25681,45.77806],[-0.17304,45.80104],[-0.18952,45.84602],[-0.12909,45.87854],[-0.11948,45.95497],[-0.26917,46.04655],[-0.36118,45.99124],[-0.41748,46.0618],[-0.47653,46.05132],[-0.49164,46.07228],[-0.46829,46.10085],[-0.48889,46.14178],[-0.53696,46.15415],[-0.54657,46.18268],[-0.51636,46.23305],[-0.54794,46.3365],[-0.63584,46.31659],[-0.6839,46.33081],[-0.73471,46.31753],[-0.77454,46.32891],[-0.95993,46.31279],[-1.00525,46.32133],[-1.0849,46.29951],[-1.2381,46.23989],[-1.24881,46.2427],[-1.22274,45.88983],[-1.1411,45.88983],[-1.21314,45.75877],[-1.04528,45.69326],[-1.03121,45.4968],[-1.18937,45.43133],[-1.17057,45.16959],[-1.25186,45.16959],[-1.20538,44.51598],[-1.28634,44.51598],[-1.26796,44.25483],[-1.3488,44.25483],[-1.32139,43.86341],[-1.40205,43.86341],[-1.45988,43.5375],[-1.69217,43.4072]]],[[[-1.41684,46.30944],[-1.36469,46.30118],[-1.372,46.30795],[-1.41684,46.30944]]]]}},{"type":"Feature","properties":{"NAME":"Royal Domain of France","START_DATE":"1085","END_DATE":"1138","CLIOPATRIA_NAME":"Kingdom of France","CLIOPATRIA_SESHAT_ID":"fr_capetian_k_1","CLIOPATRIA_AREA_KM2":21966,"WIKIDATA":"Q207162","WIKIPEDIA":"Kingdom of France","SNAPSHOT_YEAR":1100},"geometry":{"type":"MultiPolygon","coordinates":[[[[1.3888,48.65424],[1.56706,48.45594],[1.73301,48.45594],[1.68547,47.86186],[1.76812,47.86186],[1.89226,47.13737],[2.7116,47.20317],[2.61899,47.40062],[2.36821,47.46647],[2.41332,47.75821],[2.39777,47.7662],[2.41575,47.77392],[2.42935,47.86186],[2.76339,47.79593],[3.24941,47.99377],[3.48035,47.90337],[3.55306,47.92336],[3.62585,47.87395],[3.68513,47.88285],[3.73755,47.85291],[3.72957,47.80581],[3.75481,47.79593],[3.7518,47.86186],[3.83445,47.86186],[3.83147,47.92781],[3.91416,47.92781],[3.64762,48.32381],[3.56472,48.32381],[3.47546,48.45594],[3.05722,48.52202],[2.88429,48.65424],[2.79067,48.85268],[3.03341,48.98506],[2.61345,49.05127],[2.43944,49.18375],[1.77241,49.18375],[1.6469,49.0105],[1.81274,48.97661],[1.75644,48.89994],[1.77017,48.86472],[1.84845,48.84845],[1.89926,48.77882],[1.87454,48.74623],[1.76674,48.73083],[1.73309,48.69821],[1.66855,48.71815],[1.62323,48.77972],[1.6301,48.82857],[1.607,48.85628],[1.5599,48.89042],[1.3888,48.65424]]],[[[1.4334,50.57886],[1.44206,50.44566],[1.44637,50.37908],[1.47532,50.3679],[1.47706,50.37993],[1.60727,50.3666],[1.60744,50.38751],[1.64177,50.39407],[1.64314,50.43411],[1.68022,50.43652],[1.72554,50.41114],[1.72554,50.39276],[1.78211,50.38804],[1.77852,50.44566],[1.6944,50.44566],[1.66355,50.49003],[1.4334,50.57886]]]]}}],"metadata":{"generatedBy":"scripts/build-fief-flat.ts","input":"data/cliopatria_fiefs_1100.geojson","year":1100,"cutPolicy":"keep-smaller","containmentCoverageThreshold":0.9,"minOverlapAreaM2":1000,"sliverAreaLimitM2":1000000000,"resolutions":[{"kind":"containment","cutName":"County of Blôis","keptName":"County of Champagne","overlapKm2":25198.78,"coverageOfSmaller":1},{"kind":"sliver","cutName":"Royal Domain of France","keptName":"County of Flanders","overlapKm2":58.78,"coverageOfSmaller":0.0034}],"externalInputs":["data/france_fiefs_flat_1100.geojson","data/italy_fiefs_flat_1100.geojson","data/hre_fiefs_flat_1100.geojson"],"externalRemovals":[{"cutName":"County of Blôis","externalName":"County of Perche","overlapKm2":1205.51},{"cutName":"County of Blôis","externalName":"County of Tours","overlapKm2":30.82},{"cutName":"County of Blôis","externalName":"County of Vendôme","overlapKm2":8.95},{"cutName":"County of Champagne","externalName":"County of Bar","overlapKm2":16.37},{"cutName":"County of Champagne","externalName":"Duchy of Burgundy","overlapKm2":1842.32},{"cutName":"County of Champagne","externalName":"Duchy of Upper Lotharingia","overlapKm2":204.17},{"cutName":"County of Flanders","externalName":"Counts of Saint-Pol","overlapKm2":583.79},{"cutName":"County of Flanders","externalName":"County of Ponthieu","overlapKm2":5.64},{"cutName":"County of Flanders","externalName":"Duchy of Lower Lotharingia","overlapKm2":365.8},{"cutName":"County of Nevers","externalName":"Duchy of Burgundy","overlapKm2":8702.07},{"cutName":"County of Vermandois","externalName":"County of Ponthieu","overlapKm2":1486.37},{"cutName":"County of Vermandois","externalName":"Duchy of Normandy","overlapKm2":26.69},{"cutName":"County of Vermandois","externalName":"Duchy of Lower Lotharingia","overlapKm2":234.31},{"cutName":"Duchy of Aquitaine","externalName":"County of Angoulême","overlapKm2":4490.96},{"cutName":"Duchy of Aquitaine","externalName":"County of La Marche","overlapKm2":9057.67},{"cutName":"Duchy of Aquitaine","externalName":"County of Nantes","overlapKm2":337.94},{"cutName":"Duchy of Aquitaine","externalName":"County of Poitou","overlapKm2":18932.29},{"cutName":"Duchy of Aquitaine","externalName":"County of Tours","overlapKm2":1321.58},{"cutName":"Duchy of Aquitaine","externalName":"Duchy of Burgundy","overlapKm2":1282.45},{"cutName":"Royal Domain of France","externalName":"County of Ponthieu","overlapKm2":210.4},{"cutName":"Royal Domain of France","externalName":"Duchy of Burgundy","overlapKm2":82.33},{"cutName":"Royal Domain of France","externalName":"Duchy of Normandy","overlapKm2":471.23}],"source":"Cliopatria (Seshat Global History Databank)","sourceUrl":"https://github.com/Seshat-Global-History-Databank/cliopatria","license":"CC BY 4.0","commit":"ad28a691b7c07c1fca89d0e0636d324667d2a258","borderPrecision":"史料地図のデジタイズ（概略。手描き地図の自動抽出を 0.07 度で平滑化）"}}