{"type":"FeatureCollection","features":[{"type":"Feature","properties":{"NAME":"County of Armagnac","START_DATE":"1279","END_DATE":"1332","CLIOPATRIA_NAME":"County of Armagnac","CLIOPATRIA_SESHAT_ID":"fr_capetian_k_2","CLIOPATRIA_AREA_KM2":6985,"WIKIDATA":"Q676745","WIKIPEDIA":"County of Armagnac","SNAPSHOT_YEAR":1300},"geometry":{"type":"MultiPolygon","coordinates":[[[[-0.28113,43.99384],[-0.32871,43.47235],[0.00901,43.21183],[0.08936,43.21183],[0.08153,43.34207],[0.40318,43.34207],[0.47603,43.47235],[0.63698,43.47235],[0.94799,43.66784],[0.92225,44.12432],[0.2839,43.99384],[0.03771,44.05907],[0.04174,43.99384],[-0.03898,43.99384],[-0.11969,43.99384],[-0.20041,43.99384],[-0.28113,43.99384]]]]}},{"type":"Feature","properties":{"NAME":"County of Auvergne","START_DATE":"1272","END_DATE":"1332","CLIOPATRIA_NAME":"County of Auvergne","CLIOPATRIA_SESHAT_ID":"fr_capetian_k_2","CLIOPATRIA_AREA_KM2":19408,"WIKIDATA":"Q1152","WIKIPEDIA":"Auvergne","SNAPSHOT_YEAR":1300},"geometry":{"type":"MultiPolygon","coordinates":[[[[1.42471,50.71214],[1.5176,50.57886],[1.60179,50.57886],[1.84193,50.77881],[1.58038,50.9122],[1.49598,50.9122],[1.50898,50.71214],[1.42471,50.71214]]],[[[2.10101,44.77729],[2.27624,44.51598],[2.51599,44.58129],[2.58442,44.84265],[2.74667,44.84265],[2.91798,44.64661],[3.15816,44.71195],[3.23051,44.90802],[3.47398,44.90802],[3.5607,44.77729],[3.96617,44.77729],[3.96092,44.90802],[4.12323,44.90802],[4.35675,45.16959],[4.35424,45.235],[4.35172,45.30044],[4.27037,45.30044],[3.94229,45.36588],[4.01298,45.62776],[3.93147,45.62776],[3.92327,45.8243],[3.6756,45.88983],[3.66988,46.02094],[3.34306,46.02094],[3.34904,45.88983],[3.2674,45.88983],[3.01311,46.08651],[2.77113,46.02094],[2.72924,46.05325],[2.72323,46.05036],[2.6738,46.00364],[2.61474,45.97788],[2.57217,45.97502],[2.56404,45.96554],[2.53596,45.8243],[2.48158,45.7627],[2.48566,45.74165],[2.44171,45.70714],[2.43151,45.70598],[2.30465,45.56227],[2.40265,45.235],[2.16879,45.03878],[2.10101,44.77729]]],[[[2.59755,46.13414],[2.63561,46.12549],[2.60112,46.15209],[2.59755,46.13414]]]]}},{"type":"Feature","properties":{"NAME":"County of Blôis","START_DATE":"1294","END_DATE":"1332","CLIOPATRIA_NAME":"County of Blôis","CLIOPATRIA_SESHAT_ID":"fr_capetian_k_2","CLIOPATRIA_AREA_KM2":3658,"WIKIDATA":"Q19336869","WIKIPEDIA":"County of Blois","SNAPSHOT_YEAR":1300},"geometry":{"type":"Polygon","coordinates":[[[1.18544,47.92781],[1.2104,47.82408],[1.24832,47.82699],[1.2442,47.76056],[1.23129,47.73725],[1.29644,47.46647],[1.40254,47.07159],[1.89226,47.13737],[1.67766,47.99377],[1.18544,47.92781]]]}},{"type":"Feature","properties":{"NAME":"County of Foix","START_DATE":"1294","END_DATE":"1332","CLIOPATRIA_NAME":"County of Foix","CLIOPATRIA_SESHAT_ID":"fr_capetian_k_2","CLIOPATRIA_AREA_KM2":8648,"WIKIDATA":"Q1481436","WIKIPEDIA":"County of Foix","SNAPSHOT_YEAR":1300},"geometry":{"type":"MultiPolygon","coordinates":[[[[0.99452,42.82134],[0.98393,43.01654],[0.81254,43.21183],[0.96608,43.34207],[0.63698,43.47235],[0.94799,43.66784],[1.27728,43.5375],[1.30498,43.01654],[1.87324,42.8864],[1.7258,42.62621],[1.64571,42.62621],[1.56562,42.62621],[1.48554,42.62621],[1.07469,42.82134],[0.99452,42.82134]]],[[[0.01293,43.14672],[-0.29628,42.95147],[-0.29227,42.8864],[-0.28828,42.82134],[-0.85792,42.95147],[-0.87063,43.14672],[-1.04426,43.34207],[-0.65484,43.5375],[-0.32871,43.47235],[0.00901,43.21183],[0.01293,43.14672]]]]}},{"type":"Feature","properties":{"NAME":"County of Nevers","START_DATE":"1285","END_DATE":"1325","CLIOPATRIA_NAME":"County of Nevers","CLIOPATRIA_SESHAT_ID":"fr_capetian_k_2","CLIOPATRIA_AREA_KM2":13355,"WIKIDATA":"Q2070440","WIKIPEDIA":"County of Nevers","SNAPSHOT_YEAR":1300},"geometry":{"type":"MultiPolygon","coordinates":[[[[2.35749,47.6641],[2.36821,47.46647],[2.61899,47.40062],[2.7939,47.20317],[2.98451,46.67721],[3.5706,46.56094],[3.59082,46.60195],[3.69589,46.64299],[3.66018,46.66781],[3.62585,46.76119],[3.53085,46.69639],[3.42647,46.69074],[3.39763,46.71742],[3.26532,46.7306],[3.18978,46.68037],[3.05244,46.73923],[3.03184,46.76668],[3.06503,46.85911],[3.04672,46.95372],[3.06961,46.99043],[3.03733,47.08824],[3.03034,47.13544],[2.9991,47.20391],[2.98194,47.26531],[2.88053,47.32849],[2.92975,47.44751],[2.84093,47.56395],[2.75894,47.60153],[2.69878,47.66024],[2.59692,47.6849],[2.5223,47.65453],[2.4566,47.7174],[2.46072,47.73388],[2.43557,47.74679],[2.44004,47.6641],[2.35749,47.6641]]],[[[2.42935,47.86186],[2.43369,47.78161],[2.5017,47.8108],[2.69718,47.76143],[2.75212,47.78835],[2.88717,47.7522],[2.93707,47.72295],[3.06045,47.73111],[3.11974,47.77528],[3.21382,47.76189],[3.27667,47.79676],[3.21349,47.79979],[3.21349,47.87722],[3.0757,47.97943],[3.00792,47.86186],[2.76339,47.79593],[2.42935,47.86186]]],[[[3.59801,47.89195],[3.59952,47.89182],[3.62585,47.87395],[3.64891,47.87741],[3.63392,47.88894],[3.59801,47.89195]]],[[[4.38142,49.86854],[4.42885,49.86854],[4.58266,49.83666],[4.59935,49.83688],[4.57682,49.91356],[4.49302,49.91356],[4.38142,49.86854]]]]}},{"type":"Feature","properties":{"NAME":"County of Périgord","START_DATE":"1272","END_DATE":"1332","CLIOPATRIA_NAME":"County of Périgord","CLIOPATRIA_SESHAT_ID":"fr_capetian_k_2","CLIOPATRIA_AREA_KM2":8547,"WIKIDATA":"Q1947408","WIKIPEDIA":"County of Périgord","SNAPSHOT_YEAR":1300},"geometry":{"type":"MultiPolygon","coordinates":[[[[-0.17808,44.90802],[0.22361,44.97339],[0.68311,45.43133],[1.10159,45.235],[1.19787,44.97339],[1.44866,44.84265],[1.3784,44.64661],[1.06543,44.45068],[-0.07183,44.51598],[-0.17808,44.90802]]]]}},{"type":"Feature","properties":{"NAME":"Duchy of Aquitaine","START_DATE":"1250","END_DATE":"1304","CLIOPATRIA_NAME":"Duchy of Aquitaine","CLIOPATRIA_SESHAT_ID":"fr_capetian_k_2","CLIOPATRIA_AREA_KM2":9626,"WIKIDATA":"Q7703611","WIKIPEDIA":"Duchy of Aquitaine","SNAPSHOT_YEAR":1300},"geometry":{"type":"Polygon","coordinates":[[[0.68311,45.43133],[1.10159,45.235],[1.19787,44.97339],[1.44866,44.84265],[2.10101,44.77729],[2.16879,45.03878],[2.40265,45.235],[2.30465,45.56227],[0.95426,45.81487],[0.93658,45.80391],[0.96679,45.72728],[0.93109,45.64669],[0.84907,45.62149],[0.68311,45.43133]]]}},{"type":"Feature","properties":{"NAME":"Duchy of Bavaria","SUBJECTO":"Holy Roman Empire","PARTOF":"Holy Roman Empire","START_DATE":"1294","END_DATE":"1304","CLIOPATRIA_NAME":"Duchy of Bavaria","CLIOPATRIA_SESHAT_ID":"de_empire_3","CLIOPATRIA_AREA_KM2":35301,"WIKIDATA":"Q47261","WIKIPEDIA":"Duchy of Bavaria","SNAPSHOT_YEAR":1300},"geometry":{"type":"MultiPolygon","coordinates":[[[[7.0153,49.58157],[7.35726,49.25001],[7.52564,49.31746],[7.52357,49.3334],[7.55962,49.35666],[7.58194,49.34459],[7.58281,49.34036],[7.68822,49.38258],[7.84825,49.13609],[7.86458,49.14404],[7.86273,49.15603],[7.87469,49.15346],[7.90123,49.17463],[7.90981,49.16363],[7.89883,49.14882],[7.92054,49.12927],[7.90569,49.11849],[7.86034,49.11661],[7.8616,49.05127],[8.11267,48.98506],[8.27484,49.25001],[8.77447,49.31629],[8.60568,49.44889],[8.35509,49.44889],[8.32134,49.55082],[8.31665,49.54994],[8.31116,49.55528],[8.31881,49.55846],[8.30689,49.59447],[8.29039,49.59091],[8.28335,49.60826],[8.27511,49.60915],[8.27751,49.61583],[8.29977,49.61598],[8.26721,49.71431],[8.20882,49.71431],[8.20301,49.71338],[8.20235,49.71431],[7.90212,49.71431],[7.89127,49.70172],[7.89977,49.6934],[7.90732,49.69634],[7.90835,49.68612],[7.87788,49.66196],[7.8566,49.66241],[7.83892,49.6834],[7.84269,49.70615],[7.86235,49.7055],[7.86477,49.71431],[7.8488,49.71431],[7.76117,49.91356],[7.50977,49.91356],[7.60054,49.58157],[7.0153,49.58157]],[[7.70142,49.49846],[7.71618,49.50359],[7.75532,49.4911],[7.75429,49.47616],[7.73815,49.47348],[7.70142,49.49846]],[[7.76115,49.54504],[7.81128,49.58712],[7.84767,49.59402],[7.8669,49.61894],[7.86346,49.62806],[7.88509,49.62217],[7.88561,49.60893],[7.90003,49.60303],[7.9428,49.60381],[7.94089,49.60378],[7.94406,49.60609],[7.9771,49.60821],[7.97028,49.59514],[7.93754,49.58807],[7.94449,49.56664],[7.87411,49.56152],[7.86346,49.54526],[7.76974,49.53412],[7.76115,49.54504]],[[7.83136,49.37287],[7.83325,49.38707],[7.87994,49.40986],[7.89127,49.40159],[7.92114,49.41991],[7.93041,49.42058],[7.93934,49.40852],[7.91943,49.38751],[7.90501,49.39355],[7.88544,49.38841],[7.87582,49.37634],[7.84836,49.36684],[7.83136,49.37287]],[[7.88836,49.19057],[7.91771,49.2102],[7.9511,49.18619],[7.93788,49.17716],[7.91479,49.17811],[7.90552,49.18872],[7.88836,49.19057]],[[7.94311,49.45273],[7.95719,49.46344],[7.94998,49.48374],[7.9565,49.48909],[8.00182,49.4989],[8.01075,49.50916],[8.04234,49.51875],[8.0801,49.53301],[8.04199,49.52298],[8.08044,49.54526],[8.10113,49.55423],[8.09392,49.56314],[8.12396,49.56759],[8.12757,49.57427],[8.11516,49.58465],[8.08671,49.57571],[8.07838,49.58952],[8.08765,49.61116],[8.12096,49.62094],[8.1292,49.61182],[8.18825,49.6185],[8.18413,49.63495],[8.19374,49.63606],[8.19099,49.65163],[8.20747,49.65274],[8.23151,49.61783],[8.20473,49.61204],[8.21468,49.60159],[8.23391,49.60448],[8.21022,49.59358],[8.21022,49.58334],[8.18584,49.58067],[8.18962,49.55528],[8.20507,49.55606],[8.21588,49.52465],[8.16833,49.52599],[8.17417,49.5173],[8.18859,49.51797],[8.19237,49.50431],[8.18447,49.50052],[8.19477,49.4945],[8.25829,49.49534],[8.25142,49.4824],[8.2188,49.46835],[8.22052,49.46322],[8.16147,49.45451],[8.15872,49.46277],[8.13366,49.46656],[8.11512,49.46143],[8.13229,49.4525],[8.08662,49.43799],[8.0595,49.40248],[8.02448,49.39668],[8.0444,49.38908],[8.0492,49.37477],[8.02448,49.36605],[7.98809,49.39087],[8.01865,49.39198],[8.02483,49.42348],[8.01144,49.4179],[7.99496,49.42348],[8.02139,49.43286],[7.99496,49.43308],[8.02757,49.44558],[8.01693,49.45764],[8.00732,49.44759],[7.99564,49.44893],[7.99461,49.44201],[7.98157,49.44291],[7.97813,49.45094],[7.95891,49.44179],[7.94311,49.45273]],[[7.94809,49.6185],[7.97856,49.61922],[7.96947,49.61288],[7.94904,49.60821],[7.94809,49.6185]],[[8.03345,49.68479],[8.05354,49.69923],[8.11615,49.68673],[8.0777,49.67829],[8.03345,49.68479]],[[8.05126,49.25212],[8.0825,49.25638],[8.10894,49.24697],[8.07598,49.24383],[8.05126,49.25212]],[[8.21194,49.58735],[8.23287,49.5879],[8.28087,49.58671],[8.27494,49.53925],[8.24043,49.53724],[8.23254,49.54816],[8.21983,49.54638],[8.21297,49.55551],[8.22155,49.56041],[8.21194,49.58735]],[[8.27579,49.42281],[8.27991,49.43375],[8.30772,49.43018],[8.29124,49.39399],[8.283,49.39332],[8.27579,49.42281]]],[[[10.02738,49.0772],[10.02781,48.98506],[10.27802,48.85268],[10.27844,48.72037],[10.44497,48.58812],[10.44557,48.32381],[10.52847,48.32381],[10.47325,47.96665],[10.48714,47.96763],[10.47752,47.9428],[10.49126,47.93176],[10.47306,47.92532],[10.47169,47.91266],[10.49057,47.90783],[10.47855,47.90069],[10.48267,47.88527],[10.49023,47.88527],[10.50087,47.90392],[10.51083,47.8931],[10.55649,47.89149],[10.574,47.87675],[10.5637,47.84911],[10.59116,47.83551],[10.61623,47.84427],[10.60507,47.82848],[10.61176,47.81465],[10.60163,47.80797],[10.60472,47.79794],[10.61468,47.79574],[10.60009,47.76979],[10.58278,47.75978],[10.69478,47.73],[10.61239,47.59821],[10.69491,47.59821],[11.11599,47.55017],[11.13602,47.55243],[11.17184,47.54379],[11.17641,47.54327],[11.31866,47.55151],[11.41222,47.49586],[11.38493,47.47406],[11.40785,47.46647],[11.43703,47.46647],[11.43655,47.33479],[11.60099,47.26897],[11.84801,47.26897],[12.01463,47.53233],[12.26206,47.53233],[12.34267,47.33479],[12.50811,47.40062],[12.59345,47.6641],[12.59493,47.79593],[12.43037,47.86186],[12.43242,48.05975],[11.93683,48.19175],[11.8549,48.32381],[11.78742,48.32381],[11.78671,48.32207],[11.75696,48.27225],[11.75018,48.24125],[11.71198,48.20324],[11.67069,48.19946],[11.65182,48.15178],[11.60687,48.15764],[11.68459,48.25224],[11.68025,48.26158],[11.69937,48.29433],[11.70199,48.32257],[11.70286,48.32381],[10.86008,48.32381],[10.94311,48.45594],[11.27522,48.52202],[11.44272,48.85268],[11.56837,48.87764],[11.5638,48.89091],[11.55281,48.89452],[11.56929,48.91663],[11.56174,48.92205],[11.57204,48.92746],[11.69014,48.93017],[11.71143,48.93694],[11.73614,48.92611],[11.76224,48.93739],[11.84326,48.92656],[11.86438,48.94156],[11.88686,48.93118],[11.9224,48.93457],[11.92364,48.93348],[12.26684,49.01127],[12.25559,49.02132],[12.21851,49.0292],[12.18401,49.0077],[12.15217,49.02051],[12.15637,49.04912],[12.22298,49.08713],[12.2755,49.0959],[12.31911,49.12467],[12.35825,49.11433],[12.32529,49.08196],[12.37678,49.06307],[12.42828,49.07657],[12.4585,49.07207],[12.457,49.06203],[12.78024,49.31629],[12.36765,49.71431],[12.37092,49.98001],[12.26599,50.06395],[12.25842,50.05212],[12.241,50.03559],[12.19834,50.03267],[12.19813,49.99915],[12.14616,49.99189],[12.14024,50.00818],[12.11637,50.03057],[12.07569,50.02208],[12.07724,50.01348],[12.04651,50.01645],[12.04428,50.0084],[12.07587,49.99464],[12.04994,49.9892],[11.96205,49.99207],[11.92223,49.98434],[11.88652,49.99869],[11.87416,50.01568],[11.85802,50.02208],[11.82095,50.02274],[11.81648,50.00443],[11.79554,50.00928],[11.78833,49.99825],[11.80035,49.98236],[11.79211,49.96359],[11.7976,49.95144],[11.7873,49.9415],[11.76189,49.94702],[11.74679,49.9278],[11.7164,49.92387],[11.714,49.90602],[11.72979,49.89917],[11.71177,49.89143],[11.73614,49.87572],[11.71246,49.86864],[11.70628,49.84739],[11.67538,49.83189],[11.67297,49.81916],[11.68636,49.80465],[11.66834,49.80553],[11.64894,49.78459],[11.57959,49.76064],[11.58783,49.75122],[11.5765,49.74001],[11.57392,49.70372],[11.55024,49.6985],[11.56723,49.67629],[11.56191,49.65396],[11.5686,49.64496],[11.5626,49.63495],[11.59607,49.6057],[11.56448,49.57354],[11.54011,49.60248],[11.51298,49.60782],[11.51676,49.62739],[11.47247,49.63206],[11.42269,49.62005],[11.399,49.63584],[11.40621,49.64807],[11.4402,49.65685],[11.44089,49.67385],[11.47385,49.68618],[11.47127,49.71205],[11.42896,49.72004],[11.43471,49.73158],[11.41685,49.71149],[11.34321,49.67785],[11.31849,49.68451],[11.27918,49.6754],[11.26133,49.69406],[11.22459,49.69806],[11.22221,49.69757],[11.2789,49.51522],[11.02804,49.44889],[11.028,49.43275],[11.02993,49.42962],[11.04555,49.42895],[11.05911,49.41354],[11.02795,49.41276],[11.02787,49.37612],[11.03508,49.37142],[11.07937,49.36471],[11.10683,49.37366],[11.11576,49.36673],[11.09722,49.34995],[11.0931,49.33653],[11.09962,49.33407],[11.12297,49.34347],[11.14254,49.36449],[11.19438,49.33989],[11.25103,49.33743],[11.27026,49.34593],[11.26751,49.35711],[11.31248,49.35398],[11.35574,49.32244],[11.32656,49.30028],[11.30665,49.29826],[11.2912,49.31237],[11.26167,49.31192],[11.25549,49.32311],[11.23077,49.32311],[11.23901,49.30923],[11.23077,49.30587],[11.21086,49.31729],[11.17687,49.28259],[11.22518,49.25001],[11.27781,49.25001],[11.2773,49.1175],[11.26479,49.11551],[11.28845,49.09658],[11.28845,49.07881],[11.30356,49.06757],[11.25206,49.04867],[11.21635,49.05587],[11.22253,49.03922],[11.20641,49.03447],[11.1906,49.05115],[11.17001,49.0489],[11.16784,49.03099],[11.13808,49.03337],[11.0907,49.02301],[10.98633,49.02166],[11.01688,49.05182],[11.01311,49.05902],[10.98736,49.06284],[10.9771,49.06979],[10.93274,49.06275],[10.93037,49.05587],[10.95818,49.04034],[10.93929,49.03022],[10.91445,49.02983],[11.02701,48.98506],[10.99034,48.92689],[10.99594,48.92927],[11.03542,48.90986],[11.0368,48.89994],[10.99766,48.87014],[10.97946,48.87172],[10.97671,48.85726],[10.9464,48.85718],[10.94356,48.85268],[10.71279,48.89857],[10.70892,48.8961],[10.67553,48.90598],[10.61073,48.91887],[10.5359,49.01779],[10.53434,49.01344],[10.41229,49.01986],[10.35255,49.05182],[10.33161,49.0543],[10.36491,49.07522],[10.31342,49.09006],[10.29865,49.08151],[10.2935,49.06622],[10.28183,49.06644],[10.26157,49.08556],[10.24166,49.07656],[10.25454,49.10332],[10.23668,49.09748],[10.22501,49.10377],[10.19308,49.08826],[10.196,49.07983],[10.15686,49.07533],[10.16098,49.06588],[10.1433,49.06667],[10.14175,49.07645],[10.11103,49.07409],[10.09541,49.0923],[10.09712,49.10197],[10.04974,49.07656],[10.02738,49.0772]],[[11.33926,49.57956],[11.34956,49.59558],[11.37909,49.60582],[11.40312,49.59469],[11.38252,49.56486],[11.35986,49.56709],[11.35918,49.57644],[11.33926,49.57956]],[[11.44432,49.52031],[11.51779,49.51273],[11.502,49.50158],[11.47179,49.50247],[11.44432,49.52031]],[[11.69872,49.65652],[11.75503,49.67296],[11.77563,49.66763],[11.77666,49.67985],[11.82026,49.68807],[11.81854,49.67785],[11.8388,49.67652],[11.85116,49.6834],[11.84257,49.68918],[11.85116,49.6914],[11.89098,49.6814],[11.90437,49.66585],[11.90506,49.62584],[11.92497,49.63028],[11.94351,49.60893],[11.91948,49.60248],[11.90815,49.59402],[11.87416,49.58979],[11.82609,49.59558],[11.79314,49.61694],[11.75331,49.62539],[11.74095,49.61961],[11.69872,49.65652]],[[11.73374,49.83245],[11.76533,49.84772],[11.77563,49.87273],[11.76258,49.8911],[11.77425,49.90547],[11.80378,49.89552],[11.81168,49.88136],[11.81065,49.85304],[11.83365,49.84219],[11.83331,49.81118],[11.78867,49.80121],[11.76739,49.81561],[11.73786,49.80919],[11.73374,49.83245]]],[[[10.14862,49.11209],[10.15549,49.10804],[10.16991,49.11276],[10.15274,49.12018],[10.14862,49.11209]]],[[[10.17643,49.10377],[10.19428,49.09658],[10.20012,49.10197],[10.18536,49.11119],[10.17643,49.10377]]],[[[10.19242,49.12627],[10.22162,49.11766],[10.2554,49.13049],[10.24822,49.14926],[10.21845,49.16102],[10.21661,49.14888],[10.20608,49.14669],[10.19242,49.12627]]],[[[10.34542,49.22473],[10.36746,49.2201],[10.38021,49.22361],[10.36499,49.24373],[10.35331,49.24305],[10.34542,49.22473]]],[[[10.36594,49.11029],[10.38963,49.09298],[10.42705,49.10152],[10.41538,49.11096],[10.37659,49.1168],[10.36594,49.11029]]],[[[10.41882,49.02414],[10.45898,49.02391],[10.45452,49.04349],[10.41882,49.03899],[10.41882,49.02414]]],[[[10.46997,49.05497],[10.49091,49.04057],[10.50705,49.04462],[10.50739,49.05092],[10.47649,49.0597],[10.46997,49.05497]]],[[[11.02039,49.07667],[11.0416,49.06194],[11.05942,49.08288],[11.02039,49.07667]]],[[[11.07525,49.06397],[11.09276,49.03809],[11.13087,49.0534],[11.10855,49.07387],[11.07525,49.06397]]],[[[11.08813,49.08744],[11.09894,49.07904],[11.20708,49.08444],[11.19192,49.10393],[11.08813,49.08744]]],[[[11.20949,49.78082],[11.24107,49.77594],[11.26579,49.78747],[11.30699,49.78525],[11.29528,49.80682],[11.21003,49.78432],[11.20949,49.78082]]],[[[11.46938,49.82669],[11.4838,49.82204],[11.48483,49.8103],[11.49616,49.80498],[11.47007,49.77217],[11.47728,49.75776],[11.50337,49.75665],[11.52603,49.77284],[11.52328,49.79545],[11.51298,49.80343],[11.53496,49.81761],[11.49925,49.83931],[11.47144,49.83843],[11.47144,49.84839],[11.46938,49.82669]]]]}},{"type":"Feature","properties":{"NAME":"Kingdom of Bohemia","SUBJECTO":"Holy Roman Empire","PARTOF":"Holy Roman Empire","START_DATE":"1294","END_DATE":"1304","CLIOPATRIA_NAME":"Kingdom of Bohemia","CLIOPATRIA_SESHAT_ID":"cz_bohemian_k_1","CLIOPATRIA_AREA_KM2":107598,"WIKIDATA":"Q42585","WIKIPEDIA":"Kingdom of Bohemia","SNAPSHOT_YEAR":1300},"geometry":{"type":"MultiPolygon","coordinates":[[[[12.12221,50.23432],[12.12294,50.2339],[12.15033,50.23304],[12.15969,50.21123],[12.17539,50.21284],[12.1827,50.19917],[12.19356,50.19777],[12.18886,50.19554],[12.2147,50.16458],[12.19516,50.14317],[12.19878,50.11772],[12.212,50.10715],[12.24062,50.09631],[12.27225,50.07372],[12.26599,50.06395],[12.37092,49.98001],[12.36765,49.71431],[12.78024,49.31629],[13.11297,49.25001],[13.35848,48.98506],[13.52501,48.98506],[13.52471,48.9693],[13.58008,48.97074],[13.60575,48.94119],[13.62545,48.94883],[13.62398,48.93742],[13.65879,48.89811],[13.70665,48.87891],[13.71947,48.87899],[13.73259,48.88698],[13.74876,48.86203],[13.93709,48.78652],[14.00078,48.70848],[14.00465,48.70755],[14.03596,48.67734],[14.05683,48.67492],[14.06027,48.66554],[14.05246,48.65267],[14.04632,48.65267],[14.09031,48.59878],[14.09289,48.59921],[14.11093,48.58944],[14.13019,48.59757],[14.14845,48.59303],[14.45269,48.62323],[14.45529,48.62735],[14.44376,48.64343],[14.46728,48.64606],[14.49408,48.63188],[14.49649,48.62757],[14.71382,48.64915],[14.71266,48.65101],[14.72605,48.68523],[14.73554,48.69822],[14.78041,48.71492],[14.80449,48.73258],[14.80052,48.74703],[14.81213,48.76402],[14.80923,48.77905],[14.82435,48.7837],[14.81651,48.79636],[14.8576,48.82864],[14.87952,48.86998],[14.89205,48.912],[14.90007,48.90873],[14.94054,48.98506],[14.98178,48.98141],[14.98316,48.98453],[14.99762,48.99211],[14.99388,49.01227],[15.02276,49.01982],[15.04117,49.01164],[15.06076,49.01471],[15.06845,48.99928],[15.15672,48.99235],[15.15211,48.97969],[15.16745,48.96496],[15.22555,48.95981],[15.22573,48.95989],[15.2268,48.9597],[15.26345,48.95646],[15.28183,48.98075],[15.27887,48.99466],[15.29049,48.9874],[15.29103,48.98432],[15.28555,49.0159],[15.24906,49.02857],[15.25504,49.04136],[15.24768,49.04806],[15.207,49.05875],[15.23044,49.08576],[15.2646,49.07533],[15.23818,49.09143],[15.2511,49.09844],[15.26003,49.12152],[15.2259,49.14526],[15.23794,49.17189],[15.20592,49.18108],[15.22145,49.19355],[15.26746,49.19431],[15.28166,49.20341],[15.2604,49.20111],[15.25531,49.21203],[15.21419,49.21097],[15.18318,49.18587],[15.1829,49.17273],[15.16253,49.17886],[15.16449,49.18822],[15.1369,49.18763],[15.13495,49.19697],[15.16605,49.20325],[15.16796,49.2169],[15.19239,49.23617],[15.22471,49.22463],[15.23264,49.23964],[15.22698,49.24809],[15.23502,49.25426],[15.27932,49.24666],[15.2689,49.25035],[15.28002,49.27811],[15.29519,49.28163],[15.29912,49.27403],[15.33518,49.27104],[15.3306,49.28418],[15.34456,49.31429],[15.38675,49.3163],[15.3807,49.32476],[15.38634,49.32619],[15.35731,49.33711],[15.38776,49.33402],[15.41757,49.31837],[15.49184,49.36412],[15.49093,49.37404],[15.50377,49.3817],[15.49971,49.39498],[15.51577,49.40466],[15.51166,49.40781],[15.54821,49.41823],[15.58371,49.40565],[15.60775,49.42789],[15.60392,49.43253],[15.63857,49.42528],[15.64356,49.4393],[15.63407,49.44569],[15.64795,49.4535],[15.68812,49.43189],[15.69792,49.44887],[15.77892,49.45],[15.78926,49.45284],[15.7845,49.46245],[15.79176,49.46955],[15.82394,49.4667],[15.82104,49.48138],[15.84203,49.50332],[15.85818,49.54239],[15.8869,49.55508],[15.8846,49.56906],[15.87462,49.56691],[15.86873,49.57455],[15.87139,49.58841],[15.94893,49.59233],[15.99248,49.61816],[15.98727,49.63179],[15.9738,49.63825],[15.95014,49.63749],[15.9203,49.65025],[15.91679,49.66345],[15.92818,49.67857],[15.94655,49.66736],[15.9733,49.66839],[15.9966,49.69613],[16.01548,49.70568],[16.05049,49.70847],[16.06432,49.68816],[16.07855,49.6849],[16.09098,49.66999],[16.10393,49.68423],[16.13947,49.69136],[16.14853,49.67793],[16.19014,49.67788],[16.20695,49.66618],[16.22228,49.66613],[16.21797,49.65964],[16.2282,49.64212],[16.22279,49.63021],[16.29824,49.62544],[16.34474,49.61327],[16.40637,49.5723],[16.41832,49.59559],[16.44302,49.58583],[16.45919,49.60521],[16.49009,49.59969],[16.49744,49.60978],[16.52886,49.6069],[16.51465,49.65499],[16.48087,49.66265],[16.47426,49.68572],[16.44468,49.70018],[16.3657,49.70765],[16.37619,49.73469],[16.38808,49.7427],[16.3883,49.75806],[16.40774,49.77383],[16.40572,49.78472],[16.41952,49.79126],[16.45468,49.78739],[16.46899,49.79663],[16.49691,49.79075],[16.507,49.78501],[16.50622,49.76351],[16.52828,49.75631],[16.53353,49.74093],[16.57154,49.74065],[16.58246,49.75314],[16.58077,49.768],[16.56487,49.78732],[16.57297,49.81098],[16.56881,49.83513],[16.62696,49.85993],[16.66236,49.85259],[16.66038,49.87354],[16.64404,49.8941],[16.68292,49.9038],[16.68344,49.91927],[16.69442,49.9306],[16.73353,49.95306],[16.73468,49.9686],[16.70845,50.00479],[16.69609,50.05262],[16.76063,50.0554],[16.78002,50.04719],[16.81006,50.05487],[16.81391,50.05828],[16.80001,50.07134],[16.81964,50.08667],[16.80112,50.10975],[16.80026,50.12984],[16.8219,50.17045],[16.84108,50.18648],[16.84089,50.20132],[16.84884,50.20757],[16.8787,50.19905],[16.88804,50.21583],[16.91254,50.2254],[16.95655,50.22277],[16.96155,50.23704],[16.97824,50.24346],[16.99717,50.21646],[17.03293,50.23002],[17.05724,50.19602],[17.07646,50.18263],[17.10921,50.18462],[17.11885,50.16106],[17.15817,50.11982],[17.21836,50.1035],[17.23063,50.08363],[17.2313,50.05997],[17.28762,50.0191],[17.31217,50.01657],[17.32186,49.98355],[17.349,49.96687],[17.35493,49.95258],[17.38555,49.93738],[17.41075,49.94795],[17.39647,49.96193],[17.40042,49.97276],[17.43146,49.96885],[17.46479,49.95658],[17.46127,49.94013],[17.46822,49.92652],[17.50151,49.93062],[17.50655,49.91282],[17.53113,49.90435],[17.53231,49.89754],[17.55903,49.90837],[17.59943,49.87684],[17.61568,49.88892],[17.643,49.88924],[17.69637,49.90797],[17.7143,49.8973],[17.73757,49.91134],[17.8098,49.91675],[17.82692,49.92923],[17.85715,49.93354],[17.84674,49.95844],[17.87105,49.96188],[17.88392,49.93725],[17.86734,49.93582],[17.86496,49.91798],[17.85069,49.91318],[17.85071,49.88807],[17.8373,49.87277],[17.81833,49.86416],[17.7137,49.86664],[17.68389,49.8744],[17.65922,49.86815],[17.64791,49.85371],[17.65824,49.84225],[17.65752,49.82186],[17.64035,49.81072],[17.65308,49.77751],[17.69372,49.75077],[17.68969,49.73742],[17.69665,49.72593],[17.7166,49.72771],[17.75452,49.7161],[17.76495,49.6928],[17.74765,49.69184],[17.73989,49.67866],[17.76835,49.65436],[17.77775,49.63307],[17.78783,49.6351],[17.83588,49.60669],[17.86309,49.60557],[17.87089,49.61228],[17.83453,49.63773],[17.83834,49.64219],[17.93033,49.61995],[17.92438,49.63424],[17.88362,49.65704],[17.85359,49.64684],[17.84491,49.65142],[17.84525,49.66618],[17.87023,49.7008],[17.84007,49.73743],[17.86447,49.76416],[17.86623,49.78337],[17.90127,49.7758],[17.88998,49.76141],[17.90208,49.75399],[17.8994,49.73998],[17.91814,49.70821],[17.95543,49.71937],[17.97963,49.73581],[17.98728,49.72765],[17.98174,49.71007],[17.99163,49.70655],[17.99204,49.68545],[18.01022,49.67804],[18.12029,49.717],[18.19042,49.75679],[18.19636,49.7823],[18.21827,49.78972],[18.21949,49.82512],[18.21416,49.82521],[18.2249,49.82911],[18.22743,49.85314],[18.27588,49.86699],[18.29983,49.83495],[18.2752,49.80123],[18.30863,49.76626],[18.30251,49.73334],[18.3188,49.69903],[18.36003,49.66865],[18.3682,49.65417],[18.36702,49.62361],[18.35353,49.61515],[18.36663,49.5989],[18.36742,49.56235],[18.37721,49.55998],[18.39683,49.53642],[18.39358,49.53193],[18.42272,49.50434],[18.42145,49.49436],[18.44175,49.46608],[18.45334,49.46065],[18.52514,49.47196],[18.52736,49.49394],[18.54095,49.4925],[18.53419,49.48575],[18.54286,49.47475],[18.79997,49.51522],[18.65125,49.84713],[18.07538,50.04647],[17.9915,50.04647],[17.98804,49.98001],[17.9042,49.98001],[17.90762,50.04647],[17.65599,50.04647],[17.5787,50.17946],[17.43876,50.20744],[17.42917,50.20454],[17.42442,50.21031],[17.24604,50.24598],[15.92286,50.77881],[15.41695,50.77881],[15.25535,50.97892],[14.5778,50.9122],[14.49738,51.04567],[14.32842,51.04567],[14.32651,50.97892],[14.24207,50.97892],[14.2402,50.9122],[14.15581,50.9122],[14.154,50.84549],[13.98528,50.84549],[13.22205,50.64549],[12.79645,50.37908],[12.37608,50.37908],[12.29033,50.24598],[12.12234,50.24598],[12.12221,50.23432]],[[17.79154,49.96626],[17.796,49.96886],[17.81513,49.96981],[17.82456,49.96235],[17.80342,49.95681],[17.79154,49.96626]],[[17.79201,49.75799],[17.79437,49.76748],[17.82323,49.7617],[17.82209,49.75622],[17.80852,49.75829],[17.80315,49.7487],[17.79201,49.75799]],[[17.9536,49.79493],[17.9637,49.80609],[17.98494,49.80801],[18.01028,49.79054],[17.97553,49.77732],[17.9536,49.79493]],[[17.97274,49.88837],[17.97616,49.9257],[17.98013,49.92172],[17.99402,49.90959],[17.98773,49.88585],[17.97274,49.88837]],[[17.99989,49.71121],[18.02666,49.73183],[18.05982,49.72762],[18.06073,49.70088],[18.02116,49.6959],[17.99989,49.71121]]],[[[16.10973,48.74868],[16.1177,48.74546],[16.27691,48.74153],[16.27759,48.74151],[16.10973,48.74868]]],[[[16.59811,48.78197],[16.64231,48.7857],[16.7305,48.77378],[16.8639,48.79013],[16.86434,48.78991],[16.86204,48.79106],[16.72877,48.77417],[16.64344,48.7858],[16.59811,48.78197]]],[[[17.02969,48.74702],[17.33855,48.82795],[17.32974,48.83282],[17.32167,48.8453],[17.30233,48.8449],[17.27667,48.86055],[17.22216,48.87406],[17.1945,48.87488],[17.1782,48.86702],[17.17659,48.85719],[17.16807,48.85952],[17.15134,48.84809],[17.14791,48.83785],[17.11881,48.8402],[17.10998,48.83431],[17.09217,48.78855],[17.04594,48.76808],[17.02969,48.74702]]],[[[17.90458,48.97627],[17.93814,48.98506],[17.97742,49.02642],[17.92226,49.01797],[17.90458,48.97627]]],[[[18.13174,49.18972],[18.13178,49.18896],[18.23063,49.29305],[18.18432,49.28514],[18.18452,49.2703],[18.14857,49.24939],[18.15325,49.21568],[18.13174,49.18972]]],[[[18.62496,50.84549],[18.70932,50.84549],[18.70531,50.77881],[18.70133,50.71214],[19.03019,50.57886],[19.02203,50.44566],[19.10615,50.44566],[19.18613,50.37908],[19.15777,49.91356],[19.39294,49.64793],[19.38893,49.58157],[19.86554,49.18375],[20.21194,49.38258],[21.38082,49.38258],[21.39056,49.51522],[21.64126,49.51522],[21.99112,49.71431],[21.51432,50.04647],[21.52461,50.17946],[21.288,50.37908],[21.03577,50.37908],[20.89251,50.71214],[20.20893,50.57886],[20.2183,50.71214],[20.04975,50.71214],[19.97469,50.84549],[19.5529,50.84549],[19.3973,51.04567],[19.13959,50.97892],[18.9791,51.11243],[18.63697,51.04567],[18.62894,50.9122],[18.62496,50.84549]]]]}},{"type":"Feature","properties":{"NAME":"Margraviate of Brandenburg","SUBJECTO":"Holy Roman Empire","PARTOF":"Holy Roman Empire","START_DATE":"1272","END_DATE":"1304","CLIOPATRIA_NAME":"Margraviate of Brandenburg","CLIOPATRIA_SESHAT_ID":"de_empire_3","CLIOPATRIA_AREA_KM2":41413,"WIKIDATA":"Q148499","WIKIPEDIA":"Margraviate of Brandenburg","SNAPSHOT_YEAR":1300},"geometry":{"type":"MultiPolygon","coordinates":[[[[11.04246,52.65353],[11.2135,52.65353],[11.08745,52.45734],[11.0919,52.45109],[11.14614,52.41938],[11.14729,52.39667],[11.98378,52.49059],[11.98231,52.49815],[11.95986,52.5186],[11.9796,52.53687],[11.98677,52.57212],[12.01597,52.62452],[12.01046,52.66087],[12.01544,52.68231],[12.04205,52.73401],[12.02273,52.81226],[12.07232,52.8172],[12.07831,52.79993],[12.10552,52.79456],[12.10912,52.78278],[12.14127,52.78325],[12.16598,52.8038],[12.21319,52.79456],[12.22358,52.78704],[12.22366,52.77587],[12.20581,52.76092],[12.21989,52.74933],[12.21911,52.73624],[12.20105,52.72831],[12.20667,52.72509],[12.19929,52.71719],[12.2177,52.70666],[12.22225,52.68814],[12.23109,52.68616],[12.22735,52.68231],[12.24074,52.66517],[12.2707,52.66894],[12.28319,52.66241],[12.29718,52.67154],[12.33357,52.65509],[12.31885,52.63637],[12.31473,52.61212],[12.32215,52.60704],[12.31451,52.59906],[12.32911,52.59077],[12.32172,52.57953],[12.33044,52.56926],[12.31318,52.56221],[12.31233,52.5548],[12.32434,52.54938],[12.30357,52.5452],[12.30795,52.53063],[12.33451,52.52823],[12.35297,52.51037],[12.38554,52.51575],[12.4118,52.50118],[12.41477,52.50886],[12.44058,52.50274],[12.4542,52.49172],[12.43743,52.46645],[12.4927,52.45189],[12.49038,52.31758],[12.46117,52.31758],[12.40854,52.30909],[12.46275,52.17579],[12.49309,52.17043],[12.5056,52.17934],[12.49494,52.1994],[12.52025,52.19051],[12.54029,52.2004],[12.51995,52.2217],[12.5363,52.24765],[12.56836,52.25166],[12.57608,52.25954],[12.57128,52.26837],[12.62329,52.23989],[12.78379,52.2035],[12.82654,52.22906],[12.81967,52.236],[12.83615,52.24746],[12.81332,52.24635],[12.80834,52.26522],[12.78156,52.26879],[12.78826,52.28948],[12.85388,52.30365],[12.89739,52.29662],[12.91078,52.27407],[12.83907,52.24788],[12.84542,52.24546],[12.85469,52.20487],[12.84885,52.19225],[12.85486,52.18804],[12.82328,52.1853],[12.82551,52.15814],[12.81933,52.15235],[12.8322,52.14023],[12.82242,52.12464],[12.79787,52.11779],[12.79738,52.11626],[12.98659,52.11626],[12.98241,52.12927],[12.95151,52.14276],[12.98447,52.14697],[13.09384,52.21526],[13.09467,52.21665],[13.09793,52.21861],[13.10686,52.24515],[13.13519,52.26217],[13.17003,52.26784],[13.21043,52.2401],[13.42535,52.18334],[13.68449,52.31758],[13.68804,52.45189],[14.62271,52.31758],[14.70801,52.31758],[14.71262,52.45189],[15.05415,52.45189],[15.31293,52.51908],[15.23272,52.65353],[16.00843,52.78807],[16.01149,52.85537],[16.28132,53.12479],[16.71397,53.1922],[16.72449,53.39457],[16.9038,53.52959],[16.6596,53.79992],[16.31441,53.79992],[16.39678,53.973],[16.38285,53.96906],[16.36499,53.98077],[16.36903,53.98562],[16.34637,53.98057],[16.3135,53.98905],[16.28097,53.98204],[16.2826,53.95755],[16.24389,53.97103],[16.17505,53.9734],[16.15977,53.98905],[16.18389,53.994],[16.19548,54.00464],[16.12982,54.02834],[16.13634,54.04311],[16.14517,54.04488],[15.98204,54.07063],[16.04909,53.66471],[15.79355,53.7323],[15.70427,53.66471],[15.78133,53.46207],[15.43993,53.52959],[15.25675,53.25963],[15.25064,53.25868],[15.29168,53.25007],[15.36826,53.25073],[15.35198,53.20896],[15.37957,53.19904],[15.36644,53.17492],[15.36412,53.14618],[15.34133,53.11778],[15.40386,53.09408],[15.39811,53.09145],[15.40781,53.08315],[15.38893,53.0716],[15.38944,53.06288],[15.42137,53.05195],[15.42858,53.03254],[15.45845,53.00962],[15.44317,52.98968],[15.41226,52.98041],[15.39471,53.00147],[15.35609,52.99713],[15.37549,52.97739],[15.28159,52.96467],[15.24743,52.99527],[15.22769,53.02883],[15.20485,53.03018],[15.20657,53.05299],[15.21886,53.07588],[15.20571,53.08187],[15.15802,53.06042],[15.13748,53.02859],[15.08213,53.04005],[15.067,53.05947],[15.02535,53.05267],[15.00921,53.07423],[15.03016,53.08217],[15.03391,53.09263],[15.04981,53.09436],[15.0408,53.11263],[15.00762,53.11255],[15.00148,53.09539],[14.97385,53.08629],[14.96098,53.09856],[14.92209,53.09655],[14.9081,53.11752],[14.88544,53.1218],[14.84974,53.10268],[14.85455,53.07062],[14.80974,53.04225],[14.80957,53.03306],[14.82073,53.02862],[14.81318,53.0248],[14.81609,53.01809],[14.73245,53.03672],[14.64675,52.98105],[14.56298,52.97676],[14.52088,52.96343],[14.46101,52.99327],[14.44011,52.99123],[14.44462,52.99761],[14.42707,53.00056],[14.42848,53.02222],[14.37149,53.03946],[14.35621,53.06536],[14.34677,53.06474],[14.33956,53.07526],[14.35415,53.07897],[14.35347,53.10361],[14.36668,53.1101],[14.35518,53.11433],[14.36668,53.11525],[14.36153,53.12432],[14.3708,53.13647],[14.3587,53.15212],[14.32484,53.15537],[14.29626,53.18649],[14.26373,53.12087],[14.18301,53.15109],[14.12121,53.16427],[14.10679,53.18505],[14.09306,53.22207],[14.10747,53.28102],[14.20738,53.34358],[14.24412,53.39418],[14.24163,53.42232],[14.23379,53.43117],[14.20836,53.44562],[14.20088,53.4614],[14.17142,53.47599],[14.1661,53.51393],[14.14181,53.50847],[14.1049,53.52031],[14.07615,53.51449],[14.03812,53.49417],[14.03761,53.47609],[14.0237,53.46649],[13.95315,53.49259],[13.97435,53.49913],[13.89427,53.51357],[13.89316,53.49862],[13.87972,53.504],[13.89755,53.53275],[13.8829,53.54194],[13.90238,53.56896],[13.86367,53.58058],[13.79183,53.5593],[13.786,53.56287],[13.82102,53.58731],[13.7763,53.59836],[13.76123,53.62168],[13.80672,53.64942],[13.86131,53.67038],[13.82046,53.684],[13.71165,53.69637],[13.5492,53.66471],[13.19619,53.32709],[12.16561,53.39457],[11.91039,53.59714],[11.73808,53.59714],[11.5635,53.39457],[11.30606,53.46207],[11.1329,53.32709],[11.21776,53.1922],[11.38952,53.1922],[11.38824,53.0574],[11.21667,53.0574],[11.04376,52.85537],[11.04246,52.65353]],[[12.28207,52.7962],[12.32563,52.79695],[12.34417,52.81169],[12.33353,52.82185],[12.35069,52.84218],[12.33009,52.85504],[12.36374,52.84736],[12.39601,52.87327],[12.41421,52.90248],[12.45644,52.92174],[12.48322,52.91718],[12.52029,52.95464],[12.52004,52.96436],[12.54072,52.9596],[12.54656,52.96849],[12.57312,52.97689],[12.6317,52.98025],[12.6505,52.99787],[12.65252,53.00291],[12.63144,53.01463],[12.61046,53.01272],[12.61076,53.03631],[12.62724,53.07031],[12.60303,53.08975],[12.56433,53.09856],[12.57042,53.10186],[12.49849,53.13678],[12.51102,53.14564],[12.54536,53.1547],[12.73916,53.11855],[12.82036,53.15007],[12.83718,53.14265],[12.91168,53.15439],[12.92795,53.1867],[12.94232,53.18575],[12.937,53.1941],[12.96842,53.1986],[12.97953,53.19058],[12.94438,53.17248],[12.96481,53.17615],[12.96812,53.1664],[12.98005,53.16262],[13.01983,53.17549],[13.02258,53.18495],[13.05835,53.15736],[13.08718,53.16426],[13.09708,53.16152],[13.09907,53.1512],[13.13107,53.13941],[13.10446,53.11255],[13.10617,53.09923],[13.13132,53.09436],[13.15033,53.10335],[13.15982,53.08204],[13.20534,53.07679],[13.21273,53.06298],[13.23449,53.05615],[13.25342,53.05303],[13.2792,53.06225],[13.25406,53.05032],[13.23561,53.05345],[13.21981,53.02852],[13.24565,53.01744],[13.16875,52.97661],[13.18359,52.95572],[13.24125,52.95342],[13.24471,52.93721],[13.2223,52.92096],[13.19115,52.91263],[13.15407,52.9207],[13.12737,52.9074],[13.15201,52.88327],[13.1545,52.86581],[13.09673,52.86405],[13.09442,52.84109],[13.04266,52.8456],[13.03227,52.837],[12.97588,52.83098],[12.97133,52.82885],[12.98571,52.8287],[12.9797,52.8177],[12.93902,52.80315],[12.94417,52.80113],[12.93816,52.79368],[12.89726,52.79716],[12.89211,52.78719],[12.85555,52.78501],[12.8183,52.80458],[12.80718,52.8217],[12.77714,52.83064],[12.69715,52.81747],[12.66964,52.80209],[12.54742,52.77224],[12.53918,52.7525],[12.47601,52.75874],[12.40219,52.75437],[12.39601,52.77099],[12.33318,52.76764],[12.30546,52.78914],[12.28207,52.7962]],[[12.45403,52.24467],[12.4645,52.2548],[12.45609,52.26288],[12.51974,52.26247],[12.53819,52.25213],[12.51879,52.25768],[12.49575,52.23074],[12.47532,52.22843],[12.45403,52.24467]],[[13.03481,53.19183],[13.07206,53.20047],[13.07714,53.19133],[13.05566,53.17914],[13.03481,53.19183]]],[[[14.73936,53.08186],[14.74812,53.0684],[14.79013,53.07918],[14.79129,53.09619],[14.77052,53.11649],[14.74082,53.11051],[14.73936,53.08186]]],[[[15.18017,53.12874],[15.18918,53.11559],[15.21427,53.11657],[15.23031,53.13297],[15.21713,53.14727],[15.18997,53.14203],[15.18017,53.12874]]]]}}],"metadata":{"generatedBy":"scripts/build-fief-flat.ts","input":"data/cliopatria_fiefs_1300.geojson","year":1300,"cutPolicy":"keep-smaller","containmentCoverageThreshold":0.9,"minOverlapAreaM2":1000,"sliverAreaLimitM2":1000000000,"resolutions":[],"externalInputs":["data/france_fiefs_flat_1300.geojson","data/italy_fiefs_flat_1300.geojson","data/hre_fiefs_flat_1300.geojson"],"externalRemovals":[{"cutName":"County of Auvergne","externalName":"County of La Marche","overlapKm2":136.6},{"cutName":"County of Blôis","externalName":"County of Vendôme","overlapKm2":17.09},{"cutName":"County of Nevers","externalName":"County of Champagne","overlapKm2":1388.55},{"cutName":"County of Nevers","externalName":"Duchy of Burgundy","overlapKm2":8646.66},{"cutName":"Duchy of Aquitaine","externalName":"County of Angoulême","overlapKm2":69.23},{"cutName":"Duchy of Aquitaine","externalName":"County of Poitou","overlapKm2":6.86},{"cutName":"Duchy of Bavaria","externalName":"Burgraviate of Nuremberg","overlapKm2":1688.14},{"cutName":"Duchy of Bavaria","externalName":"County of Abensberg","overlapKm2":69.24},{"cutName":"Duchy of Bavaria","externalName":"County of Falkenstein","overlapKm2":91.8},{"cutName":"Duchy of Bavaria","externalName":"County of Leiningen","overlapKm2":322.95},{"cutName":"Duchy of Bavaria","externalName":"Prince-Bishopric of Bamberg","overlapKm2":386.18},{"cutName":"Duchy of Bavaria","externalName":"Prince-Bishopric of Freising","overlapKm2":169.55},{"cutName":"Duchy of Bavaria","externalName":"Prince-Bishopric of Regensburg","overlapKm2":135.45},{"cutName":"Duchy of Bavaria","externalName":"Prince-Bishopric of Worms","overlapKm2":41.11},{"cutName":"Duchy of Bavaria","externalName":"Princely Abbey of Kempten","overlapKm2":140.04},{"cutName":"Kingdom of Bohemia","externalName":"Burgraviate of Nuremberg","overlapKm2":47.82},{"cutName":"Kingdom of Bohemia","externalName":"Duchy of Austria","overlapKm2":475.39},{"cutName":"Kingdom of Bohemia","externalName":"Moravia","overlapKm2":21696.59},{"cutName":"Kingdom of Bohemia","externalName":"Prince-Bishopric of Passau","overlapKm2":41.62},{"cutName":"Margraviate of Brandenburg","externalName":"Duchy of Pomerania-Stettin","overlapKm2":1703.53},{"cutName":"Margraviate of Brandenburg","externalName":"Duchy of Saxe-Wittenberg","overlapKm2":353.4},{"cutName":"Margraviate of Brandenburg","externalName":"Lordship of Ruppin","overlapKm2":1745.98},{"cutName":"Margraviate of Brandenburg","externalName":"Prince-Archbishopric of Magdeburg","overlapKm2":770.89},{"cutName":"Margraviate of Brandenburg","externalName":"Prince-Bishopric of Cammin","overlapKm2":83.7}],"source":"Cliopatria (Seshat Global History Databank)","sourceUrl":"https://github.com/Seshat-Global-History-Databank/cliopatria","license":"CC BY 4.0","commit":"ad28a691b7c07c1fca89d0e0636d324667d2a258","borderPrecision":"史料地図のデジタイズ（概略。手描き地図の自動抽出を 0.07 度で平滑化）"}}