{"type":"FeatureCollection","features":[{"type":"Feature","properties":{"NAME":"County of Blôis","START_DATE":"1169","END_DATE":"1205","CLIOPATRIA_NAME":"County of Blôis","CLIOPATRIA_SESHAT_ID":"fr_capetian_k_2","CLIOPATRIA_AREA_KM2":7796,"WIKIDATA":"Q19336869","WIKIPEDIA":"County of Blois","SNAPSHOT_YEAR":1200},"geometry":{"type":"Polygon","coordinates":[[[0.99738,48.00776],[1.05197,47.96629],[1.06155,47.96786],[1.10138,47.93751],[1.09579,47.93301],[1.23656,47.82609],[1.24832,47.82699],[1.24774,47.8176],[1.27627,47.79593],[1.24475,47.76947],[1.2442,47.76056],[1.21811,47.71346],[1.20308,47.70334],[1.29397,47.2492],[1.36976,47.19598],[1.34582,47.1449],[1.35566,47.13737],[1.89226,47.13737],[1.76812,47.86186],[1.68547,47.86186],[1.73301,48.45594],[1.56706,48.45594],[1.3888,48.65424],[1.30572,48.65424],[1.30987,48.58812],[1.06073,48.58812],[1.06498,48.52202],[1.02609,48.52202],[1.05606,48.51251],[1.09588,48.48294],[1.20163,48.45653],[1.21948,48.4055],[1.25519,48.38818],[1.27716,48.35899],[1.27441,48.31517],[1.33484,48.2448],[1.33209,48.22193],[1.27716,48.18807],[1.14532,48.17708],[1.06018,48.08267],[1.05056,48.03402],[0.99738,48.00776]]]}},{"type":"Feature","properties":{"NAME":"County of Boulogne","START_DATE":"1188","END_DATE":"1235","CLIOPATRIA_NAME":"County of Boulogne","CLIOPATRIA_SESHAT_ID":"fr_capetian_k_2","CLIOPATRIA_AREA_KM2":684,"WIKIDATA":"Q1431527","WIKIPEDIA":"County of Boulogne","SNAPSHOT_YEAR":1200},"geometry":{"type":"MultiPolygon","coordinates":[[[[1.49598,50.9122],[1.50032,50.84549],[1.50466,50.77881],[1.50898,50.71214],[1.42471,50.71214],[1.42906,50.64549],[1.4334,50.57886],[1.68599,50.57886],[1.84609,50.71214],[1.58038,50.9122],[1.49598,50.9122]]]]}},{"type":"Feature","properties":{"NAME":"County of Flanders","START_DATE":"1188","END_DATE":"1215","CLIOPATRIA_NAME":"County of Flanders","CLIOPATRIA_SESHAT_ID":"fr_capetian_k_2","CLIOPATRIA_AREA_KM2":9229,"WIKIDATA":"Q157070","WIKIPEDIA":"County of Flanders","SNAPSHOT_YEAR":1200},"geometry":{"type":"MultiPolygon","coordinates":[[[[3.12435,50.44566],[3.29602,50.37908],[3.3733,50.51225],[3.54161,50.51225],[3.70016,50.71214],[4.03417,50.77881],[4.10309,51.11243],[3.25434,51.17921],[3.15907,51.37968],[3.07438,51.37968],[2.15906,51.11243],[2.07454,51.11243],[2.09488,50.77881],[2.26351,50.77881],[2.27142,50.64549],[2.77683,50.64549],[3.04024,50.44566],[3.12435,50.44566]]]]}},{"type":"Feature","properties":{"NAME":"County of Nevers","START_DATE":"1169","END_DATE":"1205","CLIOPATRIA_NAME":"County of Nevers","CLIOPATRIA_SESHAT_ID":"fr_capetian_k_2","CLIOPATRIA_AREA_KM2":12467,"WIKIDATA":"Q2070440","WIKIPEDIA":"County of Nevers","SNAPSHOT_YEAR":1200},"geometry":{"type":"MultiPolygon","coordinates":[[[[2.36821,47.46647],[2.61899,47.40062],[2.7116,47.20317],[2.7939,47.20317],[2.80392,47.00583],[2.96114,46.7726],[3.03871,46.79881],[3.03184,46.76668],[3.06503,46.85911],[3.04672,46.95372],[3.06961,46.99043],[3.03733,47.08824],[3.03034,47.13544],[2.9991,47.20391],[2.98194,47.26531],[2.88053,47.32849],[2.92975,47.44751],[2.84093,47.56395],[2.75894,47.60153],[2.69878,47.66024],[2.59692,47.6849],[2.5223,47.65453],[2.4566,47.7174],[2.46072,47.73388],[2.41332,47.75821],[2.36821,47.46647]]],[[[2.41575,47.77392],[2.5017,47.8108],[2.69718,47.76143],[2.75212,47.78835],[2.88717,47.7522],[2.93707,47.72295],[3.06045,47.73111],[3.11974,47.77528],[3.21382,47.76189],[3.27667,47.79676],[3.21349,47.79979],[3.21349,47.87722],[3.12477,47.94303],[2.76339,47.79593],[2.42935,47.86186],[2.41575,47.77392]]]]}},{"type":"Feature","properties":{"NAME":"County of Toulouse","START_DATE":"1188","END_DATE":"1205","CLIOPATRIA_NAME":"County of Toulouse","CLIOPATRIA_SESHAT_ID":"fr_capetian_k_2","CLIOPATRIA_AREA_KM2":52816,"WIKIDATA":"Q1334322","WIKIPEDIA":"County of Toulouse","SNAPSHOT_YEAR":1200},"geometry":{"type":"Polygon","coordinates":[[[0.76157,43.4976],[0.86595,43.48531],[0.86457,43.44312],[0.79544,43.41436],[0.79278,43.41067],[0.96608,43.34207],[0.81254,43.21183],[0.98393,43.01654],[0.99452,42.82134],[1.48554,42.62621],[1.7258,42.62621],[1.72901,42.56119],[1.80907,42.56119],[1.81225,42.49618],[2.04303,42.69125],[2.51784,42.82134],[2.59215,42.95147],[2.99052,43.01654],[2.98772,43.08163],[3.14003,43.27695],[3.61714,43.4072],[3.85089,43.60266],[4.17303,43.60266],[4.17785,43.47235],[4.3388,43.47235],[4.41464,43.60266],[4.41231,43.66784],[4.72569,43.92862],[4.4766,44.12432],[4.46952,44.3201],[4.05753,44.51598],[3.96617,44.77729],[3.5607,44.77729],[3.5188,44.84046],[3.51597,44.8401],[3.42212,44.90661],[3.4218,44.90802],[3.23051,44.90802],[3.15816,44.71195],[3.05592,44.68414],[3.03298,44.65558],[2.97747,44.64418],[2.97006,44.66078],[2.91798,44.64661],[2.74667,44.84265],[2.58442,44.84265],[2.51599,44.58129],[2.27624,44.51598],[2.10101,44.77729],[1.44866,44.84265],[1.3784,44.64661],[1.06172,44.51598],[1.06351,44.48443],[1.09451,44.47691],[1.11923,44.46221],[1.12198,44.43084],[1.06719,44.41936],[1.06912,44.38538],[0.95643,44.32282],[1.03134,44.32483],[0.99563,44.27471],[1.03683,44.22651],[0.92072,44.15074],[0.92543,44.06729],[0.93178,44.06588],[1.0232,44.09192],[1.07974,44.07761],[1.09599,44.04077],[1.16123,43.97294],[1.10057,43.94245],[1.06738,43.86741],[1.01885,43.82895],[1.00534,43.7278],[0.94688,43.68748],[0.94799,43.66784],[0.82882,43.59294],[0.79476,43.52085],[0.76157,43.4976]]]}},{"type":"Feature","properties":{"NAME":"County of Vermandois","START_DATE":"1188","END_DATE":"1209","CLIOPATRIA_NAME":"County of Vermandois","CLIOPATRIA_SESHAT_ID":"fr_capetian_k_2","CLIOPATRIA_AREA_KM2":19510,"WIKIDATA":"Q26385","WIKIPEDIA":"Vermandois","SNAPSHOT_YEAR":1200},"geometry":{"type":"MultiPolygon","coordinates":[[[[1.44637,50.37908],[1.45068,50.31252],[1.45497,50.24598],[1.46066,50.23871],[1.47002,50.24633],[1.4628,50.28118],[1.47694,50.37908],[1.44637,50.37908]]],[[[1.48536,50.37908],[1.60727,50.3666],[1.60737,50.37908],[1.48536,50.37908]]],[[[1.71936,50.10473],[1.74683,50.05626],[1.72073,50.04832],[1.72897,49.99141],[1.76605,49.98479],[1.77704,49.97551],[1.73241,49.95785],[1.72211,49.93973],[1.73103,49.91984],[1.80382,49.91144],[1.81274,49.89331],[1.84158,49.89021],[1.86012,49.87163],[1.84914,49.81229],[1.79111,49.81707],[1.81961,49.78071],[1.79749,49.50093],[1.79901,49.49712],[1.79658,49.48938],[1.77241,49.18375],[2.43944,49.18375],[2.61345,49.05127],[2.86239,49.01202],[2.88939,49.02752],[2.94707,49.01491],[2.97214,48.99472],[3.02106,48.98701],[3.04046,49.01671],[3.19564,49.04913],[3.22036,49.12557],[3.26156,49.13726],[3.37554,49.20549],[3.42498,49.27453],[3.29451,49.30767],[3.27254,49.38461],[3.35906,49.40517],[3.45107,49.44537],[3.58771,49.54616],[3.63784,49.57244],[3.80675,49.60226],[3.88091,49.64941],[3.93256,49.63269],[4.05722,49.70028],[4.04845,49.70095],[4.03334,49.71605],[4.06768,49.74357],[4.07042,49.78703],[4.06081,49.85083],[4.12124,49.86854],[4.12474,49.86854],[4.15484,49.98001],[3.98716,49.98001],[3.98409,50.04647],[3.81633,50.04647],[3.81317,50.11296],[2.55443,50.11296],[2.26163,50.24205],[2.20688,50.2415],[2.20361,50.26763],[1.95082,50.37908],[1.81962,50.32582],[1.89926,50.30162],[1.94904,50.33418],[1.98029,50.32179],[1.97479,50.29066],[2.08534,50.25511],[2.05994,50.22261],[2.0105,50.22832],[1.98646,50.21119],[1.93222,50.20372],[1.93359,50.18349],[1.95076,50.17426],[1.99402,50.17954],[1.98715,50.13863],[2.0153,50.14479],[2.0311,50.16063],[2.06543,50.15579],[2.08534,50.12674],[2.15332,50.14391],[2.18971,50.06331],[2.21992,50.03377],[2.16705,49.99008],[2.16431,49.96006],[2.18285,49.92073],[2.1801,49.88269],[2.14439,49.88358],[2.12036,49.91321],[2.1183,49.96315],[2.14302,49.99935],[2.14233,50.05097],[2.12929,50.06684],[2.10251,50.06816],[2.08809,50.05097],[2.0826,50.01921],[2.02492,49.98964],[2.03384,49.92647],[2.01393,49.92382],[1.98509,49.94283],[1.95007,49.94636],[1.92192,49.92736],[1.87317,49.91807],[1.856,49.9278],[1.85532,49.96094],[1.91437,49.97375],[1.92604,49.99141],[1.92535,50.03862],[1.93703,50.05714],[1.88415,50.06155],[1.8718,49.99582],[1.8457,49.99229],[1.80382,50.07213],[1.77223,50.09944],[1.71936,50.10473]]]]}},{"type":"Feature","properties":{"NAME":"Royal Domain of France","START_DATE":"1188","END_DATE":"1205","CLIOPATRIA_NAME":"Kingdom of France","CLIOPATRIA_SESHAT_ID":"fr_capetian_k_2","CLIOPATRIA_AREA_KM2":37024,"WIKIDATA":"Q207162","WIKIPEDIA":"Kingdom of France","SNAPSHOT_YEAR":1200},"geometry":{"type":"MultiPolygon","coordinates":[[[[1.3888,48.65424],[1.56706,48.45594],[1.73301,48.45594],[1.68547,47.86186],[1.76812,47.86186],[1.89226,47.13737],[2.7116,47.20317],[2.61899,47.40062],[2.36821,47.46647],[2.41332,47.75821],[2.39777,47.7662],[2.41575,47.77392],[2.42935,47.86186],[2.76339,47.79593],[3.12477,47.94303],[3.05968,47.99131],[3.06517,48.04275],[3.49913,48.07946],[3.58703,48.12348],[3.57604,48.22788],[3.52385,48.28092],[3.41948,48.29005],[3.30687,48.29371],[3.22997,48.25532],[3.10363,48.3065],[3.03222,48.29188],[2.98552,48.24983],[2.92785,48.25532],[2.87291,48.2736],[2.87017,48.31746],[2.94707,48.34302],[3.09264,48.35397],[3.13521,48.37405],[3.10637,48.41599],[3.0638,48.44151],[3.05693,48.48158],[3.066,48.52063],[3.05722,48.52202],[3.0257,48.54612],[2.96767,48.5698],[2.86742,48.57071],[2.87017,48.60069],[2.83172,48.68598],[2.79876,48.7331],[2.68615,48.73854],[2.61199,48.76208],[2.60924,48.78561],[2.72735,48.81637],[2.69439,48.87782],[2.63396,48.92476],[2.6834,48.97527],[2.75206,49.02932],[2.84545,49.0023],[2.86239,49.01202],[2.61345,49.05127],[2.43944,49.18375],[1.77241,49.18375],[1.3888,48.65424]]],[[[1.4334,50.57886],[1.43774,50.51225],[1.44206,50.44566],[1.44637,50.37908],[1.47694,50.37908],[1.47706,50.37993],[1.48536,50.37908],[1.60737,50.37908],[1.60744,50.38751],[1.64177,50.39407],[1.64314,50.43411],[1.68022,50.43652],[1.72554,50.41114],[1.72554,50.39276],[1.79901,50.38663],[1.81618,50.36561],[1.79558,50.35116],[1.81412,50.32749],[1.81962,50.32582],[1.95082,50.37908],[2.20361,50.26763],[2.20276,50.27442],[2.17598,50.28978],[2.18628,50.3196],[2.17598,50.3402],[2.17735,50.36737],[2.19315,50.39145],[2.1904,50.40458],[2.17255,50.40852],[2.10663,50.39101],[2.0826,50.39801],[2.06062,50.38926],[1.9693,50.40261],[1.96793,50.42033],[1.99127,50.43083],[1.98852,50.45576],[2.02148,50.49508],[2.02629,50.51605],[2.10457,50.48941],[2.15744,50.49246],[2.18147,50.47411],[2.23846,50.4846],[2.33528,50.47586],[2.35313,50.44264],[2.3909,50.40502],[2.39365,50.36518],[2.41974,50.33889],[2.46849,50.30908],[2.46574,50.26389],[2.47673,50.22173],[2.43759,50.23183],[2.39502,50.22525],[2.33734,50.24281],[2.26163,50.24205],[2.55443,50.11296],[3.72925,50.11296],[3.72605,50.17946],[3.64209,50.17946],[3.54161,50.51225],[3.3733,50.51225],[3.29602,50.37908],[3.12435,50.44566],[3.04024,50.44566],[2.77683,50.64549],[2.27142,50.64549],[2.26351,50.77881],[2.09488,50.77881],[2.07454,51.11243],[1.99002,51.11243],[1.57606,50.97892],[1.58038,50.9122],[1.84609,50.71214],[1.68599,50.57886],[1.4334,50.57886]]],[[[2.97214,48.99472],[3.00403,48.96904],[3.01225,48.97352],[3.02106,48.98701],[2.97214,48.99472]]],[[[3.59801,47.89195],[3.59952,47.89182],[3.62585,47.87395],[3.68513,47.88285],[3.68616,47.88226],[3.6859,47.88459],[3.59801,47.89195]]],[[[3.91776,45.95538],[3.93147,45.62776],[4.01298,45.62776],[3.9789,45.50151],[3.98637,45.49852],[3.97074,45.47129],[3.94229,45.36588],[4.26781,45.36588],[4.35675,45.16959],[4.6795,45.235],[4.50452,45.56227],[4.82807,45.62776],[5.07259,45.62776],[5.29506,46.28329],[4.96771,46.28329],[4.89544,46.02094],[4.73447,45.95538],[4.33151,46.21793],[4.26907,46.21827],[4.24732,46.24124],[4.16034,46.23649],[4.08594,46.2505],[4.05514,46.24854],[4.01669,46.2329],[4.0784,46.02094],[3.91776,45.95538]]]]}}],"metadata":{"generatedBy":"scripts/build-fief-flat.ts","input":"data/cliopatria_fiefs_1200.geojson","year":1200,"cutPolicy":"keep-smaller","containmentCoverageThreshold":0.9,"minOverlapAreaM2":1000,"sliverAreaLimitM2":1000000000,"resolutions":[],"externalInputs":["data/france_fiefs_flat_1200.geojson","data/italy_fiefs_flat_1200.geojson","data/hre_fiefs_flat_1200.geojson"],"externalRemovals":[{"cutName":"County of Blôis","externalName":"County of Perche","overlapKm2":1132.64},{"cutName":"County of Blôis","externalName":"County of Tours","overlapKm2":37.42},{"cutName":"County of Blôis","externalName":"County of Vendôme","overlapKm2":12.83},{"cutName":"County of Nevers","externalName":"County of Champagne","overlapKm2":349.16},{"cutName":"County of Nevers","externalName":"Duchy of Aquitaine","overlapKm2":690.96},{"cutName":"County of Nevers","externalName":"Duchy of Burgundy","overlapKm2":8612.15},{"cutName":"County of Toulouse","externalName":"Duchy of Aquitaine","overlapKm2":215.39},{"cutName":"County of Toulouse","externalName":"Duchy of Gascony","overlapKm2":598.56},{"cutName":"County of Vermandois","externalName":"Counts of Saint-Pol","overlapKm2":5.66},{"cutName":"County of Vermandois","externalName":"County of Champagne","overlapKm2":2271.38},{"cutName":"County of Vermandois","externalName":"County of Ponthieu","overlapKm2":1516.3},{"cutName":"County of Vermandois","externalName":"Duchy of Normandy","overlapKm2":0.08},{"cutName":"Royal Domain of France","externalName":"Counts of Saint-Pol","overlapKm2":578.13},{"cutName":"Royal Domain of France","externalName":"County of Champagne","overlapKm2":2728.41},{"cutName":"Royal Domain of France","externalName":"County of Ponthieu","overlapKm2":186.11},{"cutName":"Royal Domain of France","externalName":"Duchy of Aquitaine","overlapKm2":1.08},{"cutName":"Royal Domain of France","externalName":"Duchy of Burgundy","overlapKm2":342.91}],"source":"Cliopatria (Seshat Global History Databank)","sourceUrl":"https://github.com/Seshat-Global-History-Databank/cliopatria","license":"CC BY 4.0","commit":"ad28a691b7c07c1fca89d0e0636d324667d2a258","borderPrecision":"史料地図のデジタイズ（概略。手描き地図の自動抽出を 0.07 度で平滑化）"}}