{"type":"FeatureCollection","features":[{"type":"Feature","properties":{"NAME":"Duchy of Bavaria","SUBJECTO":"Holy Roman Empire","PARTOF":"Holy Roman Empire","START_DATE":"1459","END_DATE":"1506","CLIOPATRIA_NAME":"Duchy of Bavaria","CLIOPATRIA_SESHAT_ID":"","CLIOPATRIA_AREA_KM2":36100,"WIKIDATA":"Q47261","WIKIPEDIA":"Duchy of Bavaria","SNAPSHOT_YEAR":1492},"geometry":{"type":"MultiPolygon","coordinates":[[[[10.02738,49.0772],[10.02781,48.98506],[10.27802,48.85268],[10.27844,48.72037],[10.44497,48.58812],[10.52859,48.25777],[10.52871,48.19175],[10.48208,47.96624],[10.48714,47.96763],[10.47752,47.9428],[10.49126,47.93176],[10.47169,47.91266],[10.49057,47.90783],[10.48267,47.88527],[10.50087,47.90392],[10.53692,47.89333],[10.57331,47.86777],[10.5637,47.84911],[10.61279,47.83574],[10.60009,47.76979],[10.5742,47.76207],[10.69478,47.73],[10.61239,47.59821],[10.69491,47.59821],[11.11599,47.55017],[11.13602,47.55243],[11.31866,47.55151],[11.41222,47.49586],[11.38493,47.47406],[11.39431,47.46647],[11.43703,47.46647],[11.43655,47.33479],[11.60099,47.26897],[11.74537,47.26897],[11.74473,47.28284],[11.78679,47.3522],[11.88941,47.37928],[11.91048,47.36771],[12.01463,47.53233],[12.26206,47.53233],[12.28778,47.46929],[12.34177,47.45781],[12.36151,47.41159],[12.34194,47.37882],[12.33954,47.34246],[12.34267,47.33479],[12.50811,47.40062],[12.5109,47.6641],[12.59849,47.6641],[12.60578,47.67394],[12.78431,47.67198],[12.76451,47.65438],[12.78313,47.62404],[12.77985,47.6337],[12.82173,47.65706],[12.85057,47.64642],[12.83684,47.66631],[12.89791,47.69157],[12.95185,47.70595],[12.90948,47.69466],[12.90439,47.72732],[12.9248,47.75075],[12.92503,47.76807],[12.89014,47.74515],[12.84842,47.75496],[12.83074,47.77908],[12.76637,47.78813],[12.68466,47.90098],[12.70989,47.92491],[12.64621,47.96924],[12.54441,47.99636],[12.54544,48.01404],[12.57591,48.02966],[12.58947,48.065],[12.66629,48.07527],[12.71419,48.11121],[12.74871,48.1067],[12.7637,48.07848],[12.76513,48.19175],[12.92898,48.05975],[13.17725,48.05975],[13.71542,48.37801],[13.68553,48.40687],[13.70167,48.41986],[13.68553,48.44697],[13.69849,48.47563],[13.72709,48.50901],[13.8303,48.44595],[13.84719,48.45594],[13.77825,48.56932],[13.7549,48.5643],[13.74355,48.52822],[13.69553,48.47218],[13.63678,48.52843],[13.6385,48.54389],[13.65734,48.54429],[13.64875,48.55066],[13.59129,48.56857],[13.57262,48.56051],[13.51689,48.58812],[13.50788,48.58812],[13.47542,48.55616],[13.44996,48.56393],[13.43645,48.55264],[13.45722,48.51149],[13.44745,48.49436],[13.38667,48.47349],[13.36178,48.48817],[13.36246,48.5307],[13.38959,48.54161],[13.40075,48.56741],[13.44967,48.57576],[13.37975,48.58812],[13.26854,48.58812],[13.24697,48.66055],[13.23441,48.67147],[13.24228,48.67633],[13.18977,48.85268],[13.35615,48.85268],[13.35848,48.98506],[13.02955,49.25001],[12.86078,49.1175],[12.61076,49.1175],[12.52422,48.85268],[12.35784,48.85268],[12.27397,48.78652],[12.27532,48.91887],[12.10948,48.98506],[11.69272,48.91887],[11.52733,49.1175],[11.44637,49.13898],[11.48483,49.10782],[11.53427,49.09478],[11.53461,49.04304],[11.5947,49.01671],[11.51745,48.97165],[11.51745,48.95407],[11.4838,48.95926],[11.50097,48.93242],[11.49239,48.92069],[11.38733,48.89858],[11.40518,48.84936],[11.33102,48.81184],[11.32484,48.78696],[11.34819,48.77746],[11.32553,48.76026],[11.23249,48.77452],[11.12709,48.81365],[11.07765,48.79013],[11.03199,48.79533],[11.01414,48.82382],[11.14803,48.83015],[11.14065,48.84834],[10.99869,48.84088],[11.00847,48.86042],[10.99766,48.87014],[11.0368,48.89994],[11.07628,48.90467],[11.05499,48.9216],[11.08932,48.95362],[11.06804,48.97616],[11.06804,49.00184],[11.0907,49.02301],[10.98633,49.02819],[11.01311,49.05902],[10.93689,49.07477],[10.93037,49.05587],[10.95818,49.04034],[10.91745,49.02863],[11.02701,48.98506],[10.98818,48.92346],[11.03542,48.90986],[10.97671,48.85726],[10.94814,48.85995],[10.94356,48.85268],[10.71279,48.89857],[10.70892,48.8961],[10.67553,48.90598],[10.61073,48.91887],[10.53689,49.01648],[10.53434,49.01344],[10.41229,49.01986],[10.33779,49.0597],[10.36491,49.07522],[10.31342,49.09006],[10.2935,49.06622],[10.26157,49.08556],[10.24166,49.07656],[10.25454,49.10332],[10.22501,49.10377],[10.196,49.07983],[10.15686,49.07533],[10.16098,49.06588],[10.11103,49.07409],[10.09712,49.10197],[10.04974,49.07656],[10.02738,49.0772]],[[11.2706,48.34256],[11.30768,48.36446],[11.32004,48.34073],[11.28433,48.33069],[11.2706,48.34256]],[[11.33652,48.41097],[11.37359,48.421],[11.40278,48.40892],[11.39419,48.39274],[11.35986,48.38818],[11.33652,48.41097]],[[11.54251,48.43831],[11.56036,48.45471],[11.61255,48.43285],[11.56723,48.39456],[11.55212,48.39821],[11.56311,48.42191],[11.54251,48.43831]],[[11.60687,48.15764],[11.68044,48.24688],[11.70016,48.32083],[11.73556,48.37044],[11.73487,48.39865],[11.71108,48.42297],[11.74335,48.43271],[11.7861,48.41312],[11.75344,48.40447],[11.82114,48.40609],[11.75018,48.24125],[11.71198,48.20324],[11.66831,48.19577],[11.65182,48.15178],[11.60687,48.15764]],[[12.02453,48.19722],[12.09114,48.22147],[12.09354,48.18509],[12.02866,48.17791],[12.02453,48.19722]],[[12.46536,48.23874],[12.5342,48.27565],[12.5778,48.24057],[12.53574,48.22147],[12.48648,48.22193],[12.46536,48.23874]],[[13.28796,48.33845],[13.35714,48.36885],[13.37628,48.35732],[13.31989,48.31859],[13.28796,48.33845]]],[[[10.19242,49.12627],[10.22162,49.11766],[10.2554,49.13049],[10.21845,49.16102],[10.19242,49.12627]]],[[[10.36594,49.11029],[10.38963,49.09298],[10.42705,49.10152],[10.36594,49.11029]]],[[[10.41882,49.02414],[10.45898,49.02391],[10.45452,49.04349],[10.41882,49.03899],[10.41882,49.02414]]],[[[10.46997,49.05497],[10.49091,49.04057],[10.50739,49.05092],[10.46997,49.05497]]],[[[11.06774,49.1171],[11.07319,49.09905],[11.09894,49.07904],[11.20708,49.08444],[11.18889,49.10782],[11.22219,49.1496],[11.30356,49.06757],[11.28845,49.09658],[11.32278,49.14331],[11.4135,49.14769],[11.27756,49.18375],[11.06774,49.1171]]],[[[11.0907,49.02301],[11.18889,49.02932],[11.20641,49.03447],[11.1906,49.05115],[11.17001,49.0489],[11.16784,49.03099],[11.0907,49.02301]]],[[[11.80241,47.27923],[11.80432,47.26897],[11.81968,47.26897],[11.83708,47.29227],[11.86636,47.29797],[11.88508,47.32756],[11.83674,47.32277],[11.80241,47.27923]]]]}},{"type":"Feature","properties":{"NAME":"Electorate of Brandenburg","SUBJECTO":"Holy Roman Empire","PARTOF":"Holy Roman Empire","START_DATE":"1492","END_DATE":"1528","CLIOPATRIA_NAME":"Electorate of Brandenburg","CLIOPATRIA_SESHAT_ID":"de_hohenzollern_1","CLIOPATRIA_AREA_KM2":42293,"WIKIDATA":"Q148499","WIKIPEDIA":"Margraviate of Brandenburg","SNAPSHOT_YEAR":1492},"geometry":{"type":"MultiPolygon","coordinates":[[[[11.04376,52.85537],[11.12705,52.51908],[11.89675,52.5863],[12.01347,52.64099],[12.01046,52.66087],[12.0393,52.7259],[12.02273,52.81226],[12.06599,52.81838],[12.10912,52.78278],[12.14127,52.78325],[12.16598,52.8038],[12.21319,52.79456],[12.22366,52.77587],[12.20581,52.76092],[12.2222,52.73998],[12.21918,52.73737],[12.31066,52.78023],[12.28207,52.7962],[12.32563,52.79695],[12.35069,52.84218],[12.33009,52.85504],[12.36374,52.84736],[12.41421,52.90248],[12.45644,52.92174],[12.48322,52.91718],[12.51781,52.96332],[12.61668,52.97705],[12.65252,53.00291],[12.61046,53.01272],[12.62724,53.07031],[12.49849,53.13678],[12.51102,53.14564],[12.54536,53.1547],[12.73916,53.11855],[12.82036,53.15007],[12.91168,53.15439],[12.94271,53.19572],[12.96842,53.1986],[12.94202,53.17461],[12.98005,53.16262],[13.0188,53.18541],[13.06124,53.15727],[13.08718,53.16426],[13.13201,53.1341],[13.11386,53.12682],[13.10617,53.09923],[13.15089,53.09668],[13.23449,53.05615],[13.2792,53.06225],[13.23561,53.05345],[13.21981,53.02852],[13.2375,53.01411],[13.16875,52.97661],[13.18359,52.95572],[13.24125,52.95342],[13.24471,52.93721],[13.19115,52.91263],[13.15407,52.9207],[13.12737,52.9074],[13.1545,52.86581],[13.09673,52.86405],[13.09442,52.84109],[12.97133,52.82885],[12.98571,52.8287],[12.92829,52.79057],[12.85555,52.78501],[12.7907,52.82745],[12.72569,52.82307],[12.54742,52.77224],[12.53918,52.7525],[12.40219,52.75437],[12.39601,52.77099],[12.33318,52.76764],[12.32712,52.77103],[12.32525,52.6564],[12.33357,52.65184],[12.33177,52.64829],[12.57808,52.45189],[12.4399,52.3446],[12.46579,52.32752],[12.45769,52.31778],[12.40499,52.31127],[12.40308,52.19488],[12.43515,52.19561],[12.44268,52.1781],[12.98986,52.10608],[12.98241,52.12927],[12.95151,52.14276],[12.98447,52.14697],[13.09759,52.2176],[13.10686,52.24515],[13.17003,52.26784],[13.21793,52.23495],[13.19218,52.19077],[13.19424,52.15498],[13.22239,52.11958],[13.27382,52.08514],[13.32719,52.07745],[13.32721,52.06168],[13.42213,52.04919],[13.42535,52.18334],[13.94037,52.31758],[14.36051,52.11626],[14.37238,52.11626],[14.36703,52.12021],[14.38256,52.12337],[14.39845,52.11626],[14.616,52.11626],[14.71272,51.99723],[14.71516,51.99725],[14.71401,51.99565],[14.77944,51.91513],[14.86914,52.04919],[14.88344,52.04919],[14.8809,52.05531],[14.79626,52.0858],[14.8062,52.09065],[14.79468,52.10786],[14.81594,52.11551],[14.81077,52.13818],[14.83498,52.14929],[14.82738,52.18398],[14.90757,52.20945],[15.12298,52.23093],[15.13196,52.25045],[15.16425,52.24405],[15.23718,52.29305],[15.26825,52.29541],[15.3178,52.28063],[15.27889,52.23379],[15.2921,52.21868],[15.47028,52.18334],[15.64623,52.31758],[15.48927,52.65353],[15.57478,52.65353],[16.09714,52.85537],[16.02382,53.12479],[16.10966,53.12479],[16.11918,53.32709],[16.29441,53.39457],[16.30103,53.52959],[16.42021,53.57542],[16.35212,53.63589],[16.28277,53.65288],[16.24758,53.68054],[16.26492,53.72038],[16.24535,53.75069],[16.18526,53.76416],[16.10596,53.70346],[16.0462,53.68221],[16.04909,53.66471],[15.96442,53.6871],[15.96365,53.68532],[15.90837,53.67414],[15.88707,53.70756],[15.79355,53.7323],[15.7252,53.68056],[15.78263,53.66076],[15.80006,53.63955],[15.78083,53.63726],[15.77259,53.61222],[15.82203,53.6031],[15.75989,53.56336],[15.74987,53.54479],[15.78133,53.46207],[15.51612,53.51452],[15.51681,53.51316],[15.42629,53.50949],[15.42474,53.5072],[15.42918,53.49616],[15.41543,53.49348],[15.38253,53.445],[15.38464,53.4441],[15.37638,53.43593],[15.36697,53.42207],[15.38343,53.41424],[15.46068,53.41864],[15.4775,53.40482],[15.59411,53.39743],[15.57295,53.36418],[15.50926,53.35465],[15.55252,53.3157],[15.54634,53.27014],[15.47253,53.23358],[15.3815,53.25001],[15.36159,53.24118],[15.35198,53.20896],[15.37957,53.19904],[15.34842,53.11268],[15.40086,53.08923],[15.38944,53.06288],[15.42137,53.05195],[15.45845,53.00962],[15.41226,52.98041],[15.39471,53.00147],[15.35866,52.98917],[15.37549,52.97739],[15.28159,52.96467],[15.22769,53.02883],[15.20228,53.03627],[15.21155,53.06774],[15.19899,53.08495],[15.13117,53.03031],[15.08213,53.04005],[15.07247,53.05819],[15.02535,53.05267],[15.01814,53.07835],[15.05071,53.10281],[15.0408,53.11263],[15.00762,53.11255],[14.96879,53.08676],[14.88544,53.1218],[14.84974,53.10268],[14.84974,53.06298],[14.80957,53.03306],[14.81609,53.01809],[14.73245,53.03672],[14.65134,52.98395],[14.52088,52.96343],[14.42707,53.00056],[14.42848,53.02222],[14.37149,53.03946],[14.33956,53.07526],[14.35415,53.07897],[14.3708,53.13647],[14.32484,53.15537],[14.30055,53.18523],[14.26373,53.12087],[14.12121,53.16427],[14.10679,53.18505],[14.09306,53.22207],[14.10747,53.28102],[14.22729,53.36387],[14.24412,53.39418],[14.22879,53.43572],[14.25677,53.44223],[14.24112,53.45481],[14.24077,53.45474],[14.24091,53.45498],[14.21114,53.47892],[14.17142,53.47599],[14.1661,53.51393],[14.1049,53.52031],[14.04516,53.49775],[14.0237,53.46649],[13.96903,53.48181],[13.96045,53.49571],[13.97435,53.49913],[13.89427,53.51357],[13.89316,53.49862],[13.87972,53.504],[13.89755,53.53275],[13.8829,53.54194],[13.90238,53.56896],[13.86835,53.58137],[13.786,53.56287],[13.81694,53.59217],[13.7763,53.59836],[13.76123,53.62168],[13.86131,53.67038],[13.70351,53.69478],[13.5492,53.66471],[13.19619,53.32709],[12.16561,53.39457],[11.91039,53.59714],[11.73808,53.59714],[11.5635,53.39457],[11.30606,53.46207],[11.1329,53.32709],[11.21776,53.1922],[11.38952,53.1922],[11.38824,53.0574],[11.21667,53.0574],[11.04376,52.85537]],[[13.03987,53.19434],[13.07206,53.20047],[13.05566,53.17914],[13.03987,53.19434]]],[[[13.93284,52.04919],[14.26401,51.91722],[14.26794,51.91848],[14.19019,52.11626],[13.93471,52.11626],[13.93284,52.04919]]],[[[14.74082,53.11051],[14.74812,53.0684],[14.79013,53.07918],[14.77052,53.11649],[14.74082,53.11051]]],[[[15.18918,53.11559],[15.23031,53.13297],[15.21713,53.14727],[15.18997,53.14203],[15.18918,53.11559]]],[[[16.15977,53.98905],[16.17505,53.9734],[16.2826,53.95755],[16.1699,53.98138],[16.15977,53.98905]]]]}},{"type":"Feature","properties":{"NAME":"Electorate of Saxony","SUBJECTO":"Holy Roman Empire","PARTOF":"Holy Roman Empire","START_DATE":"1492","END_DATE":"1501","CLIOPATRIA_NAME":"Electorate of Saxony","CLIOPATRIA_SESHAT_ID":"","CLIOPATRIA_AREA_KM2":34252,"WIKIDATA":"Q156199","WIKIPEDIA":"Electorate of Saxony","SNAPSHOT_YEAR":1492},"geometry":{"type":"MultiPolygon","coordinates":[[[[9.93586,50.9122],[10.09358,50.88727],[10.13729,50.9072],[10.14261,50.89416],[10.16991,50.90244],[10.17909,50.88268],[10.21085,50.89416],[10.21437,50.87975],[10.19643,50.87101],[10.35789,50.84549],[10.35795,50.76522],[10.36998,50.76828],[10.37822,50.77951],[10.36242,50.79384],[10.40562,50.8221],[10.4159,50.84942],[10.46774,50.8505],[10.51829,50.8209],[10.47452,50.79026],[10.53254,50.79639],[10.55872,50.78445],[10.57511,50.74145],[10.6274,50.72519],[10.77968,50.84549],[10.61124,51.04567],[10.35777,51.11243],[10.52695,51.24602],[10.86514,51.17921],[10.69601,51.17921],[10.69586,51.11243],[10.86491,51.11243],[10.93101,51.095],[10.94976,51.10083],[10.95097,51.12486],[10.96993,51.12378],[10.98092,51.09749],[10.97209,51.08417],[11.0303,51.06883],[11.0435,51.07959],[11.08538,51.06459],[11.12761,51.08207],[11.13276,51.0579],[11.17653,51.07031],[11.20623,51.036],[11.19524,51.02131],[11.23661,51.00717],[11.2258,50.99658],[11.24073,50.98469],[11.26648,50.98545],[11.26682,50.97075],[11.22116,50.94999],[11.25343,50.88874],[11.24622,50.87515],[11.22221,50.87964],[11.28542,50.77881],[11.03219,50.71214],[10.87231,50.52316],[10.87132,50.51751],[10.86564,50.51527],[10.86308,50.51225],[10.85796,50.51225],[10.82209,50.49813],[10.81907,50.46194],[10.77413,50.45162],[10.71908,50.47149],[10.6768,50.4596],[10.59837,50.40239],[10.67253,50.37547],[10.64644,50.34984],[10.59321,50.33555],[10.60095,50.33396],[10.59151,50.26981],[10.60369,50.2719],[10.61245,50.22404],[10.65966,50.23107],[10.72351,50.20459],[10.73296,50.25105],[10.76866,50.24128],[10.80128,50.2516],[10.83715,50.22096],[10.82703,50.23776],[10.85179,50.25142],[10.93067,50.23308],[10.92146,50.21076],[10.7872,50.17734],[10.86787,50.19742],[10.92071,50.15551],[10.99268,50.17657],[11.00723,50.20001],[10.98822,50.21278],[11.03336,50.21871],[11.11422,50.20041],[11.1144,50.24598],[11.2213,50.24598],[11.18931,50.27072],[11.19816,50.29164],[11.26219,50.27486],[11.25189,50.29329],[11.25966,50.31917],[11.1997,50.51225],[11.28424,50.57886],[11.53632,50.51225],[11.7064,50.71214],[11.95923,50.71214],[12.04505,50.84549],[12.21291,50.77881],[12.21122,50.64549],[11.9578,50.57886],[11.95599,50.40465],[11.98377,50.38938],[11.97972,50.34925],[12.09918,50.32979],[12.09069,50.32416],[12.12616,50.30616],[12.13585,50.2744],[12.09761,50.25581],[12.12234,50.24598],[12.29033,50.24598],[12.37608,50.37908],[12.79645,50.37908],[13.05234,50.57886],[14.154,50.84549],[14.32651,50.97892],[14.33422,51.24602],[14.1613,51.11243],[13.99402,51.17921],[14.07859,51.17921],[14.08224,51.31284],[13.9147,51.37968],[14.08323,51.57293],[14.06868,51.61247],[14.09889,51.62862],[14.10747,51.66383],[14.13949,51.63603],[14.16421,51.63864],[14.1649,51.6601],[14.16404,51.70951],[14.13897,51.73984],[14.11125,51.7396],[14.10095,51.7544],[14.12198,51.7902],[14.11606,51.81435],[14.07263,51.82681],[14.07705,51.84813],[13.90916,51.84813],[13.91109,51.83991],[13.88981,51.83896],[13.88691,51.84813],[13.83648,51.84813],[13.84003,51.83588],[13.80707,51.8397],[13.80256,51.84813],[13.75732,51.84813],[13.59068,51.98215],[13.50561,51.98215],[13.50725,52.04919],[13.42213,52.04919],[13.32721,52.06168],[13.32721,52.05798],[13.36092,52.0416],[13.35603,51.9982],[13.31543,51.98932],[13.31998,51.97336],[13.36253,51.95812],[13.37302,51.97346],[13.43465,51.97547],[13.45134,51.96653],[13.45439,51.92712],[13.48203,51.93268],[13.50773,51.91513],[13.58901,51.91513],[13.56457,51.89624],[13.57537,51.88884],[13.53989,51.87716],[13.50809,51.85257],[13.5096,51.84525],[13.67063,51.78114],[13.66726,51.64724],[13.5824,51.64724],[13.24443,51.71418],[13.24739,51.84813],[13.31597,51.84813],[13.3362,51.9096],[13.37268,51.91452],[13.37804,51.92987],[13.35259,51.94675],[13.25483,51.93977],[13.26908,51.90102],[13.2223,51.87776],[13.16239,51.88349],[13.15853,51.86067],[13.13201,51.88237],[13.08482,51.8737],[13.08291,51.90637],[13.03171,51.90145],[13.03905,51.91791],[13.05785,51.91516],[13.05725,51.93643],[12.99399,51.94792],[12.96953,51.97536],[12.91846,51.96109],[12.90733,51.9823],[12.93162,51.99338],[12.87889,52.01368],[12.90413,52.0357],[12.97623,52.02483],[12.90859,52.06389],[12.9388,52.10651],[12.99305,52.09617],[12.98986,52.10608],[12.44268,52.1781],[12.44296,52.17746],[12.42049,52.15219],[12.3579,52.13702],[12.29525,52.15466],[12.25722,52.13436],[12.27662,52.10384],[12.26624,52.09997],[12.21182,52.1025],[12.178,52.07676],[12.16304,52.07531],[12.2285,51.91513],[12.39751,51.84813],[12.3954,51.71418],[12.3105,51.71418],[12.30851,51.58032],[12.12726,51.58032],[12.16483,51.5764],[12.16015,51.55109],[12.07801,51.53406],[12.12762,51.51729],[12.07106,51.51238],[12.05441,51.494],[12.08771,51.48534],[12.03896,51.48812],[12.07664,51.45369],[12.15088,51.45893],[12.17023,51.42316],[12.16521,51.40653],[12.11678,51.41821],[12.09026,51.42324],[12.08316,51.39131],[12.06361,51.38796],[12.04629,51.39245],[12.05152,51.37968],[11.88139,51.31284],[11.3735,51.31284],[11.54456,51.51342],[11.46035,51.58032],[11.37658,51.71418],[10.86689,51.64724],[10.86681,51.62773],[10.89312,51.60602],[10.86661,51.57556],[10.86652,51.55326],[10.87028,51.53507],[10.90093,51.53123],[10.90805,51.50912],[10.95929,51.49186],[10.98159,51.4693],[11.20546,51.51342],[11.2903,51.51342],[11.11993,51.37968],[11.28885,51.31284],[11.11956,51.31284],[10.71595,51.36597],[10.71742,51.36519],[10.70068,51.33233],[10.63305,51.36171],[10.62817,51.37752],[10.61738,51.37894],[10.58507,51.36739],[10.58571,51.36938],[10.10406,51.17921],[10.0195,51.17921],[9.93586,50.9122]],[[11.06143,51.15033],[11.08038,51.14932],[11.11617,51.18427],[11.15968,51.15891],[11.17413,51.12766],[11.17481,51.10568],[11.13842,51.09199],[11.09327,51.1122],[11.09714,51.12754],[11.064,51.12907],[11.06143,51.15033]],[[11.22597,51.07053],[11.26596,51.07301],[11.26262,51.05192],[11.31214,51.05353],[11.27438,51.02553],[11.22854,51.04938],[11.22597,51.07053]],[[11.25481,51.10266],[11.25642,51.1308],[11.28678,51.12743],[11.28227,51.1018],[11.25481,51.10266]],[[11.28931,50.86713],[11.35283,50.89491],[11.34441,50.92652],[11.38098,50.92533],[11.39471,50.90238],[11.41806,50.89778],[11.37875,50.86469],[11.40947,50.85733],[11.40501,50.8331],[11.36373,50.83158],[11.35529,50.81494],[11.30733,50.80449],[11.28931,50.86713]],[[11.87918,51.11243],[12.05069,51.31284],[12.21998,51.31284],[12.21638,51.04567],[11.96294,51.04567],[11.96371,51.11243],[11.87918,51.11243]],[[12.55018,50.77881],[12.55223,50.9122],[12.72215,50.97892],[12.80659,50.97892],[12.71772,50.71214],[12.77372,50.70103],[12.6324,50.64549],[12.63449,50.77881],[12.55018,50.77881]],[[12.64435,51.37968],[12.64549,51.44654],[12.89968,51.44654],[12.89842,51.37968],[12.89717,51.31284],[12.72787,51.31284],[12.72904,51.37968],[12.64435,51.37968]],[[12.8851,50.64549],[12.88569,50.67881],[13.05357,50.64549],[12.8851,50.64549]],[[13.89204,51.81382],[13.90474,51.82305],[13.91933,51.81923],[13.90097,51.80777],[13.89204,51.81382]],[[13.97221,51.83599],[14.00122,51.82909],[13.98577,51.82177],[13.97221,51.83599]],[[13.9977,51.73641],[14.00993,51.74114],[14.03418,51.72336],[14.01469,51.7173],[13.9977,51.73641]],[[14.03237,51.69879],[14.0758,51.72065],[14.10696,51.71336],[14.10507,51.69948],[14.04679,51.67884],[14.03237,51.69879]]],[[[10.4361,50.1718],[10.46789,50.17685],[10.45008,50.19629],[10.4361,50.1718]]],[[[10.57244,50.09471],[10.63353,50.07051],[10.59454,50.09676],[10.57244,50.09471]]],[[[10.65706,50.06119],[10.68035,50.05196],[10.68392,50.05386],[10.68341,50.07049],[10.66281,50.07377],[10.65706,50.06119]]],[[[10.77141,50.2035],[10.82668,50.21426],[10.83715,50.22096],[10.77141,50.2035]]],[[[10.86611,51.44654],[10.96842,51.4667],[10.86625,51.48274],[10.86611,51.44654]]],[[[11.12441,51.03566],[11.13864,51.01295],[11.15078,51.00447],[11.1882,51.02207],[11.15507,51.0374],[11.12441,51.03566]]],[[[12.03693,51.41527],[12.04501,51.39555],[12.04991,51.42247],[12.03693,51.41527]]],[[[14.15958,51.58032],[14.23099,51.58032],[14.22682,51.58071],[14.23455,51.60997],[14.26015,51.60882],[14.2618,51.66478],[14.22309,51.68065],[14.18112,51.66808],[14.18421,51.64721],[14.2397,51.63952],[14.18794,51.59],[14.15958,51.58032]]],[[[14.17605,51.75334],[14.20824,51.7527],[14.18114,51.76756],[14.17605,51.75334]]],[[[14.1921,51.71552],[14.19236,51.68363],[14.22034,51.69108],[14.21536,51.71012],[14.1921,51.71552]]]]}},{"type":"Feature","properties":{"NAME":"Kingdom of Bohemia","SUBJECTO":"Holy Roman Empire","PARTOF":"Holy Roman Empire","START_DATE":"1492","END_DATE":"1501","CLIOPATRIA_NAME":"Kingdom of Bohemia","CLIOPATRIA_SESHAT_ID":"cz_bohemian_k_2","CLIOPATRIA_AREA_KM2":128617,"WIKIDATA":"Q42585","WIKIPEDIA":"Kingdom of Bohemia","SNAPSHOT_YEAR":1492},"geometry":{"type":"MultiPolygon","coordinates":[[[[12.12222,50.23549],[12.18797,50.20035],[12.21597,50.1682],[12.19516,50.14317],[12.1986,50.11786],[12.21993,50.1008],[12.27307,50.07442],[12.26544,50.06439],[12.37092,49.98001],[12.36765,49.71431],[12.53414,49.64793],[12.53241,49.51522],[13.02955,49.25001],[13.35848,48.98506],[13.52501,48.98506],[13.5247,48.96847],[13.58687,48.96615],[13.66274,48.88898],[13.6779,48.88085],[13.73151,48.88674],[13.7646,48.83443],[13.76497,48.83415],[14.10047,48.65424],[14.59729,48.58812],[14.85001,48.72037],[14.94054,48.98506],[15.48818,48.93655],[15.47358,48.9474],[15.35001,48.98434],[15.30117,48.97974],[15.28555,49.0159],[15.21156,49.05927],[15.22707,49.08522],[15.26405,49.07754],[15.23447,49.0893],[15.2597,49.11916],[15.22623,49.15072],[15.23475,49.17582],[15.20898,49.18352],[15.27619,49.20331],[15.21041,49.21198],[15.18172,49.17305],[15.13729,49.18724],[15.19148,49.23645],[15.21982,49.22677],[15.23819,49.25415],[15.27932,49.24666],[15.26855,49.24935],[15.27762,49.27681],[15.33508,49.27089],[15.34601,49.3146],[15.38383,49.31949],[15.3581,49.33678],[15.413,49.31752],[15.46703,49.34546],[15.5134,49.41002],[15.58714,49.40966],[15.60921,49.43208],[15.63987,49.42848],[15.64795,49.4535],[15.69238,49.43127],[15.70031,49.44954],[15.77892,49.45],[15.79247,49.46961],[15.81294,49.46767],[15.88322,49.55883],[15.87847,49.58813],[15.94893,49.59233],[15.98448,49.6111],[15.98727,49.63179],[15.94658,49.6384],[15.91636,49.66299],[15.93102,49.67864],[15.97905,49.67079],[16.02067,49.70654],[16.05049,49.70847],[16.09581,49.67136],[16.13916,49.69133],[16.19541,49.67564],[16.22336,49.66536],[16.23026,49.63058],[16.34867,49.6117],[16.40564,49.57235],[16.42423,49.59476],[16.44302,49.58583],[16.46469,49.60542],[16.53157,49.60845],[16.51448,49.65506],[16.47744,49.66625],[16.47374,49.68591],[16.36655,49.71668],[16.41165,49.78914],[16.50373,49.78867],[16.53318,49.74074],[16.5742,49.74343],[16.56977,49.83517],[16.62628,49.8602],[16.65515,49.85212],[16.6526,49.896],[16.68281,49.90406],[16.69298,49.93016],[16.73378,49.95478],[16.69512,50.05252],[16.80548,50.05229],[16.81712,50.08767],[16.80148,50.13222],[16.84051,50.20105],[16.87508,50.19878],[16.8764,50.19837],[16.84729,50.20743],[16.70256,50.0964],[16.63208,50.11355],[16.5624,50.16305],[16.55789,50.21264],[16.53865,50.23696],[16.43705,50.32051],[16.38323,50.32881],[16.36215,50.34975],[16.35908,50.37977],[16.30513,50.38254],[16.27862,50.368],[16.23713,50.41406],[16.21535,50.4045],[16.19559,50.43643],[16.21092,50.45012],[16.23008,50.44269],[16.22335,50.45941],[16.25899,50.48014],[16.29789,50.48355],[16.29818,50.50316],[16.34648,50.49622],[16.39333,50.52531],[16.39158,50.54307],[16.41111,50.54876],[16.40659,50.56896],[16.44923,50.57315],[16.37986,50.63796],[16.40969,50.65396],[16.44246,50.64761],[16.48672,50.67952],[16.57959,50.62898],[16.63356,50.56992],[16.62592,50.56258],[16.68437,50.5148],[16.70319,50.4785],[16.73638,50.47749],[16.7705,50.42529],[16.8085,50.40064],[16.85946,50.40749],[16.90906,50.39039],[16.94487,50.31832],[17.01159,50.29167],[17.01809,50.27134],[17.0033,50.25312],[17.025,50.22776],[16.9968,50.21683],[16.99895,50.21766],[17.00078,50.21608],[17.03025,50.23023],[17.07354,50.18726],[17.11298,50.18067],[17.15382,50.12392],[17.22047,50.10194],[17.23941,50.05466],[17.31558,50.01284],[17.3219,49.98353],[17.38471,49.9375],[17.41075,49.94795],[17.39878,49.97175],[17.42906,49.96901],[17.4597,49.95979],[17.47471,49.92636],[17.49412,49.93158],[17.53949,49.90112],[17.55903,49.90837],[17.5996,49.87703],[17.69426,49.90739],[17.71041,49.89545],[17.73828,49.9121],[17.80439,49.91562],[17.85426,49.93238],[17.84674,49.95844],[17.87632,49.95618],[17.88227,49.93707],[17.84877,49.90845],[17.83699,49.87267],[17.65295,49.86573],[17.65525,49.81898],[17.64142,49.80464],[17.69901,49.72546],[17.75747,49.71217],[17.7625,49.69272],[17.74417,49.67676],[17.76624,49.647],[17.83588,49.60669],[17.86776,49.60654],[17.84123,49.6424],[17.92971,49.62066],[17.88044,49.65584],[17.8457,49.65568],[17.86987,49.70124],[17.84278,49.73146],[17.87088,49.78297],[17.89094,49.78101],[17.91676,49.71189],[17.97963,49.73581],[17.99084,49.68689],[18.0094,49.67832],[18.18483,49.75479],[18.19509,49.78209],[18.22196,49.79582],[18.21416,49.82521],[18.22743,49.85314],[18.27588,49.86699],[18.29983,49.83495],[18.2752,49.80123],[18.29861,49.77905],[18.30597,49.72831],[18.36503,49.65743],[18.3566,49.60973],[18.36948,49.56204],[18.4587,49.45941],[18.49383,49.46402],[18.5199,49.46929],[18.54095,49.4925],[18.54332,49.47053],[18.88354,49.51522],[19.23756,49.84713],[19.16577,50.04647],[19.14616,50.04647],[19.11718,50.00254],[19.11857,49.96039],[19.04608,49.95491],[18.96098,49.91958],[18.91053,49.93513],[18.82584,49.93849],[18.77686,49.92237],[18.71313,49.93133],[18.72036,49.89725],[18.66484,49.88072],[18.61788,49.90647],[18.6311,49.92139],[18.62062,49.9394],[18.66577,49.95685],[18.62217,49.96017],[18.59161,49.9988],[18.61333,50.01794],[18.65247,50.02031],[18.77357,50.00079],[18.77435,50.02004],[18.74954,50.02555],[18.75418,50.05408],[18.73032,50.06022],[18.73444,50.08534],[18.75915,50.10142],[18.74199,50.10296],[18.72963,50.15546],[18.75074,50.15931],[18.74662,50.17173],[18.71684,50.20347],[18.77018,50.19847],[18.80168,50.15513],[18.82318,50.19207],[18.84992,50.20179],[18.79632,50.24627],[18.92794,50.22912],[18.95584,50.239],[18.96387,50.2758],[19.00927,50.2643],[19.02025,50.27925],[19.05853,50.26937],[19.09776,50.2821],[19.17595,50.21363],[19.18532,50.36585],[19.172,50.34382],[19.13767,50.33681],[19.14265,50.28912],[19.08548,50.28051],[19.04583,50.30085],[19.05622,50.34908],[18.95931,50.38313],[18.98026,50.39003],[18.96996,50.41191],[19.00154,50.48154],[19.02471,50.48939],[19.03019,50.57886],[18.70133,50.71214],[18.70932,50.84549],[18.04935,51.11243],[17.97229,51.24602],[17.54926,51.24602],[17.31974,51.71418],[16.98013,51.71418],[16.719,51.58032],[16.55562,51.71418],[16.1311,51.71418],[16.13699,51.84813],[15.80826,52.11626],[15.81395,52.25045],[15.64623,52.31758],[15.47028,52.18334],[15.2921,52.21868],[15.31273,52.19509],[15.29194,52.14782],[15.30601,52.13135],[15.39751,52.11478],[15.53593,52.16089],[15.57542,52.15229],[15.64359,52.1738],[15.6714,52.16098],[15.72521,52.16896],[15.7636,52.13282],[15.73755,52.10564],[15.81018,52.06489],[15.77036,52.01952],[15.67809,52.00008],[15.60464,52.01018],[15.58318,52.03302],[15.49828,52.0387],[15.40592,51.99672],[15.33007,52.00516],[15.32181,52.05081],[15.26546,52.06345],[15.27782,52.02164],[15.25834,52.00396],[15.27857,51.97213],[15.33721,51.97133],[15.3673,51.93376],[15.28039,51.90738],[15.21109,51.90049],[15.19409,51.85614],[15.17293,51.85846],[15.17718,51.87071],[15.15753,51.8829],[15.06419,51.86388],[15.05075,51.83686],[15.01029,51.83321],[14.98702,51.81022],[15.02391,51.7973],[14.97175,51.777],[14.98878,51.74834],[14.93737,51.74149],[14.95608,51.7554],[14.92175,51.78102],[14.96497,51.80708],[14.94222,51.83233],[14.90896,51.83875],[14.89793,51.87252],[14.96733,51.87408],[14.972,51.88547],[14.93248,51.89609],[14.96407,51.92902],[14.94347,51.93114],[14.94999,51.94384],[14.91935,51.96259],[14.88344,52.04919],[14.86914,52.04919],[14.77944,51.91513],[14.71401,51.99565],[14.70194,51.97896],[14.68203,51.98129],[14.68718,51.99704],[14.71272,51.99723],[14.616,52.11626],[14.39845,52.11626],[14.43157,52.10144],[14.40102,52.09512],[14.37238,52.11626],[14.36051,52.11626],[13.94037,52.31758],[13.42535,52.18334],[13.42213,52.04919],[13.50725,52.04919],[13.50561,51.98215],[13.59068,51.98215],[13.75732,51.84813],[13.80256,51.84813],[13.79248,51.86695],[13.82509,51.87776],[13.83252,51.86178],[13.83648,51.84813],[13.88691,51.84813],[13.88277,51.86123],[13.9056,51.86324],[13.90916,51.84813],[14.07705,51.84813],[14.08224,51.87319],[14.16438,51.85874],[14.21536,51.86934],[14.2235,51.90421],[14.26401,51.91722],[13.93284,52.04919],[13.93471,52.11626],[14.19019,52.11626],[14.26794,51.91848],[14.31922,51.93495],[14.41037,51.93781],[14.4599,51.96622],[14.54195,51.95733],[14.52525,51.93138],[14.55234,51.89604],[14.59259,51.87713],[14.54538,51.84633],[14.54242,51.82612],[14.56386,51.80846],[14.50556,51.78306],[14.5683,51.74494],[14.51062,51.73973],[14.52908,51.694],[14.58869,51.67607],[14.55929,51.65093],[14.45543,51.64327],[14.42857,51.65957],[14.32785,51.6377],[14.2618,51.66478],[14.26015,51.60882],[14.32137,51.60608],[14.33166,51.58091],[14.30077,51.57664],[14.30935,51.54505],[14.26849,51.53843],[14.26575,51.57707],[14.25923,51.57768],[14.25735,51.51342],[14.2554,51.44654],[14.25346,51.37968],[14.25153,51.31284],[14.33618,51.31284],[14.33422,51.24602],[14.32651,50.97892],[14.154,50.84549],[13.05234,50.57886],[12.79645,50.37908],[12.37608,50.37908],[12.29033,50.24598],[12.12234,50.24598],[12.12222,50.23549]],[[13.70441,51.90319],[13.71471,51.90552],[13.73737,51.90721],[13.7281,51.89069],[13.70441,51.90319]],[[13.7851,51.90107],[13.78595,51.91611],[13.81823,51.92892],[13.83505,51.89821],[13.7851,51.90107]],[[14.27399,51.62666],[14.30085,51.63847],[14.3145,51.62247],[14.27399,51.62666]],[[14.6192,51.91211],[14.66177,51.91891],[14.66795,51.89858],[14.62924,51.89241],[14.6192,51.91211]],[[17.42548,50.23426],[17.43375,50.25331],[17.48687,50.27354],[17.5835,50.27787],[17.61176,50.26591],[17.68163,50.29702],[17.69256,50.327],[17.71805,50.32065],[17.7474,50.29427],[17.72702,50.25568],[17.76512,50.23581],[17.7585,50.20664],[17.61966,50.17117],[17.60571,50.1891],[17.54233,50.18909],[17.51757,50.21237],[17.42694,50.20487],[17.42548,50.23426]],[[17.79201,49.75799],[17.80231,49.76729],[17.82279,49.75642],[17.79201,49.75799]],[[17.796,49.96886],[17.82839,49.96232],[17.80757,49.95633],[17.796,49.96886]],[[17.94754,50.07025],[17.95115,50.10781],[17.97432,50.12713],[18.06539,50.11348],[18.12255,50.06463],[18.09525,50.05989],[18.08118,50.09245],[18.0768,50.06788],[18.0756,50.08309],[18.04976,50.08094],[18.005,50.0498],[17.94754,50.07025]],[[17.9536,49.79493],[17.988,49.80597],[18.00561,49.7859],[17.96633,49.77882],[17.9536,49.79493]],[[17.98013,49.92172],[17.99397,49.90186],[17.98078,49.88619],[17.98013,49.92172]],[[18.00143,49.71765],[18.05982,49.72762],[18.06263,49.70308],[18.03356,49.69587],[18.00143,49.71765]]],[[[13.24443,51.71418],[13.5824,51.64724],[13.66726,51.64724],[13.66894,51.71418],[13.67063,51.78114],[13.58568,51.78114],[13.58651,51.81463],[13.5096,51.84525],[13.51258,51.83074],[13.46907,51.84715],[13.40242,51.8166],[13.31019,51.83055],[13.31597,51.84813],[13.24739,51.84813],[13.24443,51.71418]]],[[[14.23197,51.78598],[14.23794,51.76816],[14.28188,51.78154],[14.27519,51.7933],[14.23197,51.78598]]],[[[14.28343,51.72001],[14.29313,51.70701],[14.32549,51.69842],[14.33287,51.71735],[14.28343,51.72001]]],[[[15.12298,52.23093],[15.14852,52.23348],[15.16425,52.24405],[15.13196,52.25045],[15.12298,52.23093]]],[[[15.7965,48.87501],[15.93321,48.81987],[15.92965,48.83427],[15.8508,48.85777],[15.8369,48.87682],[15.7965,48.87501]]],[[[15.93336,48.81981],[15.95492,48.81111],[15.95959,48.82104],[15.93336,48.81981]]],[[[16.11258,48.74753],[16.17991,48.72037],[16.84487,48.72037],[16.89183,48.72568],[16.86721,48.7883],[16.60644,48.78087],[16.54429,48.8112],[16.46246,48.80944],[16.43761,48.76851],[16.3838,48.73067],[16.11258,48.74753]]],[[[17.02017,48.7402],[17.42964,48.78652],[17.51112,48.81833],[17.45013,48.84551],[17.39966,48.81519],[17.35937,48.81517],[17.32167,48.8453],[17.19229,48.87416],[17.14592,48.83675],[17.10582,48.83271],[17.0884,48.78748],[17.04387,48.76496],[17.02017,48.7402]]],[[[17.90304,48.97136],[17.93814,48.98506],[17.97165,49.02035],[17.92152,49.01753],[17.90304,48.97136]]],[[[18.14219,49.19992],[18.23616,49.29888],[18.18929,49.2886],[18.18347,49.26911],[18.14857,49.24939],[18.1531,49.22062],[18.14219,49.19992]]],[[[19.14016,50.1867],[19.17451,50.19025],[19.17507,50.19927],[19.14016,50.1867]]]]}}],"metadata":{"generatedBy":"scripts/build-fief-flat.ts","input":"data/cliopatria_fiefs_1492.geojson","year":1492,"cutPolicy":"keep-smaller","containmentCoverageThreshold":0.9,"minOverlapAreaM2":1000,"sliverAreaLimitM2":1000000000,"resolutions":[{"kind":"sliver","cutName":"Kingdom of Bohemia","keptName":"Electorate of Saxony","overlapKm2":10.88,"coverageOfSmaller":0.0003}],"externalInputs":["data/italy_fiefs_flat_1492.geojson","data/hre_fiefs_flat_1492.geojson"],"externalRemovals":[{"cutName":"Duchy of Bavaria","externalName":"County of Schaunberg","overlapKm2":81.67},{"cutName":"Duchy of Bavaria","externalName":"Imperial Abbey of Berchtesgaden","overlapKm2":243.76},{"cutName":"Duchy of Bavaria","externalName":"Prince-Archbishopric of Salzburg","overlapKm2":685.97},{"cutName":"Duchy of Bavaria","externalName":"Prince-Bishopric of Eichstätt","overlapKm2":1017.89},{"cutName":"Duchy of Bavaria","externalName":"Prince-Bishopric of Freising","overlapKm2":291.72},{"cutName":"Duchy of Bavaria","externalName":"Prince-Bishopric of Passau","overlapKm2":184.27},{"cutName":"Duchy of Bavaria","externalName":"Princely Abbey of Kempten","overlapKm2":135.05},{"cutName":"Duchy of Bavaria","externalName":"Principality of Ansbach","overlapKm2":584.88},{"cutName":"Electorate of Brandenburg","externalName":"Duchy of Crossen","overlapKm2":362.55},{"cutName":"Electorate of Brandenburg","externalName":"Duchy of Pomerania","overlapKm2":2960.02},{"cutName":"Electorate of Brandenburg","externalName":"Lordship of Cottbus","overlapKm2":1.07},{"cutName":"Electorate of Brandenburg","externalName":"Lordship of Ruppin","overlapKm2":1752.89},{"cutName":"Electorate of Brandenburg","externalName":"Prince-Archbishopric of Magdeburg","overlapKm2":398.26},{"cutName":"Electorate of Brandenburg","externalName":"Prince-Bishopric of Cammin","overlapKm2":83.54},{"cutName":"Electorate of Saxony","externalName":"County of Henneberg-Schleusingen","overlapKm2":675.83},{"cutName":"Electorate of Saxony","externalName":"County of Hohnstein","overlapKm2":51.92},{"cutName":"Electorate of Saxony","externalName":"Erfurt Territory","overlapKm2":238.16},{"cutName":"Electorate of Saxony","externalName":"Imperial Abbey of Hersfeld","overlapKm2":15.14},{"cutName":"Electorate of Saxony","externalName":"Lordship of Cottbus","overlapKm2":189.73},{"cutName":"Electorate of Saxony","externalName":"Prince-Archbishopric of Magdeburg","overlapKm2":893.73},{"cutName":"Electorate of Saxony","externalName":"Prince-Bishopric of Bamberg","overlapKm2":256.23},{"cutName":"Electorate of Saxony","externalName":"Prince-Bishopric of Würzburg","overlapKm2":802.78},{"cutName":"Electorate of Saxony","externalName":"Principality of Bayreuth","overlapKm2":86.84},{"cutName":"Kingdom of Bohemia","externalName":"County of Kladsko","overlapKm2":1636.1},{"cutName":"Kingdom of Bohemia","externalName":"Duchy of Crossen","overlapKm2":1329},{"cutName":"Kingdom of Bohemia","externalName":"Duchy of Pless","overlapKm2":1010.26},{"cutName":"Kingdom of Bohemia","externalName":"Duchy of Siewierz","overlapKm2":163.05},{"cutName":"Kingdom of Bohemia","externalName":"Lordship of Cottbus","overlapKm2":813.5},{"cutName":"Kingdom of Bohemia","externalName":"Moravia","overlapKm2":22092.95},{"cutName":"Kingdom of Bohemia","externalName":"Prince-Archbishopric of Magdeburg","overlapKm2":27.93},{"cutName":"Kingdom of Bohemia","externalName":"Prince-Bishopric of Passau","overlapKm2":48.99},{"cutName":"Kingdom of Bohemia","externalName":"Principality of Bayreuth","overlapKm2":45.5}],"source":"Cliopatria (Seshat Global History Databank)","sourceUrl":"https://github.com/Seshat-Global-History-Databank/cliopatria","license":"CC BY 4.0","commit":"ad28a691b7c07c1fca89d0e0636d324667d2a258","borderPrecision":"史料地図のデジタイズ（概略。手描き地図の自動抽出を 0.07 度で平滑化）"}}