{"type":"FeatureCollection","features":[{"type":"Feature","properties":{"NAME":"County of Angoulême","ADMIN_LEVEL":4,"OHM_RELATION_ID":2893945,"START_DATE":"0839","END_DATE":"1515-01-01"},"geometry":{"type":"MultiPolygon","coordinates":[[[[0.93109,45.64669],[0.96679,45.72728],[0.93658,45.80391],[0.802,45.77231],[0.61386,45.81732],[0.58639,45.87376],[0.52254,45.87519],[0.4676,45.91151],[0.4319,45.88475],[0.38727,45.89383],[0.35774,45.93157],[0.28152,45.99505],[0.2932,46.00459],[0.38933,45.99171],[0.39551,46.02128],[0.3701,46.04893],[0.35019,46.08895],[0.31448,46.07895],[0.22522,46.08752],[0.17853,46.12132],[0.07759,46.10419],[0.03708,45.99219],[0.09888,45.98074],[0.14969,45.94542],[0.14557,45.8967],[0.07416,45.87758],[0.06592,45.85654],[0.03021,45.83933],[-0.07828,45.85941],[-0.12909,45.87854],[-0.18952,45.84602],[-0.17304,45.80104],[-0.25681,45.77806],[-0.28427,45.81253],[-0.3035,45.80391],[-0.29938,45.77806],[-0.39002,45.76752],[-0.42709,45.78093],[-0.44495,45.75507],[-0.39963,45.64285],[-0.27191,45.56503],[-0.19501,45.53233],[-0.10437,45.5179],[-0.03571,45.48228],[-0.00275,45.43701],[0.03158,45.41581],[0.00549,45.32995],[-0.04257,45.28358],[0.00687,45.24589],[0.0185,45.22068],[0.16754,45.22074],[0.26367,45.26329],[0.29526,45.25846],[0.35019,45.28262],[0.37903,45.38591],[0.35843,45.41388],[0.41061,45.47554],[0.51086,45.55541],[0.55206,45.6726],[0.59326,45.69467],[0.6427,45.70618],[0.71823,45.70906],[0.79101,45.69755],[0.81573,45.67452],[0.82397,45.63901],[0.84045,45.61884],[0.93109,45.64669]]]]}},{"type":"Feature","properties":{"NAME":"County of Anjou","ADMIN_LEVEL":4,"OHM_RELATION_ID":2892571,"START_DATE":"0861","END_DATE":"1360"},"geometry":{"type":"Polygon","coordinates":[[[-1.25862,47.75502],[-1.22086,47.72224],[-1.16112,47.62144],[-1.10069,47.64504],[-1.0128,47.58903],[-1.17897,47.56772],[-1.18172,47.49958],[-1.16592,47.47545],[-1.0025,47.49772],[-0.9468,47.38609],[-1.07117,47.38533],[-1.11168,47.36999],[-1.16936,47.36394],[-1.2085,47.31322],[-1.19751,47.27411],[-1.21124,47.17431],[-1.25382,47.14537],[-1.24901,47.0978],[-1.16799,47.07714],[-1.14945,47.02333],[-1.05194,46.99993],[-1.01349,47.0224],[-0.9256,47.00929],[-0.8844,46.97932],[-0.63721,46.9915],[-0.57541,47.01116],[-0.56168,47.05983],[-0.47104,47.08602],[-0.46143,47.05516],[-0.31174,47.09163],[-0.24307,47.12341],[-0.18265,47.11874],[-0.17922,47.08041],[-0.11948,47.06545],[-0.05905,47.07854],[-0.02747,47.13462],[0.01785,47.16918],[0.03708,47.22143],[0.08102,47.21677],[0.31723,47.2578],[0.36529,47.28668],[0.31311,47.33324],[0.35293,47.38162],[0.41473,47.40021],[0.42846,47.46245],[0.38727,47.48287],[0.40649,47.55429],[0.35705,47.58857],[0.44906,47.65059],[0.34538,47.72824],[0.21492,47.75595],[0.14625,47.73563],[0.08652,47.76056],[0.0515,47.75595],[-0.00069,47.78917],[-0.05013,47.79102],[-0.09407,47.82376],[-0.13527,47.84036],[-0.18952,47.83759],[-0.21424,47.87076],[-0.28565,47.86155],[-0.37972,47.80024],[-0.41405,47.81408],[-0.44701,47.87675],[-0.52529,47.92371],[-0.59395,47.92095],[-0.69283,47.9697],[-0.73952,47.97981],[-0.83702,47.95407],[-0.91324,47.96602],[-0.94688,47.99498],[-1.05709,47.983],[-1.06705,47.97935],[-1.13709,47.9743],[-1.18515,47.90622],[-1.20094,47.86846],[-1.23734,47.84266],[-1.25862,47.75502]]]}},{"type":"Feature","properties":{"NAME":"County of La Marche","ADMIN_LEVEL":4,"OHM_RELATION_ID":2892568,"START_DATE":"0958","END_DATE":"1527"},"geometry":{"type":"MultiPolygon","coordinates":[[[[2.48566,45.74165],[2.47879,45.7771],[2.42798,45.77327],[2.39776,45.83167],[2.42935,45.85846],[2.47055,45.85654],[2.57217,45.97502],[2.61474,45.97788],[2.6738,46.00364],[2.72323,46.05036],[2.79053,46.08276],[2.81799,46.11609],[2.83104,46.1513],[2.78641,46.19409],[2.75379,46.18221],[2.6889,46.17413],[2.65182,46.1218],[2.56393,46.14178],[2.50763,46.22925],[2.53784,46.24065],[2.48978,46.29382],[2.40188,46.31753],[2.35382,46.3052],[2.30163,46.31089],[2.2316,46.26914],[2.14371,46.30141],[1.9844,46.45016],[1.75781,46.4757],[1.71661,46.45205],[1.52435,46.46719],[1.48041,46.51541],[1.41037,46.55697],[1.28952,46.53525],[1.19339,46.55131],[1.13022,46.52675],[1.1673,46.40851],[1.10962,46.3782],[1.07391,46.39146],[1.00525,46.35736],[1.02035,46.29761],[0.94345,46.26154],[0.91049,46.27673],[0.81436,46.2093],[0.74982,46.2264],[0.65781,46.18934],[0.67428,46.10942],[0.66055,46.01318],[0.64133,45.98647],[0.63309,45.89861],[0.68664,45.87758],[0.74844,45.88332],[0.8226,45.86228],[0.90225,45.87471],[0.8844,45.91486],[0.95856,45.94065],[1.03134,45.91199],[1.01211,45.87567],[1.05331,45.87758],[1.10138,45.84794],[1.13159,45.86324],[1.15768,45.9225],[1.27991,45.96738],[1.43234,45.94733],[1.49414,45.92059],[1.55319,45.94829],[1.604,45.92632],[1.67404,45.95211],[1.66443,45.90817],[1.61911,45.85463],[1.6452,45.8422],[1.7894,45.87376],[1.75644,45.82306],[1.88553,45.79721],[1.88484,45.75363],[1.86561,45.72392],[1.9075,45.71098],[1.94595,45.72919],[1.99402,45.71481],[2.00775,45.76082],[2.09152,45.76369],[2.16843,45.75603],[2.1904,45.7033],[2.27966,45.66013],[2.37442,45.69947],[2.44171,45.70714],[2.48566,45.74165]]]]}},{"type":"Feature","properties":{"NAME":"County of Maine","ADMIN_LEVEL":4,"OHM_RELATION_ID":2892570,"START_DATE":"0832","END_DATE":"1537"},"geometry":{"type":"MultiPolygon","coordinates":[[[[-1.03805,47.98997],[-0.94688,47.99498],[-0.91324,47.96602],[-0.83702,47.95407],[-0.73952,47.97981],[-0.69283,47.9697],[-0.59395,47.92095],[-0.52529,47.92371],[-0.44701,47.87675],[-0.41405,47.81408],[-0.37972,47.80024],[-0.28565,47.86155],[-0.21424,47.87076],[-0.18952,47.83759],[-0.13527,47.84036],[-0.09407,47.82376],[-0.05013,47.79102],[-0.00069,47.78917],[0.0515,47.75595],[0.08652,47.76056],[0.14625,47.73563],[0.21492,47.75595],[0.34538,47.72824],[0.44906,47.65059],[0.56442,47.65614],[0.61111,47.68296],[0.59601,47.71069],[0.65643,47.80947],[0.77591,47.82607],[0.71411,47.93843],[0.74981,47.94441],[0.80063,47.90944],[0.83153,47.92371],[0.84114,48.02484],[0.78689,48.03264],[0.78758,48.1001],[0.84182,48.10881],[0.85212,48.13035],[0.79033,48.17296],[0.73333,48.19035],[0.70724,48.22742],[0.62965,48.25806],[0.60356,48.23702],[0.57678,48.2384],[0.49988,48.26857],[0.48614,48.29964],[0.39688,48.31974],[0.32753,48.47247],[0.22591,48.47429],[0.15999,48.43877],[0.11742,48.43877],[0.05974,48.40003],[0.01099,48.40003],[-0.05699,48.37906],[-0.07828,48.41735],[-0.14145,48.47292],[-0.14282,48.52297],[-0.19501,48.54298],[-0.20737,48.56389],[-0.26505,48.5657],[-0.26779,48.52843],[-0.28153,48.4975],[-0.3241,48.48658],[-0.46967,48.49841],[-0.59052,48.45926],[-0.68253,48.47019],[-0.76492,48.4456],[-0.85007,48.49022],[-0.87616,48.51751],[-0.93109,48.53207],[-1.06774,48.50933],[-1.05812,48.47474],[-1.08902,48.41872],[-1.06979,48.37769],[-1.06636,48.33297],[-1.10756,48.2736],[-1.07048,48.09734],[-1.02791,48.02759],[-1.03805,47.98997]]]]}},{"type":"Feature","properties":{"NAME":"County of Nantes","ADMIN_LEVEL":4,"OHM_RELATION_ID":2893051,"START_DATE":"0938","END_DATE":"1203"},"geometry":{"type":"MultiPolygon","coordinates":[[[[-1.25725,47.78041],[-1.37329,47.80255],[-1.47492,47.83252],[-1.53671,47.81777],[-1.65894,47.87399],[-1.76949,47.91036],[-1.81686,47.81961],[-1.84982,47.78133],[-1.85463,47.71854],[-1.913,47.6677],[-2.00226,47.68758],[-2.08191,47.63671],[-2.10732,47.58764],[-2.07916,47.51303],[-2.09702,47.49215],[-2.14233,47.46756],[-2.20001,47.49726],[-2.24052,47.48287],[-2.25975,47.43738],[-2.34009,47.40067],[-2.36755,47.34208],[-2.38834,47.20979],[-2.36325,47.19894],[-2.29902,47.19972],[-2.24481,47.20863],[-2.22692,47.21905],[-2.21196,47.1942],[-2.25222,47.18705],[-2.29594,47.15072],[-2.29863,47.12317],[-2.28345,47.10687],[-2.09296,47.06883],[-2.04826,47.04038],[-1.97617,47.02684],[-1.89205,46.95964],[-1.83025,46.95354],[-1.80279,46.9226],[-1.74683,46.91744],[-1.73172,46.88742],[-1.66443,46.88437],[-1.64623,46.91885],[-1.61018,46.91744],[-1.58512,46.87826],[-1.49826,46.8846],[-1.55731,46.95167],[-1.56761,47.01444],[-1.48281,47.03995],[-1.46187,46.99454],[-1.4732,46.97955],[-1.45535,46.92659],[-1.36608,46.95987],[-1.36951,47.04229],[-1.30291,47.0355],[-1.24901,47.0978],[-1.25382,47.14537],[-1.21124,47.17431],[-1.19751,47.27411],[-1.2085,47.31322],[-1.16936,47.36394],[-1.11168,47.36999],[-1.07117,47.38533],[-0.9468,47.38609],[-1.0025,47.49772],[-1.16592,47.47545],[-1.18172,47.49958],[-1.17897,47.56772],[-1.0128,47.58903],[-1.10069,47.64504],[-1.16112,47.62144],[-1.22086,47.72224],[-1.25862,47.75502],[-1.25725,47.78041]]]]}},{"type":"Feature","properties":{"NAME":"County of Poitou","ADMIN_LEVEL":4,"OHM_RELATION_ID":2892575,"START_DATE":"0934","END_DATE":"1422"},"geometry":{"type":"MultiPolygon","coordinates":[[[[-1.24901,47.0978],[-1.30291,47.0355],[-1.36951,47.04229],[-1.36608,46.95987],[-1.45535,46.92659],[-1.4732,46.97955],[-1.46187,46.99454],[-1.48281,47.03995],[-1.56761,47.01444],[-1.55731,46.95167],[-1.49826,46.8846],[-1.58512,46.87826],[-1.61018,46.91744],[-1.64623,46.91885],[-1.66443,46.88437],[-1.73172,46.88742],[-1.74683,46.91744],[-1.80279,46.9226],[-1.83025,46.95354],[-1.89205,46.95964],[-1.97617,47.02684],[-2.05421,47.03859],[-2.08315,47.01184],[-2.09552,46.97536],[-2.11279,46.9656],[-2.16753,46.99285],[-2.16976,47.01872],[-2.18117,47.03406],[-2.23407,47.05975],[-2.31309,47.05993],[-2.34469,47.07862],[-2.37263,47.08214],[-2.39887,47.07471],[-2.41751,47.04913],[-2.40333,47.02089],[-2.36035,47.00479],[-2.36776,46.98494],[-2.35203,46.96186],[-2.31174,46.94901],[-2.28393,46.92929],[-2.22928,46.92464],[-2.19809,46.86415],[-2.18681,46.80347],[-2.05885,46.72733],[-2.03222,46.70724],[-2.00913,46.67382],[-1.96909,46.65809],[-1.93786,46.61968],[-1.90084,46.59032],[-1.85263,46.47286],[-1.82153,46.45707],[-1.79713,46.45523],[-1.67003,46.38954],[-1.53884,46.3716],[-1.51553,46.33026],[-1.48774,46.31179],[-1.372,46.30795],[-1.32245,46.262],[-1.2381,46.23989],[-1.0849,46.29951],[-1.00525,46.32133],[-0.95993,46.31279],[-0.77454,46.32891],[-0.73471,46.31753],[-0.6839,46.33081],[-0.63584,46.31659],[-0.54794,46.3365],[-0.51636,46.23305],[-0.54657,46.18268],[-0.53696,46.15415],[-0.48889,46.14178],[-0.46829,46.10085],[-0.49164,46.07228],[-0.47653,46.05132],[-0.41748,46.0618],[-0.36118,45.99124],[-0.26917,46.04655],[-0.11948,45.95497],[-0.12909,45.87854],[-0.07828,45.85941],[0.03021,45.83933],[0.06592,45.85654],[0.07416,45.87758],[0.14557,45.8967],[0.14969,45.94542],[0.09888,45.98074],[0.03708,45.99219],[0.07759,46.10419],[0.17853,46.12132],[0.22522,46.08752],[0.31448,46.07895],[0.35019,46.08895],[0.3701,46.04893],[0.39551,46.02128],[0.38933,45.99171],[0.2932,46.00459],[0.28152,45.99505],[0.35774,45.93157],[0.38727,45.89383],[0.4319,45.88475],[0.4676,45.91151],[0.52254,45.87519],[0.58639,45.87376],[0.61386,45.81732],[0.802,45.77231],[0.93658,45.80391],[0.98602,45.83454],[1.01211,45.87567],[1.03134,45.91199],[0.95856,45.94065],[0.8844,45.91486],[0.90225,45.87471],[0.8226,45.86228],[0.74844,45.88332],[0.68664,45.87758],[0.63309,45.89861],[0.64133,45.98647],[0.66055,46.01318],[0.67428,46.10942],[0.65781,46.18934],[0.74982,46.2264],[0.81436,46.2093],[0.91049,46.27673],[0.94345,46.26154],[1.02035,46.29761],[1.00525,46.35736],[1.07391,46.39146],[1.10962,46.3782],[1.1673,46.40851],[1.13022,46.52675],[1.03134,46.54092],[1.02447,46.58341],[0.93658,46.59473],[0.88852,46.62115],[0.89676,46.6909],[0.79239,46.75492],[0.79513,46.86207],[0.71274,46.86583],[0.68664,46.96057],[0.59738,47.00648],[0.55481,47.01304],[0.55893,46.96151],[0.50537,46.96432],[0.40512,46.93714],[0.33096,46.95401],[0.31586,46.99899],[0.31036,47.04954],[0.1799,47.08696],[0.01785,47.16918],[-0.02747,47.13462],[-0.05905,47.07854],[-0.11948,47.06545],[-0.17922,47.08041],[-0.18265,47.11874],[-0.24307,47.12341],[-0.31174,47.09163],[-0.46143,47.05516],[-0.47104,47.08602],[-0.56168,47.05983],[-0.57541,47.01116],[-0.63721,46.9915],[-0.8844,46.97932],[-0.9256,47.00929],[-1.01349,47.0224],[-1.05194,46.99993],[-1.14945,47.02333],[-1.16799,47.07714],[-1.24901,47.0978]]]]}},{"type":"Feature","properties":{"NAME":"County of Ponthieu","ADMIN_LEVEL":5,"OHM_RELATION_ID":2840627,"START_DATE":"0926","END_DATE":"1696-05-04"},"geometry":{"type":"Polygon","coordinates":[[[1.31375,50.10143],[1.3702,50.06529],[1.43852,50.05229],[1.49277,50.02715],[1.54907,49.97993],[1.60194,49.96977],[1.61412,49.96085],[1.63147,49.95829],[1.72279,49.86831],[1.73344,49.84861],[1.73381,49.83867],[1.7688,49.83223],[1.78459,49.81761],[1.84914,49.81229],[1.86012,49.87163],[1.84158,49.89021],[1.81274,49.89331],[1.80382,49.91144],[1.73103,49.91984],[1.72211,49.93973],[1.73241,49.95785],[1.77704,49.97551],[1.76605,49.98479],[1.72897,49.99141],[1.72073,50.04832],[1.74683,50.05626],[1.71936,50.10473],[1.77223,50.09944],[1.80382,50.07213],[1.8457,49.99229],[1.8718,49.99582],[1.88415,50.06155],[1.93703,50.05714],[1.92535,50.03862],[1.92604,49.99141],[1.91437,49.97375],[1.85532,49.96094],[1.856,49.9278],[1.87317,49.91807],[1.92192,49.92736],[1.95007,49.94636],[1.98509,49.94283],[2.01393,49.92382],[2.03384,49.92647],[2.02492,49.98964],[2.0826,50.01921],[2.08809,50.05097],[2.10251,50.06816],[2.12929,50.06684],[2.14233,50.05097],[2.14302,49.99935],[2.1183,49.96315],[2.12036,49.91321],[2.14439,49.88358],[2.1801,49.88269],[2.18285,49.92073],[2.16431,49.96006],[2.16705,49.99008],[2.21992,50.03377],[2.18971,50.06331],[2.15332,50.14391],[2.08534,50.12674],[2.06543,50.15579],[2.0311,50.16063],[2.0153,50.14479],[1.98715,50.13863],[1.99402,50.17954],[1.95076,50.17426],[1.93359,50.18349],[1.93222,50.20372],[1.98646,50.21119],[2.0105,50.22832],[2.05994,50.22261],[2.08534,50.25511],[1.97479,50.29066],[1.98029,50.32179],[1.94904,50.33418],[1.89926,50.30162],[1.81412,50.32749],[1.79558,50.35116],[1.81618,50.36561],[1.79901,50.38663],[1.72554,50.39276],[1.72554,50.41114],[1.68022,50.43652],[1.64314,50.43411],[1.64177,50.39407],[1.60744,50.38751],[1.60727,50.3666],[1.47706,50.37993],[1.4628,50.28118],[1.47002,50.24633],[1.42174,50.20703],[1.38336,50.1387],[1.31375,50.10143]]]}},{"type":"Feature","properties":{"NAME":"County of Tours","ADMIN_LEVEL":4,"OHM_RELATION_ID":2892569,"START_DATE":"0500","END_DATE":"1204"},"geometry":{"type":"MultiPolygon","coordinates":[[[[0.44906,47.65059],[0.35705,47.58857],[0.40649,47.55429],[0.38727,47.48287],[0.42846,47.46245],[0.41473,47.40021],[0.35293,47.38162],[0.31311,47.33324],[0.36529,47.28668],[0.31723,47.2578],[0.08102,47.21677],[0.03708,47.22143],[0.01785,47.16918],[0.1799,47.08696],[0.31036,47.04954],[0.31586,46.99899],[0.33096,46.95401],[0.40512,46.93714],[0.50537,46.96432],[0.55893,46.96151],[0.55481,47.01304],[0.59738,47.00648],[0.68664,46.96057],[0.71274,46.86583],[0.79513,46.86207],[0.79239,46.75492],[0.89676,46.6909],[1.00113,46.6909],[1.08353,46.72292],[1.16592,46.7088],[1.33346,46.74174],[1.37329,46.81228],[1.40762,46.83013],[1.42822,46.88366],[1.34582,46.94276],[1.23047,46.9512],[1.17279,46.96901],[1.11511,47.04673],[1.07254,47.06732],[1.07391,47.10098],[1.23047,47.07761],[1.28403,47.08602],[1.35818,47.0589],[1.38977,47.11126],[1.34582,47.1449],[1.36976,47.19598],[1.28232,47.25738],[1.21228,47.28394],[1.11705,47.29916],[1.0976,47.3395],[1.09531,47.41623],[1.03923,47.49207],[1.06944,47.53598],[1.04609,47.58912],[1.01656,47.5956],[0.96817,47.64226],[0.8789,47.64689],[0.83633,47.68851],[0.78415,47.68111],[0.73196,47.68943],[0.61111,47.68296],[0.56442,47.65614],[0.44906,47.65059]]]]}},{"type":"Feature","properties":{"NAME":"County of Vendôme","ADMIN_LEVEL":4,"OHM_RELATION_ID":2893054,"START_DATE":"0930","END_DATE":"1514"},"geometry":{"type":"MultiPolygon","coordinates":[[[[0.96817,47.64226],[1.00387,47.66354],[1.02585,47.68758],[1.08215,47.68573],[1.13708,47.66169],[1.17416,47.68388],[1.21811,47.71346],[1.2442,47.76056],[1.24832,47.82699],[1.20026,47.8233],[1.1618,47.86846],[1.07391,47.91542],[1.10138,47.93751],[1.06155,47.96786],[0.86449,47.93567],[0.83496,47.93797],[0.83153,47.92371],[0.80063,47.90944],[0.74981,47.94441],[0.71411,47.93843],[0.77591,47.82607],[0.65643,47.80947],[0.59601,47.71069],[0.61111,47.68296],[0.73196,47.68943],[0.78415,47.68111],[0.83633,47.68851],[0.8789,47.64689],[0.96817,47.64226]]]]}},{"type":"Feature","properties":{"NAME":"Duchy of Brittany","ADMIN_LEVEL":3,"OHM_RELATION_ID":2805398,"START_DATE":"0939-08-01","END_DATE":"1547-08-12"},"geometry":{"type":"MultiPolygon","coordinates":[[[[-5.21796,48.46705],[-5.21703,48.43717],[-5.18523,48.4063],[-5.12363,48.38634],[-5.06258,48.40083],[-4.92265,48.3359],[-4.92375,48.30607],[-4.89369,48.28733],[-4.85034,48.29057],[-4.82155,48.31908],[-4.79516,48.30039],[-4.76645,48.29524],[-4.70772,48.29731],[-4.66587,48.31374],[-4.65181,48.30932],[-4.68559,48.28973],[-4.69111,48.26859],[-4.66214,48.22499],[-4.61456,48.21731],[-4.60249,48.20014],[-4.60854,48.17818],[-4.60267,48.15552],[-4.56922,48.13675],[-4.53361,48.13593],[-4.5074,48.14521],[-4.46175,48.19419],[-4.42056,48.19027],[-4.38189,48.17358],[-4.34989,48.17296],[-4.33238,48.13672],[-4.37208,48.14314],[-4.42409,48.13906],[-4.73541,48.09438],[-4.75782,48.08016],[-4.78882,48.04392],[-4.81954,48.06563],[-4.87077,48.07744],[-4.89811,48.07003],[-4.92092,48.04317],[-4.90424,48.01574],[-4.86419,47.99988],[-4.81687,47.9997],[-4.79455,48.0125],[-4.78768,48.02688],[-4.74976,48.00382],[-4.71825,47.99585],[-4.62949,47.98502],[-4.57934,47.9676],[-4.52374,47.97171],[-4.48011,47.95106],[-4.43443,47.9126],[-4.40532,47.86451],[-4.40079,47.85288],[-4.4224,47.83927],[-4.43678,47.81529],[-4.43129,47.79538],[-4.40279,47.76929],[-4.27072,47.75696],[-4.20404,47.76034],[-4.1449,47.77819],[-4.1199,47.79971],[-4.10922,47.82947],[-4.03522,47.81162],[-3.94976,47.82577],[-3.9086,47.79181],[-3.89516,47.76981],[-3.84756,47.75753],[-3.82017,47.73895],[-3.77703,47.74075],[-3.73672,47.76127],[-3.69791,47.74387],[-3.55756,47.7301],[-3.51,47.68585],[-3.54873,47.6744],[-3.56248,47.65476],[-3.56244,47.63795],[-3.54384,47.61811],[-3.4805,47.58906],[-3.4225,47.5842],[-3.3955,47.59081],[-3.36861,47.62134],[-3.37501,47.65176],[-3.31318,47.65649],[-3.24778,47.61862],[-3.23997,47.5884],[-3.20785,47.57516],[-3.21598,47.5619],[-3.21,47.52077],[-3.18224,47.46089],[-3.14884,47.44162],[-3.07131,47.43129],[-3.07335,47.40355],[-3.02114,47.36401],[-3.02185,47.35116],[-3.00805,47.33325],[-2.96774,47.32218],[-2.93828,47.32971],[-2.92694,47.31271],[-2.89297,47.29689],[-2.80823,47.2961],[-2.7873,47.31253],[-2.78726,47.33854],[-2.84453,47.38027],[-2.89425,47.37976],[-2.89146,47.4031],[-2.90664,47.42013],[-3.0213,47.45057],[-3.02085,47.47866],[-3.06905,47.51135],[-3.07923,47.53006],[-3.04305,47.53683],[-2.95139,47.52124],[-2.93128,47.50686],[-2.90537,47.50097],[-2.88387,47.47424],[-2.81907,47.45289],[-2.78555,47.45126],[-2.72365,47.46926],[-2.70311,47.45799],[-2.67334,47.45596],[-2.57846,47.48184],[-2.55051,47.47654],[-2.54237,47.42923],[-2.56418,47.41356],[-2.59147,47.44142],[-2.62304,47.44779],[-2.66152,47.43486],[-2.67431,47.41499],[-2.65953,47.3858],[-2.60915,47.37725],[-2.59193,47.34918],[-2.55855,47.3312],[-2.59338,47.30742],[-2.59624,47.2861],[-2.58715,47.27216],[-2.36325,47.19894],[-2.38834,47.20979],[-2.36755,47.34208],[-2.34009,47.40067],[-2.25975,47.43738],[-2.24052,47.48287],[-2.20001,47.49726],[-2.14233,47.46756],[-2.09702,47.49215],[-2.07916,47.51303],[-2.10732,47.58764],[-2.08191,47.63671],[-2.00226,47.68758],[-1.913,47.6677],[-1.85463,47.71854],[-1.84982,47.78133],[-1.81686,47.81961],[-1.76949,47.91036],[-1.65894,47.87399],[-1.53671,47.81777],[-1.47492,47.83252],[-1.37329,47.80255],[-1.25725,47.78041],[-1.25862,47.75502],[-1.23734,47.84266],[-1.20094,47.86846],[-1.18515,47.90622],[-1.13709,47.9743],[-1.06705,47.97935],[-1.03805,47.98997],[-1.02791,48.02759],[-1.07048,48.09734],[-1.10756,48.2736],[-1.06636,48.33297],[-1.06979,48.37769],[-1.08902,48.41872],[-1.05812,48.47474],[-1.07735,48.52752],[-1.16386,48.52707],[-1.1927,48.54525],[-1.25725,48.54207],[-1.2648,48.50796],[-1.29295,48.47975],[-1.38565,48.462],[-1.48659,48.46746],[-1.53345,48.55076],[-1.54444,48.60465],[-1.57173,48.6261],[-1.58087,48.67739],[-1.74313,48.65463],[-1.79612,48.66085],[-1.80612,48.66795],[-1.77229,48.67927],[-1.7535,48.69471],[-1.7465,48.72874],[-1.77311,48.75746],[-1.82422,48.77299],[-1.86225,48.77128],[-1.91044,48.75122],[-1.9555,48.75403],[-2.03116,48.74412],[-2.12206,48.71762],[-2.15554,48.69324],[-2.19255,48.68666],[-2.27424,48.72991],[-2.32727,48.74168],[-2.36925,48.73276],[-2.40273,48.71],[-2.41824,48.70762],[-2.45125,48.72438],[-2.48902,48.72777],[-2.52375,48.71917],[-2.54752,48.70206],[-2.65961,48.6989],[-2.70539,48.68001],[-2.75628,48.71179],[-2.80052,48.71996],[-2.81676,48.74122],[-2.85105,48.75678],[-2.87147,48.80939],[-2.89813,48.83125],[-2.89525,48.87076],[-2.91838,48.90442],[-2.95524,48.92036],[-2.99551,48.92114],[-3.05153,48.95316],[-3.09494,48.96126],[-3.14354,48.94903],[-3.16792,48.92394],[-3.22198,48.92499],[-3.3492,48.89863],[-3.36745,48.9342],[-3.41961,48.95206],[-3.51767,48.94079],[-3.56328,48.91452],[-3.59245,48.9278],[-3.63186,48.93267],[-3.69448,48.92062],[-3.72574,48.89921],[-3.73482,48.86251],[-3.71669,48.83531],[-3.68341,48.82032],[-3.69598,48.79297],[-3.68229,48.75091],[-3.82345,48.77047],[-3.8855,48.75738],[-3.95835,48.79592],[-4.03809,48.80878],[-4.09879,48.79037],[-4.11494,48.77372],[-4.12034,48.75524],[-4.13562,48.74779],[-4.23083,48.73393],[-4.26478,48.71908],[-4.35772,48.73411],[-4.42493,48.70989],[-4.46223,48.70811],[-4.48925,48.69789],[-4.5306,48.70888],[-4.5775,48.70435],[-4.70474,48.63105],[-4.78084,48.60332],[-4.83657,48.56141],[-4.85539,48.52398],[-4.85047,48.47485],[-4.87431,48.43791],[-4.96044,48.47778],[-5.00244,48.51608],[-5.06344,48.53504],[-5.10922,48.53412],[-5.15016,48.52331],[-5.20152,48.48955],[-5.21796,48.46705]]],[[[-4.09362,47.76753],[-4.07382,47.74545],[-4.08492,47.72251],[-4.07056,47.69492],[-4.05189,47.67834],[-3.99754,47.66691],[-3.95693,47.67328],[-3.91736,47.69027],[-3.90121,47.71714],[-3.90823,47.73822],[-3.93684,47.75517],[-3.97702,47.75959],[-3.97403,47.78785],[-4.00658,47.80857],[-4.05148,47.80773],[-4.08859,47.78772],[-4.09362,47.76753]]],[[[-3.31227,47.34659],[-3.29826,47.32161],[-3.29614,47.29753],[-3.26013,47.27049],[-3.09414,47.24458],[-3.03649,47.26582],[-3.00698,47.30606],[-3.01078,47.32201],[-3.03399,47.34231],[-3.09485,47.3547],[-3.12707,47.39005],[-3.24842,47.42276],[-3.29314,47.40873],[-3.30914,47.38175],[-3.31227,47.34659]]],[[[-2.27825,47.10583],[-2.27043,47.10059],[-2.23515,47.09231],[-2.09296,47.06883],[-2.27825,47.10583]]]]}},{"type":"Feature","properties":{"NAME":"Duchy of Burgundy","ADMIN_LEVEL":3,"OHM_RELATION_ID":2893764,"START_DATE":"0918","END_DATE":"1361-11-21"},"geometry":{"type":"MultiPolygon","coordinates":[[[[3.18978,46.68037],[3.26532,46.7306],[3.39763,46.71742],[3.42647,46.69074],[3.53085,46.69639],[3.62585,46.76119],[3.66018,46.66781],[3.69589,46.64299],[3.59082,46.60195],[3.56793,46.55554],[3.58739,46.47047],[3.73687,46.43798],[3.76433,46.37643],[3.84674,46.36221],[3.86047,46.30453],[3.92571,46.29345],[3.92457,46.25944],[3.96234,46.2349],[3.95661,46.18421],[3.98408,46.18183],[4.01384,46.23174],[4.05514,46.24854],[4.08594,46.2505],[4.16034,46.23649],[4.24732,46.24124],[4.26907,46.21827],[4.38398,46.21764],[4.35994,46.27147],[4.41374,46.33251],[4.45837,46.34594],[4.44532,46.40216],[4.3778,46.41953],[4.38581,46.44792],[4.47394,46.47394],[4.50278,46.55428],[4.55772,46.57552],[4.59549,46.53381],[4.65386,46.58339],[4.71314,46.57741],[4.76007,46.53964],[4.84019,46.57899],[4.90428,46.57348],[4.93669,46.50948],[5.11139,46.4965],[5.19997,46.50028],[5.22331,46.4653],[5.26382,46.44921],[5.31652,46.44862],[5.32794,46.46068],[5.36545,46.46092],[5.37918,46.47464],[5.39978,46.4666],[5.42313,46.50111],[5.36116,46.52993],[5.36837,46.55178],[5.35858,46.56335],[5.36768,46.56972],[5.36322,46.57857],[5.40579,46.57939],[5.4051,46.60417],[5.43085,46.62221],[5.43411,46.64201],[5.41626,46.65026],[5.42124,46.65615],[5.39377,46.70632],[5.39343,46.72362],[5.37472,46.74751],[5.38193,46.76409],[5.37626,46.77796],[5.36734,46.78795],[5.34794,46.79136],[5.34103,46.80793],[5.32936,46.80993],[5.3306,46.81768],[5.33957,46.82573],[5.43025,46.82244],[5.44673,46.83131],[5.45128,46.83771],[5.44501,46.84569],[5.40948,46.87216],[5.41471,46.89528],[5.44381,46.89768],[5.45033,46.90396],[5.44149,46.91428],[5.45497,46.92905],[5.47789,46.91744],[5.48879,46.9202],[5.4681,46.93045],[5.46244,46.94499],[5.4281,46.94774],[5.42622,46.95858],[5.43806,46.97967],[5.45737,46.9799],[5.4427,46.99606],[5.39377,46.99536],[5.36279,46.98306],[5.37927,46.95858],[5.36699,46.9519],[5.36674,46.9403],[5.35352,46.92717],[5.37841,46.92729],[5.40339,46.89164],[5.35193,46.88862],[5.31888,46.90651],[5.30897,46.93016],[5.26391,46.9301],[5.27039,46.9594],[5.25666,46.97604],[5.28472,47.00247],[5.30069,47.00589],[5.29764,47.03913],[5.32013,47.06065],[5.36407,47.08064],[5.38124,47.07889],[5.4221,47.13637],[5.44132,47.14618],[5.43806,47.15354],[5.46707,47.16754],[5.44939,47.20149],[5.48132,47.22307],[5.48235,47.24381],[5.50484,47.28971],[5.49831,47.31055],[5.47497,47.32091],[5.48046,47.33219],[5.48716,47.32637],[5.4966,47.33731],[5.48973,47.36906],[5.50037,47.40356],[5.39154,47.47823],[5.39085,47.51071],[5.4554,47.5376],[5.47737,47.56865],[5.47874,47.61403],[5.45402,47.63093],[5.40871,47.602],[5.37403,47.6138],[5.38639,47.65521],[5.42244,47.67556],[5.53848,47.6788],[5.61195,47.6922],[5.66482,47.73332],[5.67086,47.78625],[5.51202,47.77774],[5.49371,47.79619],[5.45708,47.79466],[5.38841,47.75851],[5.22475,47.71771],[5.18698,47.68998],[5.14188,47.70447],[5.11281,47.77743],[5.07183,47.80957],[5.05924,47.84031],[5.0613,47.87809],[5.0272,47.91293],[5.00385,47.99112],[4.97936,48.01991],[4.96677,48.06108],[4.90016,48.07576],[4.85666,48.04669],[4.71589,48.07423],[4.71931,48.02162],[4.68179,47.99893],[4.61334,47.99357],[4.60762,47.93042],[4.55131,47.91539],[4.57763,47.87533],[4.47394,47.87747],[4.42633,47.93808],[4.43297,47.97518],[4.41053,48.00429],[4.24618,47.98913],[4.21188,47.96694],[4.11182,47.93395],[4.12051,47.87779],[4.0951,47.87257],[4.04475,47.93057],[3.93418,47.93732],[3.92045,47.8807],[3.88039,47.86243],[3.88268,47.78713],[3.85246,47.77543],[3.72679,47.78943],[3.73755,47.85291],[3.68513,47.88285],[3.62585,47.87395],[3.55306,47.92336],[3.33925,47.86458],[3.27676,47.79681],[3.21382,47.76189],[3.11974,47.77528],[3.06045,47.73111],[2.93707,47.72295],[2.88717,47.7522],[2.75212,47.78835],[2.69718,47.76143],[2.5017,47.8108],[2.39777,47.7662],[2.46072,47.73388],[2.4566,47.7174],[2.5223,47.65453],[2.59692,47.6849],[2.69878,47.66024],[2.75894,47.60153],[2.84093,47.56395],[2.92975,47.44751],[2.88053,47.32849],[2.98194,47.26531],[2.9991,47.20391],[3.03034,47.13544],[3.03733,47.08824],[3.06961,46.99043],[3.04672,46.95372],[3.06503,46.85911],[3.03184,46.76668],[3.05244,46.73923],[3.18978,46.68037]],[[5.47205,47.36947],[5.44098,47.34842],[5.42913,47.35633],[5.44381,47.37127],[5.47205,47.36947]]],[[[5.42373,47.0897],[5.45514,47.07386],[5.47025,47.09035],[5.45832,47.09595],[5.42373,47.0897]]]]}},{"type":"Feature","properties":{"NAME":"Duchy of Normandy","ADMIN_LEVEL":3,"OHM_RELATION_ID":2869900,"START_DATE":"0933","END_DATE":"1195"},"geometry":{"type":"MultiPolygon","coordinates":[[[[-2.75178,49.42898],[-2.74251,49.4064],[-2.7061,49.38204],[-2.6548,49.37369],[-2.59744,49.3671],[-2.51814,49.37006],[-2.48076,49.38443],[-2.45981,49.40235],[-2.44234,49.37834],[-2.41091,49.35958],[-2.34819,49.35284],[-2.3056,49.3723],[-2.26718,49.40979],[-2.26063,49.43356],[-2.28167,49.47435],[-2.33581,49.49699],[-2.33814,49.52713],[-2.36553,49.5504],[-2.4073,49.55959],[-2.46582,49.54895],[-2.50889,49.55853],[-2.5528,49.55723],[-2.65104,49.51845],[-2.71702,49.50406],[-2.74796,49.47777],[-2.75178,49.42898]]],[[[-2.46077,49.7108],[-2.44031,49.68555],[-2.40872,49.67298],[-2.35416,49.67335],[-2.30839,49.69099],[-2.29331,49.67274],[-2.26649,49.65833],[-2.18924,49.64985],[-2.11175,49.68332],[-2.08499,49.70982],[-2.08079,49.72768],[-2.08879,49.75109],[-2.13685,49.77829],[-2.25161,49.78741],[-2.30526,49.78104],[-2.33567,49.76722],[-2.40261,49.77004],[-2.44885,49.74802],[-2.46056,49.73018],[-2.46077,49.7108]]],[[[-2.32835,49.26036],[-2.32805,49.23685],[-2.3116,49.21013],[-2.32616,49.18039],[-2.31768,49.15678],[-2.26718,49.13049],[-2.17761,49.11648],[-2.10866,49.11755],[-2.06367,49.09895],[-2.02067,49.10105],[-1.98944,49.11539],[-1.9543,49.15216],[-1.93914,49.19522],[-1.94335,49.23402],[-1.87956,49.24358],[-1.85145,49.26232],[-1.83812,49.28491],[-1.84008,49.30377],[-1.85327,49.32133],[-1.90421,49.34051],[-2.05193,49.35086],[-2.09416,49.33098],[-2.11447,49.29694],[-2.13329,49.32712],[-2.16999,49.34417],[-2.22148,49.34823],[-2.2656,49.33167],[-2.28757,49.30173],[-2.31631,49.28196],[-2.32835,49.26036]]],[[[-2.25237,48.95751],[-2.23947,48.93331],[-2.19871,48.91312],[-2.12332,48.90784],[-2.05094,48.90873],[-2.01144,48.92166],[-1.9821,48.95157],[-1.97856,48.97044],[-1.98635,48.99071],[-2.01378,49.01427],[-2.10475,49.04945],[-2.18453,49.0533],[-2.23837,49.02958],[-2.25009,49.01147],[-2.25237,48.95751]]],[[[-2.024,49.71617],[-2.0176,49.66226],[-1.98066,49.63173],[-1.9266,49.61371],[-1.92262,49.589],[-1.95694,49.56281],[-1.9674,49.5266],[-1.95202,49.4987],[-1.92542,49.47917],[-1.91941,49.45381],[-1.90173,49.42847],[-1.88865,49.36362],[-1.85981,49.3391],[-1.81239,49.32279],[-1.77971,49.29632],[-1.73226,49.24249],[-1.71719,49.20618],[-1.67676,49.16584],[-1.67443,49.13229],[-1.69029,49.09242],[-1.68449,49.04463],[-1.66532,48.99681],[-1.6388,48.96484],[-1.63883,48.93761],[-1.65352,48.88294],[-1.6825,48.8542],[-1.68725,48.82998],[-1.67393,48.8044],[-1.64686,48.78572],[-1.65184,48.75677],[-1.64489,48.72587],[-1.58087,48.67739],[-1.57173,48.6261],[-1.54444,48.60465],[-1.53345,48.55076],[-1.48659,48.46746],[-1.38565,48.462],[-1.29295,48.47975],[-1.2648,48.50796],[-1.25725,48.54207],[-1.1927,48.54525],[-1.16386,48.52707],[-1.07735,48.52752],[-1.06774,48.50933],[-0.93109,48.53207],[-0.87616,48.51751],[-0.85007,48.49022],[-0.76492,48.4456],[-0.68253,48.47019],[-0.59052,48.45926],[-0.46967,48.49841],[-0.3241,48.48658],[-0.28153,48.4975],[-0.26779,48.52843],[-0.26505,48.5657],[-0.20737,48.56389],[-0.19501,48.54298],[-0.14282,48.52297],[-0.14145,48.47292],[-0.07828,48.41735],[-0.05699,48.37906],[0.01099,48.40003],[0.05974,48.40003],[0.11742,48.43877],[0.15999,48.43877],[0.22591,48.47429],[0.32753,48.47247],[0.37353,48.4975],[0.41748,48.54298],[0.40924,48.58115],[0.49713,48.62383],[0.5603,48.61929],[0.61661,48.58478],[0.70587,48.63472],[0.80887,48.66194],[0.83908,48.70274],[0.905,48.71362],[1.03683,48.71226],[1.09657,48.72993],[1.15562,48.73083],[1.21605,48.7503],[1.25587,48.74125],[1.3623,48.78696],[1.36505,48.84032],[1.41998,48.85026],[1.44195,48.90445],[1.41586,48.94505],[1.48727,48.9685],[1.51474,48.95588],[1.52435,48.91618],[1.607,48.85628],[1.6301,48.82857],[1.62323,48.77972],[1.66855,48.71815],[1.73309,48.69821],[1.76674,48.73083],[1.87454,48.74623],[1.89926,48.77882],[1.84845,48.84845],[1.77017,48.86472],[1.75644,48.89994],[1.81274,48.97661],[1.6452,49.01085],[1.65619,49.06037],[1.63284,49.07747],[1.54358,49.07207],[1.50101,49.10444],[1.66305,49.12332],[1.73859,49.2696],[1.81412,49.28483],[1.80176,49.31707],[1.82922,49.33497],[1.77978,49.43599],[1.79901,49.49712],[1.77429,49.55907],[1.73447,49.6116],[1.74408,49.72847],[1.79352,49.74933],[1.73447,49.82115],[1.73344,49.84861],[1.72279,49.86831],[1.63147,49.95829],[1.55662,49.96933],[1.44676,50.04215],[1.28302,50.08673],[1.16598,50.0212],[1.02377,49.96948],[0.94116,49.96558],[0.89531,49.94919],[0.74397,49.9207],[0.67748,49.91919],[0.5356,49.89355],[0.41519,49.84181],[0.31965,49.81063],[0.29072,49.79112],[0.14966,49.75016],[0.10796,49.72383],[0.08925,49.70154],[0.04694,49.61108],[-0.00529,49.53842],[-0.00977,49.50788],[-0.00381,49.49357],[0.02592,49.45677],[0.05911,49.4325],[-0.04627,49.37127],[-0.12642,49.34808],[-0.19618,49.34064],[-0.26158,49.3478],[-0.33913,49.37645],[-0.39119,49.38645],[-0.55367,49.39799],[-0.61255,49.38988],[-0.66035,49.40075],[-0.84696,49.41587],[-0.88733,49.43523],[-0.93327,49.4456],[-1.09741,49.44018],[-1.11313,49.45105],[-1.08299,49.4678],[-1.06698,49.4903],[-1.0674,49.50978],[-1.08367,49.53142],[-1.11366,49.5456],[-1.14418,49.54925],[-1.20801,49.52973],[-1.22188,49.54639],[-1.17676,49.57117],[-1.15958,49.59419],[-1.15537,49.62511],[-1.16927,49.66566],[-1.19919,49.71477],[-1.24825,49.74345],[-1.43738,49.75533],[-1.51712,49.73658],[-1.55237,49.70849],[-1.63424,49.712],[-1.75896,49.73396],[-1.83795,49.7689],[-1.87448,49.76749],[-1.93028,49.7784],[-1.97443,49.77232],[-2.00485,49.75534],[-2.01853,49.73809],[-2.024,49.71617]]],[[[-1.9257,48.87812],[-1.90307,48.85131],[-1.85923,48.83815],[-1.76836,48.83739],[-1.7272,48.84614],[-1.70837,48.85932],[-1.70379,48.88617],[-1.72222,48.90318],[-1.75065,48.90925],[-1.75567,48.9209],[-1.78351,48.93934],[-1.87743,48.93727],[-1.92224,48.90799],[-1.9257,48.87812]]]]}}],"metadata":{"generatedBy":"scripts/build-fief-flat.ts","input":"data/france_fiefs_1000.geojson","year":1000,"cutPolicy":"containment-aware","containmentCoverageThreshold":0.9,"minOverlapAreaM2":1000,"sliverAreaLimitM2":1000000000,"resolutions":[{"kind":"sliver","cutName":"County of Anjou","keptName":"Duchy of Brittany","overlapKm2":0.85,"coverageOfSmaller":0.0001},{"kind":"sliver","cutName":"County of Ponthieu","keptName":"Duchy of Normandy","overlapKm2":17.42,"coverageOfSmaller":0.0084},{"kind":"containment","cutName":"Duchy of Brittany","keptName":"County of Nantes","overlapKm2":7062.19,"coverageOfSmaller":0.9998},{"kind":"sliver","cutName":"Duchy of Normandy","keptName":"Duchy of Brittany","overlapKm2":0.9,"coverageOfSmaller":0}],"source":"OpenHistoricalMap","sourceUrl":"https://www.openhistoricalmap.org/","license":"CC0-1.0","borderPrecision":"史料に基づく復元（概略。測量された境界ではない）"}}