{"type":"FeatureCollection","features":[{"type":"Feature","properties":{"NAME":"Billung March","SUBJECTO":"Holy Roman Empire","PARTOF":"Holy Roman Empire","ADMIN_LEVEL":4,"OHM_RELATION_ID":2848018,"START_DATE":"0965","END_DATE":"1002"},"geometry":{"type":"MultiPolygon","coordinates":[[[[9.921,54.322],[9.953,54.31],[9.963,54.316],[9.963,54.342],[9.924,54.343],[9.922,54.344],[9.921,54.322]]],[[[10.04,54.237],[10.059,54.244],[10.093,54.277],[10.091,54.289],[10.056,54.288],[10.057,54.287],[10.04,54.237]]],[[[10.137,54.316],[10.139,54.306],[10.16,54.305],[10.163,54.295],[10.17,54.291],[10.173,54.291],[10.217,54.355],[10.261,54.325],[10.316,54.248],[10.397,54.234],[10.403,54.168],[10.316,54.158],[10.327,54.117],[10.376,54.113],[10.37,54.086],[10.474,54.038],[10.489,53.964],[10.471,53.888],[10.552,53.78],[10.546,53.693],[10.569,53.611],[10.61,53.572],[10.687,53.55],[10.691,53.503],[10.649,53.447],[10.622,53.382],[10.595,53.364],[10.7,53.369],[10.73,53.352],[10.743,53.329],[10.729,53.304],[10.806,53.259],[10.893,53.241],[10.997,53.175],[11.092,53.138],[11.131,53.167],[11.149,53.168],[11.172,53.157],[11.189,53.135],[11.22,53.145],[11.266,53.122],[11.263,53.145],[11.293,53.178],[11.335,53.189],[11.354,53.213],[11.427,53.239],[11.489,53.235],[11.516,53.258],[11.516,53.289],[11.533,53.301],[11.608,53.298],[11.643,53.355],[11.757,53.364],[11.869,53.439],[11.931,53.438],[11.924,53.4],[12,53.426],[12.033,53.501],[12.055,53.511],[12.11,53.509],[12.174,53.466],[12.232,53.46],[12.27,53.368],[12.496,53.355],[12.651,53.371],[12.947,53.555],[12.969,53.579],[12.971,53.608],[12.945,53.625],[12.903,53.628],[12.869,53.61],[12.825,53.611],[12.805,53.632],[12.811,53.673],[12.778,53.741],[12.783,53.767],[12.802,53.779],[12.827,53.821],[12.894,53.85],[12.901,53.883],[13.064,53.914],[13.126,53.967],[13.318,53.963],[13.394,53.909],[13.444,53.917],[13.485,53.889],[13.649,53.858],[13.824,53.862],[13.835,53.875],[13.852,53.876],[13.913,53.904],[13.924,53.919],[13.922,53.931],[13.852,53.988],[13.764,54.019],[13.76,54.03],[13.787,54.053],[13.81,54.098],[13.734,54.155],[13.736,54.173],[13.819,54.194],[13.904,54.168],[13.988,54.207],[14.006,54.224],[14.01,54.243],[13.994,54.278],[13.957,54.298],[13.907,54.302],[13.837,54.29],[13.79,54.253],[13.7,54.228],[13.417,54.202],[13.321,54.229],[13.295,54.243],[13.198,54.264],[13.183,54.281],[13.137,54.276],[13.127,54.295],[13.144,54.309],[13.115,54.323],[13.094,54.346],[13.109,54.363],[13.108,54.374],[13.063,54.456],[13.048,54.47],[13.007,54.479],[12.978,54.508],[12.868,54.493],[12.667,54.494],[12.626,54.5],[12.581,54.533],[12.525,54.54],[12.471,54.529],[12.428,54.502],[12.383,54.433],[12.329,54.399],[12.264,54.325],[12.154,54.286],[12.081,54.236],[11.984,54.228],[11.839,54.195],[11.724,54.204],[11.647,54.194],[11.559,54.149],[11.501,54.135],[11.424,54.072],[11.343,54.045],[11.308,54.026],[11.261,54.037],[11.219,54.06],[11.167,54.066],[11.063,54.062],[10.931,54.029],[10.899,54.04],[10.939,54.052],[11.025,54.109],[11.108,54.141],[11.167,54.175],[11.179,54.2],[11.178,54.24],[11.175,54.285],[11.161,54.326],[11.205,54.357],[11.229,54.362],[11.323,54.351],[11.362,54.363],[11.392,54.385],[11.401,54.404],[11.394,54.435],[11.315,54.528],[11.275,54.55],[11.199,54.569],[11.087,54.589],[11.036,54.585],[10.996,54.567],[10.936,54.514],[10.916,54.459],[10.922,54.43],[10.821,54.4],[10.749,54.36],[10.673,54.399],[10.504,54.44],[10.421,54.471],[10.357,54.485],[10.264,54.488],[10.2,54.389],[10.167,54.364],[10.163,54.334],[10.137,54.316]]]]}},{"type":"Feature","properties":{"NAME":"County of Horne","SUBJECTO":"Holy Roman Empire","PARTOF":"Holy Roman Empire","ADMIN_LEVEL":5,"OHM_RELATION_ID":2831137,"START_DATE":"0920","END_DATE":"1797-10-17"},"geometry":{"type":"MultiPolygon","coordinates":[[[[5.906,51.3],[5.906,51.294],[5.858,51.311],[5.844,51.278],[5.834,51.274],[5.841,51.25],[5.859,51.24],[5.893,51.24],[5.893,51.217],[5.876,51.182],[5.858,51.181],[5.872,51.168],[5.923,51.172],[5.917,51.174],[5.934,51.188],[5.977,51.202],[5.968,51.22],[6.006,51.231],[5.999,51.249],[6.007,51.255],[6.009,51.278],[5.925,51.309],[5.906,51.3]]]]}},{"type":"Feature","properties":{"NAME":"Danish March","SUBJECTO":"Holy Roman Empire","PARTOF":"Holy Roman Empire","ADMIN_LEVEL":4,"OHM_RELATION_ID":2848049,"START_DATE":"0934","END_DATE":"1035"},"geometry":{"type":"MultiPolygon","coordinates":[[[[10.128,54.214],[10.16,54.22],[10.145,54.239],[10.152,54.259],[10.166,54.274],[10.189,54.28],[10.163,54.295],[10.16,54.305],[10.139,54.306],[10.137,54.316],[10.163,54.334],[10.167,54.364],[10.2,54.389],[10.264,54.488],[10.346,54.593],[10.313,54.607],[10.231,54.682],[10.041,54.671],[9.948,54.676],[9.937,54.662],[9.939,54.632],[9.93,54.626],[9.761,54.557],[9.743,54.545],[9.739,54.532],[9.714,54.522],[9.602,54.514],[9.582,54.501],[9.43,54.454],[9.326,54.447],[9.31,54.431],[9.28,54.42],[9.258,54.391],[9.259,54.371],[9.171,54.391],[9.076,54.382],[9.107,54.358],[9.134,54.35],[9.141,54.338],[9.149,54.337],[9.145,54.321],[9.16,54.318],[9.171,54.317],[9.163,54.326],[9.176,54.335],[9.194,54.333],[9.19,54.319],[9.227,54.324],[9.229,54.336],[9.22,54.344],[9.263,54.343],[9.268,54.339],[9.261,54.335],[9.276,54.321],[9.275,54.31],[9.26,54.305],[9.282,54.292],[9.287,54.276],[9.302,54.272],[9.333,54.284],[9.362,54.28],[9.363,54.292],[9.376,54.294],[9.383,54.286],[9.397,54.286],[9.404,54.266],[9.422,54.265],[9.445,54.242],[9.434,54.238],[9.443,54.224],[9.43,54.211],[9.447,54.197],[9.504,54.203],[9.537,54.223],[9.556,54.221],[9.614,54.251],[9.642,54.292],[9.627,54.296],[9.606,54.322],[9.618,54.335],[9.715,54.325],[9.715,54.334],[9.853,54.376],[9.869,54.371],[9.874,54.359],[9.924,54.343],[9.963,54.342],[9.963,54.316],[9.952,54.31],[9.981,54.285],[10.005,54.294],[10.022,54.286],[10.091,54.289],[10.093,54.277],[10.059,54.244],[10.036,54.236],[10.03,54.219],[10.069,54.168],[10.086,54.17],[10.125,54.196],[10.128,54.214]]]]}},{"type":"Feature","properties":{"NAME":"Duchy of Bavaria","SUBJECTO":"Holy Roman Empire","PARTOF":"Holy Roman Empire","ADMIN_LEVEL":4,"OHM_RELATION_ID":2805255,"START_DATE":"0962","END_DATE":"1100"},"geometry":{"type":"MultiPolygon","coordinates":[[[[10.101,46.984],[10.152,46.853],[10.232,46.873],[10.24,46.93],[10.307,46.926],[10.349,46.99],[10.392,47],[10.428,46.974],[10.424,46.959],[10.485,46.943],[10.486,46.911],[10.452,46.809],[10.423,46.777],[10.417,46.708],[10.384,46.688],[10.405,46.634],[10.488,46.622],[10.491,46.563],[10.453,46.531],[10.479,46.494],[10.546,46.493],[10.596,46.469],[10.621,46.448],[10.765,46.487],[10.799,46.444],[10.862,46.434],[11.094,46.537],[11.19,46.507],[11.22,46.469],[11.205,46.35],[11.167,46.292],[11.244,46.232],[11.34,46.297],[11.452,46.336],[11.484,46.36],[11.558,46.349],[11.563,46.38],[11.601,46.387],[11.645,46.491],[11.716,46.512],[11.748,46.505],[11.828,46.509],[11.944,46.529],[11.949,46.54],[11.99,46.546],[11.997,46.534],[12.047,46.584],[12.044,46.607],[12.064,46.622],[12.075,46.643],[12.066,46.654],[12.07,46.675],[12.142,46.636],[12.161,46.637],[12.183,46.621],[12.194,46.622],[12.193,46.598],[12.197,46.598],[12.211,46.61],[12.229,46.614],[12.243,46.621],[12.244,46.624],[12.261,46.63],[12.284,46.617],[12.307,46.619],[12.315,46.63],[12.37,46.664],[12.36,46.69],[12.281,46.728],[12.28,46.735],[12.311,46.757],[12.31,46.784],[12.286,46.784],[12.305,46.835],[12.277,46.885],[12.247,46.891],[12.219,46.878],[12.192,46.905],[12.15,46.911],[12.162,46.959],[12.132,47.024],[12.192,47.068],[12.253,47.089],[12.285,47.136],[12.332,47.127],[12.393,47.164],[12.5,47.165],[12.607,47.136],[12.633,47.117],[12.73,47.136],[12.744,47.102],[12.94,47.08],[12.962,47.041],[13.068,47.018],[13.247,47.051],[13.243,47.087],[13.368,47.103],[13.403,47.065],[13.535,47.021],[13.749,47.002],[13.854,46.923],[13.909,46.952],[13.982,46.951],[14.063,46.991],[14.067,47.032],[14.211,47.069],[14.233,47.105],[14.205,47.14],[14.156,47.169],[14.106,47.235],[14.08,47.295],[14.032,47.346],[13.94,47.41],[13.747,47.506],[13.833,47.581],[13.968,47.611],[14.057,47.66],[14.16,47.651],[14.332,47.67],[14.334,47.79],[14.281,47.815],[14.284,47.844],[14.361,47.861],[14.389,47.915],[14.528,47.89],[14.659,47.828],[14.729,47.825],[14.759,47.77],[14.81,47.761],[14.851,47.772],[14.924,47.759],[14.988,47.773],[15.027,47.773],[15.079,47.795],[15.152,47.781],[15.261,47.794],[15.297,47.846],[15.395,47.843],[15.441,47.82],[15.5,47.827],[15.6,47.799],[15.653,47.818],[15.631,47.877],[15.657,47.904],[15.759,47.935],[15.812,47.989],[15.886,47.997],[15.93,48.034],[15.897,48.068],[15.965,48.139],[15.958,48.205],[16.03,48.269],[16.125,48.322],[16.16,48.363],[16.254,48.364],[16.33,48.33],[16.346,48.25],[16.458,48.173],[16.653,48.108],[16.735,48.128],[16.798,48.113],[16.907,48.13],[16.976,48.172],[16.911,48.313],[16.844,48.359],[16.857,48.468],[16.941,48.539],[16.947,48.618],[16.858,48.63],[16.779,48.683],[16.762,48.72],[16.682,48.722],[16.572,48.751],[16.518,48.756],[16.452,48.72],[16.362,48.707],[16.277,48.708],[16.201,48.721],[16.147,48.739],[16.102,48.741],[15.966,48.796],[15.96,48.821],[15.781,48.876],[15.76,48.852],[15.719,48.842],[15.677,48.86],[15.616,48.918],[15.555,48.913],[15.498,48.964],[15.437,48.955],[15.399,48.972],[15.361,48.964],[15.353,48.986],[15.323,48.98],[15.295,48.956],[15.215,48.941],[15.197,48.953],[15.215,48.964],[15.203,48.975],[15.094,48.98],[15.068,49.014],[14.996,49.008],[14.974,48.944],[14.989,48.9],[14.945,48.894],[14.892,48.911],[14.874,48.84],[14.811,48.794],[14.735,48.699],[14.705,48.585],[14.662,48.584],[14.613,48.63],[14.558,48.607],[14.478,48.648],[14.45,48.643],[14.435,48.589],[14.387,48.595],[14.333,48.553],[14.267,48.584],[14.052,48.606],[14.018,48.645],[14.053,48.654],[14.061,48.675],[14.002,48.705],[13.941,48.725],[13.872,48.772],[13.833,48.773],[13.84,48.772],[13.821,48.755],[13.82,48.733],[13.799,48.712],[13.812,48.702],[13.837,48.7],[13.833,48.692],[13.813,48.692],[13.819,48.672],[13.814,48.65],[13.826,48.63],[13.824,48.618],[13.802,48.595],[13.802,48.574],[13.768,48.554],[13.755,48.564],[13.744,48.542],[13.749,48.532],[13.727,48.513],[13.715,48.512],[13.72,48.506],[13.7,48.479],[13.704,48.476],[13.696,48.472],[13.677,48.484],[13.68,48.491],[13.654,48.504],[13.637,48.528],[13.643,48.539],[13.639,48.544],[13.657,48.544],[13.654,48.549],[13.597,48.57],[13.573,48.561],[13.516,48.591],[13.505,48.587],[13.504,48.572],[13.475,48.562],[13.475,48.556],[13.45,48.564],[13.436,48.553],[13.457,48.511],[13.447,48.494],[13.435,48.497],[13.41,48.476],[13.387,48.473],[13.383,48.487],[13.362,48.488],[13.362,48.531],[13.39,48.542],[13.401,48.567],[13.438,48.566],[13.45,48.576],[13.408,48.578],[13.385,48.595],[13.267,48.608],[13.266,48.644],[13.242,48.655],[13.234,48.671],[13.238,48.686],[13.271,48.694],[13.308,48.68],[13.342,48.676],[13.348,48.689],[13.367,48.688],[13.372,48.67],[13.381,48.67],[13.39,48.682],[13.437,48.677],[13.451,48.688],[13.455,48.718],[13.425,48.756],[13.449,48.79],[13.44,48.81],[13.449,48.818],[13.447,48.831],[13.461,48.832],[13.47,48.843],[13.449,48.848],[13.453,48.856],[13.507,48.863],[13.522,48.879],[13.523,48.898],[13.507,48.923],[13.515,48.937],[13.507,48.957],[13.488,48.937],[13.402,48.976],[13.418,49.009],[13.344,49.094],[13.299,49.126],[13.223,49.119],[13.171,49.182],[13.067,49.268],[13.033,49.267],[13.037,49.307],[12.91,49.343],[12.793,49.344],[12.717,49.426],[12.673,49.427],[12.646,49.479],[12.651,49.522],[12.588,49.73],[12.5,49.716],[12.464,49.831],[12.478,49.903],[12.519,49.99],[12.494,50.108],[12.437,50.168],[12.557,50.238],[12.557,50.305],[12.497,50.366],[12.401,50.37],[12.327,50.416],[12.095,50.382],[12.106,50.348],[12.085,50.272],[12.037,50.225],[11.883,50.116],[11.824,50.057],[11.846,49.992],[11.808,49.956],[11.787,49.863],[11.757,49.83],[11.683,49.779],[11.593,49.77],[11.522,49.753],[11.449,49.702],[11.353,49.674],[11.265,49.621],[11.253,49.586],[11.169,49.586],[11.164,49.595],[11.09,49.615],[11.012,49.602],[10.983,49.543],[10.991,49.486],[11.004,49.422],[11.076,49.328],[11.08,49.246],[11.055,49.21],[11.013,49.188],[11.039,49.109],[11.129,49.021],[11.113,48.978],[11.125,48.89],[11.106,48.82],[11.018,48.822],[10.904,48.811],[10.829,48.755],[10.867,48.734],[10.938,48.726],[10.996,48.732],[10.96,48.679],[10.911,48.516],[10.904,48.456],[10.974,48.428],[10.984,48.381],[11.025,48.375],[11.093,48.325],[11.017,48.025],[11.085,47.889],[10.968,47.815],[10.926,47.756],[10.916,47.662],[10.896,47.614],[10.915,47.614],[10.927,47.567],[10.854,47.5],[10.842,47.451],[10.758,47.413],[10.753,47.363],[10.709,47.353],[10.643,47.311],[10.583,47.301],[10.466,47.199],[10.429,47.225],[10.268,47.207],[10.248,47.173],[10.21,47.179],[10.121,47.137],[10.101,46.984]],[[13.288,48.338],[13.357,48.369],[13.376,48.357],[13.32,48.319],[13.288,48.338]]],[[[13.437,48.637],[13.491,48.574],[13.483,48.6],[13.502,48.609],[13.532,48.606],[13.536,48.63],[13.437,48.637]]],[[[13.592,48.957],[13.606,48.941],[13.624,48.948],[13.592,48.957]]],[[[13.734,48.885],[13.768,48.833],[13.786,48.83],[13.734,48.885]]]]}},{"type":"Feature","properties":{"NAME":"Duchy of Carinthia","SUBJECTO":"Holy Roman Empire","PARTOF":"Holy Roman Empire","ADMIN_LEVEL":4,"OHM_RELATION_ID":2805387,"START_DATE":"0976","END_DATE":"1035"},"geometry":{"type":"Polygon","coordinates":[[[12.132,47.024],[12.162,46.959],[12.15,46.911],[12.192,46.905],[12.219,46.878],[12.247,46.891],[12.277,46.885],[12.305,46.835],[12.286,46.784],[12.31,46.784],[12.311,46.757],[12.28,46.735],[12.281,46.728],[12.36,46.69],[12.37,46.664],[12.315,46.63],[12.342,46.631],[12.36,46.619],[12.383,46.623],[12.39,46.627],[12.378,46.636],[12.382,46.644],[12.406,46.643],[12.434,46.668],[12.478,46.68],[12.502,46.679],[12.505,46.679],[12.507,46.679],[12.516,46.678],[12.569,46.651],[12.619,46.662],[12.641,46.652],[12.691,46.657],[12.716,46.649],[12.724,46.641],[12.734,46.636],[12.763,46.648],[12.784,46.645],[12.811,46.632],[12.837,46.627],[12.835,46.614],[12.848,46.605],[12.91,46.61],[12.918,46.609],[12.932,46.61],[12.945,46.607],[13.022,46.602],[13.148,46.578],[13.202,46.546],[13.211,46.527],[13.29,46.518],[13.352,46.477],[13.454,46.477],[13.455,46.475],[13.456,46.475],[13.463,46.465],[13.439,46.453],[13.434,46.436],[13.501,46.409],[13.515,46.386],[13.615,46.414],[13.773,46.413],[13.839,46.336],[13.789,46.292],[13.931,46.172],[13.998,46.137],[14.01,45.984],[13.748,45.768],[13.645,45.71],[13.674,45.68],[13.706,45.664],[13.695,45.636],[13.658,45.605],[13.658,45.577],[13.541,45.562],[13.516,45.54],[13.469,45.529],[13.443,45.501],[13.44,45.483],[13.463,45.455],[13.468,45.405],[13.49,45.361],[13.491,45.319],[13.527,45.279],[13.523,45.263],[13.535,45.235],[13.53,45.195],[13.535,45.167],[13.547,45.126],[13.576,45.083],[13.57,45.039],[13.592,45.017],[13.634,45.011],[13.668,44.992],[13.693,44.967],[13.676,44.91],[13.71,44.867],[13.75,44.852],[13.805,44.799],[13.855,44.772],[13.864,44.75],[13.876,44.741],[13.924,44.731],[13.981,44.744],[13.997,44.762],[14.048,44.789],[14.053,44.808],[14.037,44.839],[14.049,44.854],[14.05,44.87],[14.086,44.91],[14.116,44.927],[14.168,44.925],[14.214,44.964],[14.221,44.995],[14.21,45.055],[14.237,45.083],[14.247,45.127],[14.278,45.187],[14.298,45.206],[14.326,45.285],[14.345,45.309],[14.328,45.351],[14.352,45.356],[14.414,45.509],[14.468,45.533],[14.496,45.608],[14.521,45.647],[14.656,45.605],[14.661,45.56],[14.702,45.553],[14.763,45.511],[14.749,45.453],[14.798,45.451],[14.868,45.485],[14.915,45.525],[14.941,45.532],[15.011,45.488],[15.104,45.482],[15.171,45.417],[15.269,45.468],[15.343,45.463],[15.388,45.498],[15.296,45.535],[15.282,45.612],[15.309,45.625],[15.397,45.632],[15.406,45.663],[15.393,45.703],[15.297,45.708],[15.289,45.751],[15.315,45.765],[15.383,45.762],[15.454,45.828],[15.557,45.852],[15.621,45.846],[15.729,45.915],[15.799,45.975],[15.828,46.067],[15.822,46.243],[15.907,46.323],[16.022,46.416],[16.019,46.563],[16.047,46.644],[15.959,46.783],[15.927,46.87],[15.841,46.883],[15.783,46.942],[15.739,46.961],[15.723,46.984],[15.664,47.004],[15.601,47.119],[15.565,47.136],[15.536,47.167],[15.484,47.194],[15.455,47.238],[15.478,47.3],[15.583,47.349],[15.636,47.493],[15.683,47.515],[15.735,47.574],[15.78,47.59],[15.855,47.593],[15.857,47.632],[15.797,47.652],[15.726,47.646],[15.734,47.715],[15.709,47.717],[15.68,47.701],[15.614,47.739],[15.624,47.77],[15.6,47.799],[15.5,47.827],[15.441,47.82],[15.395,47.843],[15.297,47.846],[15.261,47.794],[15.152,47.781],[15.079,47.795],[15.027,47.773],[14.988,47.773],[14.924,47.759],[14.851,47.772],[14.81,47.761],[14.759,47.77],[14.729,47.825],[14.659,47.828],[14.528,47.89],[14.389,47.915],[14.361,47.861],[14.284,47.844],[14.281,47.815],[14.334,47.79],[14.332,47.67],[14.16,47.651],[14.057,47.66],[13.968,47.611],[13.833,47.581],[13.747,47.506],[13.94,47.41],[14.032,47.346],[14.08,47.295],[14.106,47.235],[14.156,47.169],[14.205,47.14],[14.233,47.105],[14.211,47.069],[14.067,47.032],[14.063,46.991],[13.982,46.951],[13.909,46.952],[13.854,46.923],[13.749,47.002],[13.535,47.021],[13.403,47.065],[13.368,47.103],[13.243,47.087],[13.247,47.051],[13.068,47.018],[12.962,47.041],[12.94,47.08],[12.744,47.102],[12.73,47.136],[12.633,47.117],[12.607,47.136],[12.5,47.165],[12.393,47.164],[12.332,47.127],[12.285,47.136],[12.253,47.089],[12.192,47.068],[12.132,47.024]]]}},{"type":"Feature","properties":{"NAME":"Duchy of Franconia","SUBJECTO":"Holy Roman Empire","PARTOF":"Holy Roman Empire","ADMIN_LEVEL":4,"OHM_RELATION_ID":2890059,"START_DATE":"0939-10-02","END_DATE":"1168"},"geometry":{"type":"MultiPolygon","coordinates":[[[[7.092,49.764],[7.144,49.713],[7.233,49.693],[7.277,49.652],[7.274,49.624],[7.243,49.595],[7.27,49.56],[7.256,49.549],[7.256,49.534],[7.21,49.546],[7.18,49.543],[7.188,49.508],[7.215,49.488],[7.227,49.469],[7.292,49.469],[7.322,49.447],[7.393,49.449],[7.445,49.411],[7.449,49.397],[7.487,49.392],[7.506,49.373],[7.507,49.349],[7.537,49.35],[7.572,49.319],[7.603,49.312],[7.626,49.279],[7.659,49.275],[7.711,49.233],[7.695,49.134],[7.728,49.128],[7.777,49.104],[7.821,49.095],[7.877,49.064],[7.876,49.043],[7.902,49.011],[7.971,48.998],[8.032,48.963],[8.194,48.964],[8.203,48.941],[8.133,48.829],[8.182,48.804],[8.267,48.792],[8.356,48.664],[8.407,48.653],[8.447,48.676],[8.48,48.67],[8.519,48.686],[8.535,48.751],[8.674,48.76],[8.803,48.72],[8.847,48.764],[8.915,48.791],[8.951,48.773],[8.995,48.805],[9.119,48.819],[9.132,48.878],[9.363,48.882],[9.369,48.899],[9.439,48.892],[9.476,48.918],[9.597,48.92],[9.638,48.96],[9.759,48.977],[9.849,49.004],[9.966,49.009],[10.022,49.043],[10.102,49.027],[10.16,49.051],[10.177,49.098],[10.216,49.113],[10.232,49.148],[10.195,49.174],[10.164,49.239],[10.234,49.257],[10.349,49.26],[10.404,49.147],[10.455,49.127],[10.475,49.083],[10.551,49.066],[10.601,49.021],[10.624,48.988],[10.615,48.925],[10.664,48.882],[10.664,48.821],[10.744,48.777],[10.829,48.755],[10.904,48.811],[11.018,48.822],[11.106,48.82],[11.125,48.89],[11.113,48.978],[11.129,49.021],[11.039,49.109],[11.013,49.188],[11.055,49.21],[11.08,49.246],[11.076,49.328],[11.004,49.422],[10.991,49.486],[10.983,49.543],[11.012,49.602],[11.09,49.615],[11.164,49.595],[11.169,49.586],[11.253,49.586],[11.265,49.621],[11.353,49.674],[11.449,49.702],[11.522,49.753],[11.593,49.77],[11.683,49.779],[11.757,49.83],[11.787,49.863],[11.808,49.956],[11.846,49.992],[11.824,50.057],[11.883,50.116],[12.037,50.225],[12.085,50.272],[12.106,50.348],[12.095,50.382],[11.979,50.455],[11.746,50.453],[11.651,50.434],[11.543,50.434],[11.471,50.46],[11.378,50.467],[11.275,50.496],[11.045,50.488],[10.968,50.515],[10.931,50.553],[10.942,50.588],[10.97,50.615],[10.923,50.654],[10.683,50.711],[10.511,50.77],[10.467,50.829],[10.413,50.85],[10.367,50.825],[10.346,50.735],[10.284,50.744],[10.169,50.731],[10.093,50.743],[10.097,50.74],[10.076,50.72],[10.079,50.707],[10.043,50.734],[10.048,50.748],[10.047,50.749],[10.046,50.749],[10.032,50.759],[9.988,50.766],[9.969,50.783],[9.944,50.771],[9.955,50.786],[9.944,50.794],[9.957,50.81],[9.952,50.821],[9.899,50.817],[9.892,50.811],[9.896,50.79],[9.881,50.796],[9.812,50.794],[9.799,50.806],[9.807,50.814],[9.791,50.82],[9.74,50.807],[9.729,50.82],[9.7,50.813],[9.695,50.8],[9.629,50.78],[9.602,50.759],[9.56,50.763],[9.553,50.784],[9.501,50.81],[9.511,50.828],[9.507,50.834],[9.518,50.839],[9.495,50.875],[9.547,50.895],[9.561,50.913],[9.597,50.93],[9.616,50.922],[9.692,50.926],[9.712,50.91],[9.753,50.909],[9.755,50.896],[9.748,50.899],[9.73,50.886],[9.813,50.857],[9.934,50.864],[9.953,50.858],[9.89,50.938],[9.896,51.007],[9.842,51.053],[9.794,51.073],[9.772,51.188],[9.79,51.219],[9.77,51.289],[9.713,51.321],[9.69,51.398],[9.734,51.402],[9.726,51.421],[9.657,51.445],[9.551,51.421],[9.502,51.429],[9.474,51.454],[9.227,51.45],[9.025,51.339],[9.017,51.286],[8.895,51.279],[8.656,51.091],[8.604,51.099],[8.527,51.074],[8.468,51.087],[8.461,51.138],[8.341,51.131],[8.31,51.097],[8.234,51.084],[8.201,51.096],[8.177,51.026],[7.944,51.02],[7.939,50.974],[7.951,50.952],[7.933,50.927],[7.858,50.935],[7.84,50.854],[7.813,50.825],[7.795,50.752],[7.914,50.737],[7.953,50.696],[7.944,50.661],[7.885,50.658],[7.839,50.605],[7.77,50.597],[7.695,50.665],[7.646,50.68],[7.539,50.669],[7.457,50.575],[7.399,50.443],[7.523,50.416],[7.578,50.347],[7.633,50.154],[7.325,50.025],[7.221,49.917],[7.232,49.849],[7.202,49.806],[7.147,49.779],[7.092,49.764]],[[8.042,49.523],[8.08,49.545],[8.094,49.534],[8.135,49.562],[8.136,49.555],[8.149,49.554],[8.154,49.541],[8.085,49.513],[8.075,49.519],[8.089,49.524],[8.08,49.533],[8.042,49.523]],[[8.212,49.587],[8.233,49.588],[8.281,49.587],[8.275,49.539],[8.24,49.537],[8.233,49.548],[8.22,49.546],[8.213,49.556],[8.222,49.56],[8.212,49.587]],[[8.275,49.609],[8.278,49.616],[8.374,49.616],[8.39,49.628],[8.418,49.628],[8.443,49.613],[8.487,49.614],[8.516,49.623],[8.532,49.619],[8.573,49.634],[8.562,49.604],[8.591,49.6],[8.59,49.592],[8.554,49.586],[8.513,49.587],[8.495,49.573],[8.464,49.59],[8.423,49.584],[8.414,49.559],[8.423,49.541],[8.394,49.55],[8.376,49.54],[8.372,49.547],[8.353,49.552],[8.359,49.558],[8.317,49.55],[8.311,49.555],[8.325,49.561],[8.317,49.568],[8.325,49.582],[8.344,49.596],[8.338,49.601],[8.29,49.591],[8.283,49.608],[8.275,49.609]]],[[[9.899,50.841],[9.937,50.837],[9.944,50.845],[9.905,50.86],[9.899,50.841]]]]}},{"type":"Feature","properties":{"NAME":"Duchy of Lower Lotharingia","SUBJECTO":"Holy Roman Empire","PARTOF":"Holy Roman Empire","ADMIN_LEVEL":4,"OHM_RELATION_ID":2805253,"START_DATE":"0959","END_DATE":"1190"},"geometry":{"type":"MultiPolygon","coordinates":[[[[3.091,50.121],[3.103,50.082],[3.136,50.058],[3.261,50.052],[3.362,50.028],[3.468,50.051],[3.531,50.039],[3.648,50.046],[3.186,50.19],[3.131,50.181],[3.091,50.121]]],[[[3.466,50.771],[4.1,51.038],[4.067,51.049],[4.009,51.006],[3.92,51.017],[3.816,50.991],[3.769,51.049],[3.738,51.047],[3.722,51],[3.687,50.958],[3.65,50.955],[3.659,50.92],[3.688,50.908],[3.678,50.89],[3.631,50.881],[3.624,50.854],[3.576,50.822],[3.555,50.819],[3.466,50.771]]],[[[3.648,50.046],[3.798,50],[3.656,50.047],[3.648,50.046]]],[[[4.143,51.056],[4.173,51.031],[4.193,51.035],[4.197,51.057],[4.186,51.074],[4.143,51.056]]],[[[4.177,51.086],[4.186,51.074],[4.322,51.131],[4.257,51.114],[4.216,51.12],[4.182,51.1],[4.177,51.086]]],[[[4.242,51.354],[4.268,51.336],[4.848,49.796],[5.757,49.833],[6.015,49.85],[6.155,49.895],[6.273,49.979],[6.248,50.092],[6.262,50.233],[6.375,50.302],[6.567,50.298],[6.633,50.196],[6.787,50.209],[6.957,50.263],[7.072,50.437],[7.229,50.48],[7.399,50.443],[7.457,50.575],[7.539,50.669],[7.646,50.68],[7.695,50.665],[7.77,50.597],[7.839,50.605],[7.885,50.658],[7.944,50.661],[7.953,50.696],[7.914,50.737],[7.795,50.752],[7.813,50.825],[7.84,50.854],[7.858,50.935],[7.726,51.001],[7.717,51.057],[7.682,51.081],[7.611,51.081],[7.487,51.126],[7.421,51.215],[7.234,51.253],[7.133,51.296],[7.052,51.354],[7.036,51.347],[6.991,51.359],[6.967,51.347],[6.952,51.349],[6.897,51.389],[6.925,51.406],[6.926,51.429],[6.937,51.435],[6.932,51.438],[6.739,51.513],[6.706,51.618],[6.799,51.64],[6.946,51.661],[6.963,51.671],[6.933,51.701],[6.752,51.76],[6.632,51.736],[6.49,51.822],[6.419,51.752],[6.354,51.754],[6.335,51.762],[6.305,51.805],[6.251,51.826],[6.113,51.846],[6.012,51.883],[5.971,51.854],[5.917,51.876],[5.865,51.851],[5.701,51.895],[5.6,51.895],[5.466,51.924],[5.421,51.918],[5.491,51.83],[5.54,51.818],[5.552,51.827],[5.594,51.829],[5.643,51.819],[5.663,51.795],[5.736,51.77],[5.76,51.752],[5.554,51.696],[5.283,51.644],[5.216,51.653],[4.984,51.642],[4.853,51.668],[4.64,51.627],[4.488,51.613],[4.493,51.499],[4.473,51.475],[4.491,51.395],[4.436,51.36],[4.242,51.354]],[[5.834,51.274],[5.844,51.278],[5.858,51.311],[5.906,51.294],[5.906,51.3],[5.925,51.309],[6.009,51.278],[6.007,51.255],[5.999,51.249],[6.006,51.231],[5.968,51.22],[5.977,51.202],[5.934,51.188],[5.917,51.174],[5.923,51.172],[5.872,51.168],[5.858,51.181],[5.876,51.182],[5.893,51.217],[5.893,51.24],[5.859,51.24],[5.841,51.25],[5.834,51.274]]]]}},{"type":"Feature","properties":{"NAME":"Duchy of Saxony","SUBJECTO":"Holy Roman Empire","PARTOF":"Holy Roman Empire","ADMIN_LEVEL":4,"OHM_RELATION_ID":2805386,"START_DATE":"0804","END_DATE":"1180"},"geometry":{"type":"Polygon","coordinates":[[[6.237,51.987],[6.276,51.899],[6.49,51.822],[6.632,51.736],[6.752,51.76],[6.933,51.701],[6.963,51.671],[6.946,51.661],[6.799,51.64],[6.706,51.618],[6.739,51.513],[6.932,51.438],[6.937,51.435],[6.946,51.44],[6.958,51.432],[6.986,51.433],[7.016,51.419],[7.046,51.419],[7.063,51.439],[7.08,51.443],[7.096,51.41],[7.119,51.392],[7.117,51.381],[7.052,51.354],[7.133,51.296],[7.234,51.253],[7.421,51.215],[7.487,51.126],[7.611,51.081],[7.682,51.081],[7.717,51.057],[7.726,51.001],[7.858,50.935],[7.933,50.927],[7.951,50.952],[7.939,50.974],[7.944,51.02],[8.177,51.026],[8.201,51.096],[8.234,51.084],[8.31,51.097],[8.341,51.131],[8.461,51.138],[8.468,51.087],[8.527,51.074],[8.604,51.099],[8.656,51.091],[8.895,51.279],[9.017,51.286],[9.025,51.339],[9.227,51.45],[9.474,51.454],[9.502,51.429],[9.551,51.421],[9.657,51.445],[9.726,51.421],[9.734,51.402],[9.862,51.338],[10.018,51.445],[10.279,51.486],[10.385,51.551],[10.435,51.566],[10.529,51.565],[10.54,51.585],[10.53,51.61],[10.537,51.643],[10.607,51.715],[10.717,51.693],[10.86,51.636],[11.194,51.618],[11.308,51.58],[11.426,51.528],[11.468,51.462],[11.341,51.418],[11.334,51.338],[11.45,51.28],[11.537,51.269],[11.577,51.298],[11.649,51.284],[11.635,51.249],[11.673,51.251],[11.678,51.229],[11.737,51.208],[11.761,51.211],[11.803,51.176],[11.829,51.172],[11.83,51.157],[11.853,51.154],[11.867,51.163],[11.861,51.187],[11.903,51.187],[11.926,51.203],[11.974,51.206],[12.022,51.238],[12.062,51.292],[12.035,51.331],[12.015,51.342],[11.922,51.445],[11.96,51.479],[11.943,51.521],[11.892,51.536],[11.828,51.531],[11.83,51.573],[11.762,51.587],[11.753,51.656],[11.667,51.718],[11.712,51.741],[11.703,51.785],[11.781,51.804],[11.766,51.862],[11.799,51.913],[11.921,51.945],[11.88,51.984],[11.891,52.006],[11.879,52.026],[11.856,52.025],[11.841,52.008],[11.715,52.043],[11.645,52.123],[11.675,52.156],[11.717,52.263],[11.78,52.332],[11.862,52.351],[11.941,52.396],[12.001,52.446],[11.996,52.49],[11.972,52.535],[12,52.569],[12.029,52.625],[12.053,52.748],[12.014,52.865],[11.922,52.897],[11.88,52.896],[11.868,52.933],[11.841,52.96],[11.654,52.996],[11.6,53.038],[11.511,53.048],[11.448,53.079],[11.34,53.054],[11.259,53.126],[11.223,53.143],[11.219,53.144],[11.189,53.135],[11.188,53.136],[11.186,53.135],[11.172,53.157],[11.149,53.168],[11.131,53.167],[11.092,53.138],[10.997,53.175],[10.893,53.241],[10.806,53.259],[10.729,53.304],[10.743,53.329],[10.73,53.352],[10.7,53.369],[10.595,53.364],[10.622,53.382],[10.649,53.447],[10.691,53.503],[10.687,53.55],[10.61,53.572],[10.569,53.611],[10.546,53.693],[10.552,53.78],[10.471,53.888],[10.489,53.964],[10.474,54.038],[10.37,54.086],[10.376,54.113],[10.327,54.117],[10.316,54.158],[10.403,54.168],[10.397,54.234],[10.316,54.248],[10.261,54.325],[10.217,54.355],[10.173,54.291],[10.17,54.291],[10.189,54.28],[10.166,54.274],[10.152,54.259],[10.145,54.239],[10.16,54.22],[10.128,54.214],[10.125,54.196],[10.086,54.17],[10.069,54.168],[10.035,54.214],[10.032,54.214],[10.033,54.216],[10.03,54.219],[10.036,54.236],[10.04,54.237],[10.057,54.287],[10.056,54.288],[10.022,54.286],[10.005,54.294],[9.981,54.285],[9.952,54.31],[9.953,54.31],[9.921,54.322],[9.922,54.344],[9.874,54.359],[9.87,54.367],[9.812,54.364],[9.773,54.352],[9.711,54.317],[9.651,54.301],[9.597,54.221],[9.547,54.195],[9.441,54.174],[9.442,54.201],[9.43,54.211],[9.443,54.224],[9.434,54.238],[9.444,54.242],[9.444,54.243],[9.423,54.263],[9.42,54.265],[9.404,54.266],[9.4,54.276],[9.376,54.29],[9.363,54.287],[9.362,54.28],[9.343,54.282],[9.31,54.275],[9.302,54.272],[9.3,54.273],[9.288,54.27],[9.275,54.296],[9.26,54.305],[9.269,54.308],[9.257,54.33],[9.227,54.328],[9.227,54.324],[9.19,54.319],[9.192,54.326],[9.164,54.324],[9.171,54.317],[9.16,54.318],[9.145,54.321],[9.145,54.323],[9.135,54.322],[9.092,54.365],[9.006,54.376],[8.897,54.263],[8.794,54.269],[8.734,54.25],[8.531,54.221],[8.529,54.193],[8.542,54.169],[8.529,54.152],[8.527,54.124],[8.512,54.097],[8.521,54.061],[8.52,54.024],[8.523,54.012],[8.386,54.025],[8.33,54.022],[8.281,53.996],[8.264,53.959],[8.268,53.939],[8.288,53.911],[8.582,53.806],[8.605,53.549],[8.499,53.493],[8.487,53.373],[8.3,53.364],[8.263,53.342],[8.204,53.34],[8.216,53.355],[8.171,53.387],[8.123,53.377],[8.091,53.355],[8.026,53.365],[7.943,53.333],[7.792,53.219],[7.769,53.182],[7.678,53.169],[7.622,53.145],[7.623,53.112],[7.612,53.077],[7.537,53.056],[7.445,53.089],[7.203,53.113],[7.036,53.097],[6.996,53.132],[6.939,53.125],[6.913,53.082],[6.842,53.079],[6.823,53.04],[6.858,52.949],[7.009,52.882],[7.056,52.818],[7.035,52.629],[7.087,52.585],[7.088,52.551],[6.993,52.515],[7.048,52.238],[7.02,52.206],[6.869,52.176],[6.831,52.113],[6.735,52.112],[6.537,52.174],[6.33,52.086],[6.237,51.987]]]}},{"type":"Feature","properties":{"NAME":"Duchy of Swabia","SUBJECTO":"Holy Roman Empire","PARTOF":"Holy Roman Empire","ADMIN_LEVEL":4,"OHM_RELATION_ID":2805256,"START_DATE":"0922","END_DATE":"1268-10-28"},"geometry":{"type":"MultiPolygon","coordinates":[[[[7.695,49.134],[7.592,49.066],[7.59,49.043],[7.533,49.019],[7.497,49.019],[7.339,48.942],[7.327,48.918],[7.334,48.901],[7.358,48.893],[7.35,48.863],[7.215,48.812],[7.193,48.777],[7.228,48.746],[7.18,48.72],[7.185,48.656],[7.241,48.614],[7.228,48.548],[7.185,48.517],[7.171,48.467],[7.134,48.46],[7.11,48.382],[7.171,48.357],[7.199,48.308],[7.121,48.241],[7.122,48.175],[7.092,48.149],[7.078,48.102],[7.024,48.041],[6.961,48.022],[6.969,47.935],[6.893,47.836],[6.823,47.814],[6.741,47.754],[6.761,47.7],[6.716,47.671],[6.79,47.598],[6.839,47.612],[6.894,47.653],[7.189,47.523],[7.162,47.485],[7.335,47.447],[7.43,47.462],[7.535,47.543],[7.572,47.612],[7.618,47.619],[7.693,47.578],[7.803,47.598],[7.854,47.62],[7.929,47.613],[7.965,47.591],[8.183,47.657],[8.255,47.59],[8.275,47.464],[8.361,47.416],[8.429,47.283],[8.443,47.203],[8.388,47.142],[8.352,47.044],[8.366,46.819],[8.453,46.775],[8.458,46.707],[8.428,46.664],[8.425,46.558],[8.464,46.536],[8.633,46.605],[8.746,46.632],[8.836,46.614],[8.893,46.423],[8.863,46.385],[8.931,46.288],[8.946,46.18],[8.928,46.13],[9.009,46.148],[9.108,46.147],[9.248,46.253],[9.454,46.269],[9.553,46.328],[9.682,46.342],[9.756,46.407],[9.86,46.426],[9.94,46.48],[10.009,46.492],[10.107,46.605],[10.24,46.632],[10.333,46.547],[10.453,46.531],[10.491,46.563],[10.488,46.622],[10.405,46.634],[10.384,46.688],[10.417,46.708],[10.423,46.777],[10.452,46.809],[10.486,46.911],[10.485,46.943],[10.424,46.959],[10.428,46.974],[10.392,47],[10.349,46.99],[10.307,46.926],[10.24,46.93],[10.232,46.873],[10.152,46.853],[10.101,46.984],[10.121,47.137],[10.21,47.179],[10.248,47.173],[10.268,47.207],[10.429,47.225],[10.466,47.199],[10.583,47.301],[10.643,47.311],[10.709,47.353],[10.753,47.363],[10.758,47.413],[10.842,47.451],[10.854,47.5],[10.927,47.567],[10.915,47.614],[10.896,47.614],[10.916,47.662],[10.926,47.756],[10.968,47.815],[11.085,47.889],[11.017,48.025],[11.093,48.325],[11.025,48.375],[10.984,48.381],[10.974,48.428],[10.904,48.456],[10.911,48.516],[10.96,48.679],[10.996,48.732],[10.938,48.726],[10.867,48.734],[10.829,48.755],[10.744,48.777],[10.664,48.821],[10.664,48.882],[10.615,48.925],[10.624,48.988],[10.601,49.021],[10.551,49.066],[10.475,49.083],[10.455,49.127],[10.404,49.147],[10.349,49.26],[10.234,49.257],[10.164,49.239],[10.195,49.174],[10.232,49.148],[10.216,49.113],[10.177,49.098],[10.16,49.051],[10.102,49.027],[10.022,49.043],[9.966,49.009],[9.849,49.004],[9.759,48.977],[9.638,48.96],[9.597,48.92],[9.476,48.918],[9.439,48.892],[9.369,48.899],[9.363,48.882],[9.132,48.878],[9.119,48.819],[8.995,48.805],[8.951,48.773],[8.915,48.791],[8.847,48.764],[8.803,48.72],[8.674,48.76],[8.535,48.751],[8.519,48.686],[8.48,48.67],[8.447,48.676],[8.407,48.653],[8.356,48.664],[8.267,48.792],[8.182,48.804],[8.133,48.829],[8.203,48.941],[8.194,48.964],[8.032,48.963],[7.971,48.998],[7.902,49.011],[7.876,49.043],[7.877,49.064],[7.821,49.095],[7.777,49.104],[7.728,49.128],[7.695,49.134]]]]}},{"type":"Feature","properties":{"NAME":"Duchy of Thuringia","SUBJECTO":"Holy Roman Empire","PARTOF":"Holy Roman Empire","ADMIN_LEVEL":4,"OHM_RELATION_ID":2805287,"START_DATE":"0962","END_DATE":"1100"},"geometry":{"type":"MultiPolygon","coordinates":[[[[9.69,51.398],[9.713,51.321],[9.77,51.289],[9.79,51.219],[9.772,51.188],[9.794,51.073],[9.842,51.053],[9.896,51.007],[9.89,50.938],[9.953,50.858],[9.982,50.85],[10.044,50.876],[10.061,50.876],[10.05,50.857],[10.054,50.851],[10.041,50.841],[10.057,50.821],[10.079,50.81],[10.078,50.79],[10.086,50.784],[10.075,50.783],[10.069,50.761],[10.06,50.76],[10.093,50.743],[10.169,50.731],[10.284,50.744],[10.346,50.735],[10.367,50.825],[10.413,50.85],[10.467,50.829],[10.511,50.77],[10.683,50.711],[10.923,50.654],[10.97,50.615],[10.942,50.588],[10.931,50.553],[10.968,50.515],[11.045,50.488],[11.275,50.496],[11.378,50.467],[11.471,50.46],[11.504,50.448],[11.497,50.484],[11.536,50.515],[11.577,50.538],[11.671,50.569],[11.641,50.6],[11.654,50.636],[11.692,50.661],[11.779,50.66],[11.883,50.696],[11.97,50.768],[11.985,50.813],[11.887,50.832],[11.556,50.781],[11.617,50.847],[11.581,50.915],[11.668,50.989],[11.694,51.025],[11.677,51.044],[11.71,51.052],[11.667,51.109],[11.709,51.112],[11.72,51.144],[11.774,51.157],[11.803,51.176],[11.761,51.211],[11.737,51.208],[11.678,51.229],[11.673,51.251],[11.635,51.249],[11.649,51.284],[11.577,51.298],[11.537,51.269],[11.45,51.28],[11.334,51.338],[11.341,51.418],[11.468,51.462],[11.426,51.528],[11.308,51.58],[11.194,51.618],[10.86,51.636],[10.717,51.693],[10.607,51.715],[10.537,51.643],[10.53,51.61],[10.54,51.585],[10.529,51.565],[10.435,51.566],[10.385,51.551],[10.279,51.486],[10.018,51.445],[9.862,51.338],[9.734,51.402],[9.69,51.398]],[[10.074,50.879],[10.094,50.893],[10.111,50.893],[10.137,50.907],[10.143,50.894],[10.17,50.902],[10.179,50.883],[10.198,50.88],[10.211,50.894],[10.22,50.888],[10.19,50.873],[10.185,50.866],[10.21,50.863],[10.189,50.853],[10.143,50.857],[10.114,50.869],[10.1,50.866],[10.092,50.874],[10.076,50.872],[10.074,50.879]],[[10.771,50.859],[10.804,50.887],[10.819,50.89],[10.821,50.921],[10.86,50.916],[10.862,50.88],[10.874,50.878],[10.862,50.851],[10.845,50.839],[10.787,50.843],[10.771,50.859]],[[10.781,50.986],[10.836,51.007],[10.889,50.995],[10.915,51.004],[10.911,51.021],[10.87,51.028],[10.869,51.058],[10.831,51.073],[10.838,51.095],[10.88,51.098],[10.884,51.084],[10.91,51.089],[10.95,51.101],[10.948,51.116],[10.957,51.119],[10.951,51.125],[10.97,51.124],[10.981,51.097],[10.964,51.086],[10.988,51.036],[11.025,51.031],[11.028,51.059],[11.02,51.06],[11.023,51.066],[11.041,51.065],[11.044,51.08],[11.081,51.074],[11.085,51.065],[11.128,51.082],[11.126,51.06],[11.147,51.066],[11.159,51.057],[11.177,51.07],[11.206,51.036],[11.195,51.021],[11.214,51.006],[11.237,51.007],[11.226,50.997],[11.241,50.985],[11.266,50.985],[11.267,50.971],[11.221,50.95],[11.232,50.946],[11.221,50.931],[11.253,50.889],[11.246,50.875],[11.208,50.882],[11.206,50.865],[11.181,50.879],[11.172,50.875],[11.188,50.872],[11.178,50.867],[11.152,50.877],[11.127,50.902],[11.113,50.893],[11.036,50.88],[11.024,50.859],[11.005,50.864],[10.995,50.874],[11.007,50.895],[11.055,50.896],[11.055,50.91],[10.98,50.904],[10.97,50.922],[11.023,50.929],[11.026,50.938],[11.002,50.939],[11,50.948],[10.953,50.938],[10.939,50.947],[10.912,50.941],[10.916,50.93],[10.905,50.923],[10.876,50.927],[10.868,50.942],[10.897,50.945],[10.894,50.961],[10.855,50.963],[10.852,50.952],[10.827,50.951],[10.832,50.99],[10.814,50.98],[10.781,50.986]],[[11.061,51.15],[11.086,51.151],[11.085,51.169],[11.115,51.174],[11.115,51.185],[11.128,51.18],[11.122,51.172],[11.157,51.163],[11.174,51.128],[11.175,51.106],[11.138,51.092],[11.093,51.112],[11.102,51.118],[11.097,51.128],[11.064,51.129],[11.061,51.15]],[[11.226,51.071],[11.266,51.073],[11.272,51.061],[11.257,51.055],[11.263,51.052],[11.273,51.052],[11.28,51.062],[11.312,51.054],[11.296,51.032],[11.274,51.026],[11.229,51.049],[11.226,51.071]],[[11.255,51.103],[11.256,51.131],[11.287,51.127],[11.294,51.126],[11.282,51.102],[11.255,51.103]],[[11.289,50.867],[11.32,50.873],[11.353,50.895],[11.357,50.911],[11.338,50.924],[11.381,50.925],[11.395,50.902],[11.418,50.898],[11.399,50.89],[11.379,50.865],[11.409,50.857],[11.405,50.833],[11.364,50.832],[11.358,50.815],[11.335,50.819],[11.307,50.804],[11.289,50.867]]],[[[11.108,51.035],[11.124,51.021],[11.147,51.017],[11.144,51.009],[11.151,51.004],[11.188,51.022],[11.155,51.037],[11.108,51.035]]],[[[11.12,50.918],[11.134,50.905],[11.147,50.908],[11.176,50.896],[11.19,50.903],[11.191,50.91],[11.153,50.919],[11.12,50.918]]],[[[11.17,50.94],[11.188,50.938],[11.188,50.948],[11.172,50.956],[11.17,50.94]]]]}},{"type":"Feature","properties":{"NAME":"Duchy of Upper Lotharingia","SUBJECTO":"Holy Roman Empire","PARTOF":"Holy Roman Empire","ADMIN_LEVEL":4,"OHM_RELATION_ID":2805254,"START_DATE":"0959","END_DATE":"1100"},"geometry":{"type":"MultiPolygon","coordinates":[[[[7.399,50.443],[7.229,50.48],[7.072,50.437],[6.957,50.263],[6.787,50.209],[6.633,50.196],[6.567,50.298],[6.375,50.302],[6.262,50.233],[6.248,50.092],[6.273,49.979],[6.155,49.895],[6.015,49.85],[5.757,49.833],[4.682,49.789],[4.618,49.727],[4.684,49.653],[4.816,49.565],[4.83,49.458],[4.79,49.354],[4.791,49.284],[4.732,49.201],[4.822,49.166],[4.941,49.148],[5.024,49.126],[5.05,49.052],[4.981,48.986],[4.927,48.917],[4.944,48.857],[5.011,48.853],[5.051,48.84],[5.109,48.749],[5.107,48.682],[5.159,48.635],[5.236,48.617],[5.256,48.585],[5.254,48.356],[5.342,48.335],[5.365,48.303],[5.422,48.29],[5.474,48.226],[5.461,48.178],[5.471,48.136],[5.551,48.129],[5.622,48.092],[5.627,48.061],[5.677,48.062],[5.727,48.084],[5.922,48.085],[6.015,48.011],[6.088,48.024],[6.084,48.05],[6.027,48.115],[6.008,48.178],[6.13,48.178],[6.225,48.097],[6.38,48.086],[6.428,47.986],[6.475,47.973],[6.511,47.986],[6.563,47.97],[6.659,47.882],[6.823,47.814],[6.893,47.836],[6.969,47.935],[6.961,48.022],[7.024,48.041],[7.078,48.102],[7.092,48.149],[7.122,48.175],[7.121,48.241],[7.199,48.308],[7.171,48.357],[7.11,48.382],[7.134,48.46],[7.171,48.467],[7.185,48.517],[7.228,48.548],[7.241,48.614],[7.185,48.656],[7.18,48.72],[7.228,48.746],[7.193,48.777],[7.215,48.812],[7.35,48.863],[7.358,48.893],[7.334,48.901],[7.327,48.918],[7.339,48.942],[7.497,49.019],[7.533,49.019],[7.59,49.043],[7.592,49.066],[7.695,49.134],[7.711,49.233],[7.659,49.275],[7.626,49.279],[7.603,49.312],[7.572,49.319],[7.537,49.35],[7.507,49.349],[7.506,49.373],[7.487,49.392],[7.449,49.397],[7.445,49.411],[7.393,49.449],[7.322,49.447],[7.292,49.469],[7.227,49.469],[7.215,49.488],[7.188,49.508],[7.18,49.543],[7.21,49.546],[7.256,49.534],[7.256,49.549],[7.27,49.56],[7.243,49.595],[7.274,49.624],[7.277,49.652],[7.233,49.693],[7.144,49.713],[7.092,49.764],[7.147,49.779],[7.202,49.806],[7.232,49.849],[7.221,49.917],[7.325,50.025],[7.633,50.154],[7.578,50.347],[7.523,50.416],[7.399,50.443]]]]}},{"type":"Feature","properties":{"NAME":"Erfurt Territory","SUBJECTO":"Holy Roman Empire","PARTOF":"Holy Roman Empire","ADMIN_LEVEL":5,"OHM_RELATION_ID":2831882,"START_DATE":"1000","END_DATE":"1803-04-27"},"geometry":{"type":"MultiPolygon","coordinates":[[[[10.821,50.921],[10.819,50.89],[10.804,50.887],[10.771,50.859],[10.787,50.843],[10.845,50.839],[10.862,50.851],[10.874,50.878],[10.862,50.88],[10.86,50.916],[10.821,50.921]]],[[[11.023,50.929],[10.97,50.922],[10.98,50.904],[11.055,50.91],[11.055,50.896],[11.007,50.895],[10.995,50.874],[11.005,50.864],[11.024,50.859],[11.036,50.88],[11.113,50.893],[11.127,50.902],[11.152,50.877],[11.178,50.867],[11.188,50.872],[11.172,50.875],[11.181,50.879],[11.206,50.865],[11.208,50.882],[11.246,50.875],[11.253,50.889],[11.221,50.931],[11.232,50.946],[11.221,50.95],[11.267,50.971],[11.266,50.985],[11.241,50.985],[11.226,50.997],[11.237,51.007],[11.214,51.006],[11.195,51.021],[11.206,51.036],[11.177,51.07],[11.159,51.057],[11.147,51.066],[11.126,51.06],[11.128,51.082],[11.085,51.065],[11.081,51.074],[11.044,51.08],[11.041,51.065],[11.023,51.066],[11.02,51.06],[11.028,51.059],[11.025,51.031],[10.988,51.036],[10.964,51.086],[10.981,51.097],[10.97,51.124],[10.951,51.125],[10.957,51.119],[10.948,51.116],[10.95,51.101],[10.91,51.089],[10.884,51.084],[10.88,51.098],[10.838,51.095],[10.831,51.073],[10.869,51.058],[10.87,51.028],[10.911,51.021],[10.915,51.004],[10.889,50.995],[10.836,51.007],[10.781,50.986],[10.814,50.98],[10.832,50.99],[10.827,50.951],[10.852,50.952],[10.855,50.963],[10.894,50.961],[10.897,50.945],[10.868,50.942],[10.876,50.927],[10.905,50.923],[10.916,50.93],[10.912,50.941],[10.939,50.947],[10.953,50.938],[11,50.948],[11.002,50.939],[11.026,50.938],[11.023,50.929]],[[11.153,50.919],[11.191,50.91],[11.19,50.903],[11.176,50.896],[11.147,50.908],[11.134,50.905],[11.12,50.918],[11.153,50.919]],[[11.17,50.94],[11.172,50.956],[11.188,50.948],[11.188,50.938],[11.17,50.94]],[[11.108,51.035],[11.155,51.037],[11.188,51.022],[11.151,51.004],[11.144,51.009],[11.147,51.017],[11.124,51.021],[11.108,51.035]]],[[[11.307,50.804],[11.335,50.819],[11.358,50.815],[11.364,50.832],[11.405,50.833],[11.409,50.857],[11.379,50.865],[11.399,50.89],[11.418,50.898],[11.395,50.902],[11.381,50.925],[11.338,50.924],[11.357,50.911],[11.353,50.895],[11.32,50.873],[11.289,50.867],[11.307,50.804]]],[[[11.093,51.112],[11.138,51.092],[11.175,51.106],[11.174,51.128],[11.157,51.163],[11.122,51.172],[11.128,51.18],[11.115,51.185],[11.115,51.174],[11.085,51.169],[11.086,51.151],[11.061,51.15],[11.064,51.129],[11.097,51.128],[11.102,51.118],[11.093,51.112]]],[[[11.226,51.071],[11.229,51.049],[11.274,51.026],[11.296,51.032],[11.312,51.054],[11.28,51.062],[11.273,51.052],[11.263,51.052],[11.257,51.055],[11.272,51.061],[11.266,51.073],[11.226,51.071]]],[[[11.287,51.127],[11.256,51.131],[11.255,51.103],[11.282,51.102],[11.294,51.126],[11.287,51.127]]]]}},{"type":"Feature","properties":{"NAME":"Imperial Abbey of Hersfeld","SUBJECTO":"Holy Roman Empire","PARTOF":"Holy Roman Empire","ADMIN_LEVEL":4,"OHM_RELATION_ID":2830973,"START_DATE":"0775","END_DATE":"1648-10-24"},"geometry":{"type":"MultiPolygon","coordinates":[[[[10.061,50.876],[10.044,50.876],[9.982,50.85],[9.934,50.864],[9.813,50.857],[9.73,50.886],[9.748,50.899],[9.755,50.896],[9.753,50.909],[9.712,50.91],[9.692,50.926],[9.616,50.922],[9.597,50.93],[9.561,50.913],[9.547,50.895],[9.495,50.875],[9.518,50.839],[9.507,50.834],[9.511,50.828],[9.501,50.81],[9.553,50.784],[9.56,50.763],[9.602,50.759],[9.629,50.78],[9.695,50.8],[9.7,50.813],[9.729,50.82],[9.74,50.807],[9.791,50.82],[9.807,50.814],[9.799,50.806],[9.812,50.794],[9.881,50.796],[9.896,50.79],[9.892,50.811],[9.899,50.817],[9.952,50.821],[9.957,50.81],[9.944,50.794],[9.955,50.786],[9.944,50.771],[9.969,50.783],[9.988,50.766],[10.04,50.758],[10.048,50.748],[10.043,50.734],[10.079,50.707],[10.076,50.72],[10.097,50.74],[10.06,50.76],[10.069,50.761],[10.075,50.783],[10.086,50.784],[10.078,50.79],[10.079,50.81],[10.057,50.821],[10.041,50.841],[10.054,50.851],[10.05,50.857],[10.061,50.876]],[[9.937,50.837],[9.899,50.841],[9.905,50.86],[9.944,50.845],[9.937,50.837]]],[[[10.074,50.879],[10.076,50.872],[10.092,50.874],[10.1,50.866],[10.114,50.869],[10.143,50.857],[10.189,50.853],[10.21,50.863],[10.185,50.866],[10.19,50.873],[10.22,50.888],[10.211,50.894],[10.198,50.88],[10.179,50.883],[10.17,50.902],[10.143,50.894],[10.137,50.907],[10.111,50.893],[10.094,50.893],[10.074,50.879]]]]}},{"type":"Feature","properties":{"NAME":"Imperial Abbey of Werden","SUBJECTO":"Holy Roman Empire","PARTOF":"Holy Roman Empire","ADMIN_LEVEL":4,"OHM_RELATION_ID":2831007,"START_DATE":"0877-05-22","END_DATE":"1803-04-27"},"geometry":{"type":"MultiPolygon","coordinates":[[[[6.926,51.429],[6.925,51.406],[6.897,51.389],[6.952,51.349],[6.967,51.347],[6.991,51.359],[7.036,51.347],[7.117,51.381],[7.119,51.392],[7.096,51.41],[7.08,51.443],[7.063,51.439],[7.046,51.419],[7.016,51.419],[6.986,51.433],[6.958,51.432],[6.946,51.44],[6.926,51.429]]]]}},{"type":"Feature","properties":{"NAME":"March of Meissen","SUBJECTO":"Holy Roman Empire","PARTOF":"Holy Roman Empire","ADMIN_LEVEL":4,"OHM_RELATION_ID":2890092,"START_DATE":"0982","END_DATE":"1002"},"geometry":{"type":"MultiPolygon","coordinates":[[[[15.413,51.394],[15.136,51.395],[15.129,51.383],[15.052,51.38],[14.953,51.393],[14.963,51.438],[14.931,51.482],[14.879,51.484],[14.801,51.523],[14.772,51.523],[14.753,51.547],[14.757,51.57],[14.632,51.57],[14.626,51.548],[14.593,51.547],[14.565,51.584],[14.537,51.592],[14.515,51.585],[14.504,51.539],[14.186,51.541],[14.17,51.519],[14.09,51.505],[14.06,51.464],[13.955,51.493],[13.914,51.451],[13.826,51.457],[13.686,51.432],[13.571,51.433],[13.472,51.473],[13.428,51.452],[13.302,51.442],[13.236,51.401],[13.14,51.401],[13.079,51.44],[12.936,51.372],[12.791,51.363],[12.769,51.437],[12.695,51.495],[12.634,51.492],[12.541,51.387],[12.354,51.387],[12.165,51.358],[12.137,51.377],[12.015,51.342],[12.035,51.331],[12.062,51.292],[12.022,51.238],[11.974,51.206],[11.926,51.203],[11.903,51.187],[11.861,51.187],[11.867,51.163],[11.853,51.154],[11.83,51.157],[11.829,51.172],[11.803,51.176],[11.774,51.157],[11.72,51.144],[11.709,51.112],[11.667,51.109],[11.71,51.052],[11.677,51.044],[11.694,51.025],[11.668,50.989],[11.581,50.915],[11.617,50.847],[11.556,50.781],[11.887,50.832],[11.985,50.813],[11.97,50.768],[11.883,50.696],[11.779,50.66],[11.692,50.661],[11.654,50.636],[11.641,50.6],[11.671,50.569],[11.577,50.538],[11.536,50.515],[11.497,50.484],[11.504,50.448],[11.543,50.434],[11.651,50.434],[11.746,50.453],[11.979,50.455],[12.095,50.382],[12.327,50.416],[12.401,50.37],[12.497,50.366],[12.511,50.391],[12.66,50.425],[12.704,50.406],[12.8,50.41],[12.881,50.441],[13.024,50.437],[13.064,50.54],[13.149,50.513],[13.307,50.624],[13.395,50.654],[13.45,50.624],[13.537,50.622],[13.564,50.683],[13.633,50.749],[13.825,50.771],[14.197,50.856],[14.359,50.917],[14.389,50.974],[14.623,50.971],[14.648,50.87],[14.865,50.835],[15.279,50.896],[15.347,50.921],[15.391,50.975],[15.387,50.994],[15.413,51.019],[15.388,51.031],[15.374,51.02],[15.348,51.018],[15.336,51.019],[15.331,51.033],[15.291,51.035],[15.287,51.028],[15.267,51.025],[15.259,51.032],[15.26,51.043],[15.275,51.05],[15.301,51.089],[15.296,51.127],[15.318,51.16],[15.39,51.192],[15.407,51.25],[15.434,51.296],[15.421,51.31],[15.431,51.335],[15.419,51.361],[15.43,51.373],[15.428,51.385],[15.413,51.394]]]]}},{"type":"Feature","properties":{"NAME":"March of Verona","SUBJECTO":"Holy Roman Empire","PARTOF":"Holy Roman Empire","ADMIN_LEVEL":4,"OHM_RELATION_ID":2805258,"START_DATE":"0888","END_DATE":"1151"},"geometry":{"type":"MultiPolygon","coordinates":[[[[10.841,45.298],[10.885,45.274],[10.916,45.199],[10.969,45.153],[11.041,45.137],[11.077,45.112],[11.066,45.043],[11.125,45.062],[11.163,45.045],[11.196,45.056],[11.239,45.044],[11.266,45.055],[11.268,45.091],[11.315,45.09],[11.367,45.062],[11.489,45.149],[11.545,45.166],[11.775,45.136],[11.922,45.151],[12.104,45.127],[12.15,45.101],[12.159,45.125],[12.153,45.237],[12.173,45.317],[12.168,45.457],[12.266,45.556],[12.355,45.585],[12.439,45.589],[12.767,45.649],[12.781,45.631],[12.826,45.624],[12.892,45.559],[12.967,45.587],[13.121,45.605],[13.143,45.621],[13.154,45.646],[13.204,45.677],[13.281,45.674],[13.37,45.642],[13.458,45.646],[13.497,45.671],[13.579,45.695],[13.599,45.712],[13.605,45.73],[13.641,45.713],[13.748,45.768],[14.01,45.984],[13.998,46.137],[13.931,46.172],[13.789,46.292],[13.839,46.336],[13.773,46.413],[13.615,46.414],[13.517,46.383],[13.501,46.409],[13.434,46.436],[13.439,46.453],[13.463,46.465],[13.456,46.475],[13.352,46.477],[13.288,46.518],[13.211,46.527],[13.202,46.546],[13.148,46.578],[13.022,46.602],[12.91,46.61],[12.848,46.605],[12.834,46.61],[12.837,46.627],[12.819,46.628],[12.784,46.645],[12.763,46.648],[12.735,46.636],[12.691,46.657],[12.641,46.652],[12.619,46.662],[12.569,46.651],[12.505,46.679],[12.434,46.668],[12.406,46.643],[12.382,46.644],[12.378,46.636],[12.39,46.627],[12.383,46.623],[12.36,46.619],[12.342,46.631],[12.315,46.63],[12.307,46.619],[12.284,46.617],[12.261,46.63],[12.244,46.624],[12.242,46.616],[12.211,46.61],[12.192,46.594],[12.194,46.622],[12.183,46.621],[12.161,46.637],[12.144,46.634],[12.07,46.675],[12.066,46.654],[12.075,46.643],[12.064,46.622],[12.044,46.607],[12.047,46.584],[11.997,46.534],[11.99,46.546],[11.949,46.54],[11.944,46.529],[11.828,46.509],[11.748,46.505],[11.716,46.512],[11.645,46.491],[11.601,46.387],[11.563,46.38],[11.558,46.349],[11.484,46.36],[11.452,46.336],[11.34,46.297],[11.244,46.232],[11.167,46.292],[11.205,46.35],[11.22,46.469],[11.19,46.507],[11.094,46.537],[10.862,46.434],[10.799,46.444],[10.765,46.487],[10.621,46.448],[10.53,46.471],[10.513,46.295],[10.432,46.252],[10.43,46.205],[10.414,46.14],[10.475,46.082],[10.448,45.98],[10.441,45.916],[10.399,45.837],[10.35,45.823],[10.332,45.761],[10.331,45.662],[10.361,45.581],[10.457,45.523],[10.494,45.474],[10.578,45.437],[10.662,45.419],[10.759,45.358],[10.793,45.316],[10.841,45.298]]]]}},{"type":"Feature","properties":{"NAME":"Prince-Bishopric of Passau","SUBJECTO":"Holy Roman Empire","PARTOF":"Holy Roman Empire","ADMIN_LEVEL":4,"OHM_RELATION_ID":2809505,"START_DATE":"999","END_DATE":"1803-04-27"},"geometry":{"type":"MultiPolygon","coordinates":[[[[13.234,48.671],[13.242,48.655],[13.266,48.644],[13.267,48.608],[13.385,48.595],[13.408,48.578],[13.45,48.576],[13.438,48.566],[13.401,48.567],[13.39,48.542],[13.362,48.531],[13.362,48.488],[13.383,48.487],[13.387,48.473],[13.41,48.476],[13.435,48.497],[13.447,48.494],[13.457,48.511],[13.436,48.553],[13.45,48.564],[13.475,48.556],[13.475,48.562],[13.504,48.572],[13.505,48.587],[13.516,48.591],[13.573,48.561],[13.597,48.57],[13.654,48.549],[13.657,48.544],[13.639,48.544],[13.643,48.539],[13.637,48.528],[13.654,48.504],[13.68,48.491],[13.677,48.484],[13.696,48.472],[13.704,48.476],[13.7,48.479],[13.72,48.506],[13.715,48.512],[13.727,48.513],[13.749,48.532],[13.744,48.542],[13.755,48.564],[13.768,48.554],[13.802,48.574],[13.802,48.595],[13.824,48.618],[13.826,48.63],[13.814,48.65],[13.819,48.672],[13.813,48.692],[13.833,48.692],[13.837,48.7],[13.812,48.702],[13.799,48.712],[13.82,48.733],[13.821,48.755],[13.84,48.772],[13.804,48.781],[13.815,48.797],[13.796,48.815],[13.793,48.829],[13.768,48.833],[13.733,48.887],[13.719,48.879],[13.676,48.879],[13.624,48.937],[13.625,48.949],[13.606,48.941],[13.58,48.971],[13.512,48.969],[13.506,48.96],[13.515,48.937],[13.507,48.923],[13.523,48.898],[13.522,48.879],[13.507,48.863],[13.453,48.856],[13.449,48.848],[13.47,48.843],[13.461,48.832],[13.447,48.831],[13.449,48.818],[13.44,48.81],[13.449,48.79],[13.425,48.756],[13.455,48.718],[13.451,48.688],[13.437,48.677],[13.39,48.682],[13.381,48.67],[13.372,48.67],[13.367,48.688],[13.348,48.689],[13.342,48.676],[13.308,48.68],[13.271,48.694],[13.238,48.686],[13.234,48.671]],[[13.437,48.637],[13.536,48.63],[13.532,48.606],[13.502,48.609],[13.483,48.6],[13.491,48.574],[13.437,48.637]]],[[[13.288,48.338],[13.32,48.319],[13.376,48.357],[13.357,48.369],[13.288,48.338]]]]}},{"type":"Feature","properties":{"NAME":"Prince-Bishopric of Worms","SUBJECTO":"Holy Roman Empire","PARTOF":"Holy Roman Empire","ADMIN_LEVEL":4,"OHM_RELATION_ID":2830736,"START_DATE":"0861","END_DATE":"1797-10-10"},"geometry":{"type":"MultiPolygon","coordinates":[[[[8.08,49.545],[8.042,49.523],[8.08,49.533],[8.089,49.524],[8.075,49.519],[8.085,49.513],[8.154,49.541],[8.149,49.554],[8.136,49.555],[8.135,49.562],[8.094,49.534],[8.08,49.545]]],[[[8.423,49.541],[8.414,49.559],[8.423,49.584],[8.464,49.59],[8.495,49.573],[8.513,49.587],[8.554,49.586],[8.59,49.592],[8.591,49.6],[8.562,49.604],[8.573,49.634],[8.532,49.619],[8.516,49.623],[8.487,49.614],[8.443,49.613],[8.418,49.628],[8.39,49.628],[8.374,49.616],[8.278,49.616],[8.275,49.609],[8.283,49.608],[8.29,49.591],[8.338,49.601],[8.344,49.596],[8.325,49.582],[8.317,49.568],[8.325,49.561],[8.311,49.555],[8.317,49.55],[8.359,49.558],[8.353,49.552],[8.372,49.547],[8.376,49.54],[8.394,49.55],[8.423,49.541]]],[[[8.233,49.588],[8.212,49.587],[8.222,49.56],[8.213,49.556],[8.22,49.546],[8.233,49.548],[8.24,49.537],[8.275,49.539],[8.281,49.587],[8.233,49.588]]]]}},{"type":"Feature","properties":{"NAME":"Saxon Eastern March","SUBJECTO":"Holy Roman Empire","PARTOF":"Holy Roman Empire","ADMIN_LEVEL":4,"OHM_RELATION_ID":2805286,"START_DATE":"0965","END_DATE":"1128"},"geometry":{"type":"MultiPolygon","coordinates":[[[[13.288,52.337],[13.107,52.356],[13.026,52.333],[12.921,52.251],[12.733,52.229],[12.685,52.272],[12.618,52.272],[12.509,52.25],[12.515,52.219],[12.568,52.203],[12.549,52.169],[12.415,52.162],[12.155,52.085],[11.879,52.026],[11.891,52.006],[11.88,51.984],[11.921,51.945],[11.799,51.913],[11.766,51.862],[11.781,51.804],[11.703,51.785],[11.712,51.741],[11.667,51.718],[11.753,51.656],[11.762,51.587],[11.83,51.573],[11.828,51.531],[11.892,51.536],[11.943,51.521],[11.96,51.479],[11.922,51.445],[12.015,51.342],[12.137,51.377],[12.165,51.358],[12.354,51.387],[12.541,51.387],[12.634,51.492],[12.695,51.495],[12.769,51.437],[12.791,51.363],[12.936,51.372],[13.079,51.44],[13.14,51.401],[13.236,51.401],[13.302,51.442],[13.428,51.452],[13.472,51.473],[13.571,51.433],[13.686,51.432],[13.826,51.457],[13.914,51.451],[13.955,51.493],[14.06,51.464],[14.09,51.505],[14.17,51.519],[14.186,51.541],[14.504,51.539],[14.515,51.585],[14.537,51.592],[14.565,51.584],[14.593,51.547],[14.626,51.548],[14.632,51.57],[14.757,51.57],[14.753,51.547],[14.772,51.523],[14.801,51.523],[14.879,51.484],[14.931,51.482],[14.963,51.438],[14.953,51.393],[15.052,51.38],[15.129,51.383],[15.136,51.395],[15.413,51.394],[15.389,51.463],[15.37,51.48],[15.368,51.491],[15.379,51.517],[15.373,51.531],[15.395,51.551],[15.39,51.571],[15.395,51.575],[15.371,51.58],[15.332,51.609],[15.317,51.607],[15.235,51.807],[15.103,51.958],[15.106,51.985],[15.123,51.994],[15.11,51.998],[15.082,51.984],[15.059,51.991],[15.05,52.002],[15.081,52.045],[15.048,52.065],[15.012,52.068],[14.979,52.051],[14.963,52.055],[14.942,52.046],[14.912,52.046],[14.843,52.077],[14.789,52.071],[14.775,52.081],[14.756,52.07],[14.737,52.088],[14.695,52.102],[14.682,52.114],[14.68,52.145],[14.705,52.174],[14.686,52.192],[14.708,52.211],[14.716,52.234],[14.695,52.255],[14.597,52.273],[14.579,52.287],[14.582,52.249],[14.553,52.24],[14.527,52.236],[14.417,52.252],[14.282,52.296],[14.208,52.305],[14.144,52.347],[13.999,52.367],[13.998,52.373],[13.934,52.393],[13.922,52.39],[13.915,52.4],[13.892,52.39],[13.885,52.401],[13.901,52.428],[13.927,52.442],[13.674,52.459],[13.462,52.443],[13.384,52.361],[13.288,52.337]]]]}}],"metadata":{"generatedBy":"scripts/build-fief-flat.ts","input":"data/hre_fiefs_1000.geojson","year":1000,"cutPolicy":"keep-smaller","containmentCoverageThreshold":0.9,"minOverlapAreaM2":1000,"sliverAreaLimitM2":1000000000,"resolutions":[{"kind":"sliver","cutName":"Billung March","keptName":"Danish March","overlapKm2":387.54,"coverageOfSmaller":0.1918},{"kind":"sliver","cutName":"Duchy of Bavaria","keptName":"Duchy of Carinthia","overlapKm2":1.17,"coverageOfSmaller":0},{"kind":"sliver","cutName":"Duchy of Bavaria","keptName":"March of Verona","overlapKm2":1.5,"coverageOfSmaller":0},{"kind":"containment","cutName":"Duchy of Bavaria","keptName":"Prince-Bishopric of Passau","overlapKm2":1224.52,"coverageOfSmaller":0.9971},{"kind":"sliver","cutName":"Duchy of Carinthia","keptName":"March of Verona","overlapKm2":3.77,"coverageOfSmaller":0.0001},{"kind":"sliver","cutName":"Duchy of Franconia","keptName":"Imperial Abbey of Hersfeld","overlapKm2":342.54,"coverageOfSmaller":0.7652},{"kind":"containment","cutName":"Duchy of Franconia","keptName":"Prince-Bishopric of Worms","overlapKm2":140.77,"coverageOfSmaller":1},{"kind":"containment","cutName":"Duchy of Lower Lotharingia","keptName":"County of Horne","overlapKm2":115.65,"coverageOfSmaller":1},{"kind":"sliver","cutName":"Duchy of Lower Lotharingia","keptName":"Duchy of Upper Lotharingia","overlapKm2":1.85,"coverageOfSmaller":0},{"kind":"sliver","cutName":"Duchy of Lower Lotharingia","keptName":"Imperial Abbey of Werden","overlapKm2":47.43,"coverageOfSmaller":0.4494},{"kind":"sliver","cutName":"Duchy of Saxony","keptName":"Billung March","overlapKm2":0.76,"coverageOfSmaller":0},{"kind":"sliver","cutName":"Duchy of Saxony","keptName":"Danish March","overlapKm2":65.12,"coverageOfSmaller":0.0322},{"kind":"sliver","cutName":"Duchy of Saxony","keptName":"Imperial Abbey of Werden","overlapKm2":58.11,"coverageOfSmaller":0.5506},{"kind":"containment","cutName":"Duchy of Thuringia","keptName":"Erfurt Territory","overlapKm2":644.05,"coverageOfSmaller":1},{"kind":"sliver","cutName":"Duchy of Thuringia","keptName":"Imperial Abbey of Hersfeld","overlapKm2":105.11,"coverageOfSmaller":0.2348}],"externalInputs":["data/france_fiefs_flat_1000.geojson","data/italy_fiefs_flat_1000.geojson"],"externalRemovals":[],"source":"OpenHistoricalMap","sourceUrl":"https://www.openhistoricalmap.org/","license":"CC0-1.0","borderPrecision":"史料に基づく復元（概略。測量された境界ではない）"}}