{"type":"FeatureCollection","features":[{"type":"Feature","properties":{"NAME":"Burgraviate of Nuremberg","SUBJECTO":"Holy Roman Empire","PARTOF":"Holy Roman Empire","ADMIN_LEVEL":4,"OHM_RELATION_ID":2830455,"START_DATE":"1050","END_DATE":"1219"},"geometry":{"type":"MultiPolygon","coordinates":[[[[10.384,49.542],[10.384,49.525],[10.415,49.504],[10.432,49.504],[10.412,49.474],[10.387,49.465],[10.372,49.483],[10.4,49.488],[10.359,49.534],[10.321,49.534],[10.314,49.548],[10.325,49.564],[10.292,49.566],[10.263,49.554],[10.231,49.558],[10.125,49.531],[10.099,49.529],[10.088,49.541],[10.062,49.545],[10.061,49.537],[10.041,49.529],[10.059,49.519],[10.049,49.507],[10.028,49.503],[10.02,49.485],[9.975,49.481],[9.993,49.446],[9.986,49.431],[10.009,49.425],[10.021,49.443],[10.055,49.434],[10.064,49.447],[10.084,49.434],[10.098,49.438],[10.116,49.422],[10.143,49.429],[10.122,49.446],[10.089,49.449],[10.095,49.462],[10.173,49.468],[10.171,49.484],[10.221,49.476],[10.245,49.461],[10.288,49.451],[10.307,49.433],[10.289,49.419],[10.276,49.419],[10.269,49.404],[10.257,49.403],[10.265,49.389],[10.253,49.384],[10.266,49.352],[10.279,49.346],[10.271,49.338],[10.307,49.324],[10.298,49.311],[10.305,49.304],[10.317,49.311],[10.338,49.299],[10.318,49.292],[10.319,49.279],[10.295,49.264],[10.302,49.256],[10.253,49.232],[10.221,49.226],[10.204,49.227],[10.198,49.236],[10.182,49.226],[10.114,49.241],[10.085,49.257],[10.059,49.247],[10.037,49.259],[10.046,49.271],[10.04,49.296],[10.06,49.294],[10.06,49.311],[10.036,49.32],[9.978,49.31],[9.948,49.325],[9.922,49.325],[9.938,49.287],[9.953,49.284],[9.955,49.273],[9.975,49.272],[9.99,49.261],[9.875,49.256],[9.876,49.24],[9.904,49.234],[9.957,49.24],[9.975,49.233],[9.996,49.245],[10.019,49.229],[10.02,49.212],[10.031,49.206],[10.011,49.193],[10.021,49.183],[10.01,49.178],[9.989,49.188],[9.984,49.174],[9.957,49.169],[9.96,49.158],[9.973,49.158],[9.946,49.139],[9.946,49.123],[10,49.095],[10.019,49.096],[10.014,49.078],[10.05,49.077],[10.097,49.102],[10.095,49.092],[10.111,49.074],[10.142,49.076],[10.151,49.065],[10.161,49.066],[10.157,49.075],[10.196,49.08],[10.193,49.088],[10.225,49.104],[10.237,49.097],[10.255,49.103],[10.242,49.077],[10.262,49.086],[10.282,49.066],[10.294,49.066],[10.299,49.082],[10.313,49.09],[10.365,49.075],[10.332,49.054],[10.44,49.014],[10.534,49.013],[10.539,49.027],[10.551,49.033],[10.583,49.032],[10.606,49.009],[10.604,49],[10.587,48.998],[10.591,48.969],[10.613,48.97],[10.671,48.907],[10.709,48.896],[10.745,48.919],[10.796,48.916],[10.806,48.94],[10.889,48.934],[10.909,48.945],[10.906,48.971],[10.88,48.998],[10.916,49.012],[10.905,49.025],[10.911,49.03],[10.939,49.03],[10.958,49.04],[10.93,49.056],[10.937,49.075],[10.967,49.076],[10.987,49.063],[11.013,49.059],[11.017,49.052],[10.986,49.022],[11.168,49.031],[11.17,49.049],[11.191,49.051],[11.206,49.034],[11.223,49.039],[11.216,49.056],[11.252,49.049],[11.304,49.068],[11.288,49.079],[11.288,49.097],[11.222,49.15],[11.189,49.108],[11.207,49.084],[11.099,49.079],[11.073,49.099],[11.042,49.062],[10.996,49.093],[10.968,49.093],[10.927,49.152],[10.906,49.151],[10.901,49.163],[10.872,49.16],[10.86,49.179],[10.842,49.183],[10.844,49.201],[10.879,49.213],[10.917,49.191],[10.933,49.198],[10.985,49.187],[10.966,49.157],[10.972,49.149],[10.985,49.159],[11.01,49.159],[11.017,49.173],[11.05,49.175],[11.067,49.154],[11.215,49.211],[11.203,49.226],[11.228,49.248],[11.177,49.283],[11.211,49.317],[11.231,49.306],[11.239,49.309],[11.231,49.323],[11.255,49.323],[11.262,49.312],[11.291,49.312],[11.307,49.298],[11.327,49.3],[11.356,49.322],[11.312,49.354],[11.165,49.547],[11.022,49.556],[11.025,49.569],[11.011,49.583],[11.122,49.581],[11.128,49.587],[11.069,49.608],[11.012,49.602],[11.034,49.645],[11.061,49.663],[11.034,49.673],[10.976,49.661],[10.971,49.623],[10.989,49.616],[10.971,49.583],[10.953,49.567],[10.917,49.574],[10.898,49.555],[10.937,49.545],[10.926,49.523],[10.903,49.534],[10.869,49.52],[10.835,49.534],[10.866,49.547],[10.835,49.592],[10.852,49.604],[10.828,49.604],[10.813,49.622],[10.866,49.636],[10.846,49.663],[10.793,49.66],[10.702,49.694],[10.665,49.682],[10.64,49.687],[10.605,49.677],[10.561,49.677],[10.486,49.632],[10.524,49.62],[10.537,49.596],[10.491,49.596],[10.395,49.552],[10.397,49.542],[10.384,49.542]],[[10.39,49.093],[10.366,49.11],[10.377,49.117],[10.415,49.111],[10.427,49.102],[10.39,49.093]],[[10.455,49.043],[10.459,49.024],[10.419,49.024],[10.419,49.039],[10.455,49.043]],[[10.47,49.055],[10.476,49.06],[10.507,49.051],[10.507,49.045],[10.491,49.041],[10.47,49.055]],[[10.222,49.118],[10.192,49.126],[10.206,49.147],[10.217,49.149],[10.218,49.161],[10.248,49.149],[10.255,49.13],[10.222,49.118]],[[10.185,49.111],[10.2,49.102],[10.194,49.097],[10.176,49.104],[10.185,49.111]],[[10.153,49.12],[10.17,49.113],[10.155,49.108],[10.149,49.112],[10.153,49.12]],[[10.427,49.223],[10.403,49.23],[10.367,49.22],[10.345,49.225],[10.353,49.243],[10.372,49.244],[10.39,49.261],[10.439,49.258],[10.44,49.278],[10.456,49.284],[10.463,49.276],[10.479,49.277],[10.477,49.267],[10.516,49.258],[10.537,49.262],[10.581,49.249],[10.564,49.201],[10.578,49.177],[10.491,49.192],[10.486,49.202],[10.5,49.211],[10.466,49.206],[10.427,49.223]],[[10.69,49.135],[10.672,49.113],[10.647,49.117],[10.631,49.103],[10.622,49.122],[10.585,49.127],[10.58,49.156],[10.647,49.164],[10.61,49.179],[10.66,49.197],[10.69,49.135]],[[10.744,49.028],[10.695,49.028],[10.684,49.043],[10.668,49.045],[10.667,49.053],[10.68,49.056],[10.676,49.065],[10.699,49.071],[10.742,49.058],[10.734,49.051],[10.744,49.028]],[[10.882,49.153],[10.921,49.134],[10.912,49.127],[10.873,49.134],[10.858,49.13],[10.854,49.135],[10.882,49.153]],[[11.093,49.038],[11.075,49.064],[11.109,49.074],[11.131,49.053],[11.093,49.038]],[[10.89,49.087],[10.915,49.064],[10.884,49.06],[10.881,49.074],[10.89,49.087]],[[10.936,49.333],[10.947,49.35],[10.933,49.353],[10.937,49.377],[10.954,49.384],[10.973,49.379],[10.975,49.396],[10.993,49.395],[10.996,49.371],[10.972,49.36],[10.968,49.347],[10.999,49.336],[10.962,49.326],[10.936,49.333]],[[10.671,49.287],[10.653,49.286],[10.652,49.299],[10.69,49.31],[10.735,49.301],[10.742,49.283],[10.766,49.288],[10.78,49.28],[10.774,49.259],[10.735,49.245],[10.718,49.247],[10.679,49.231],[10.621,49.235],[10.628,49.246],[10.655,49.252],[10.671,49.287]],[[10.936,49.208],[10.937,49.223],[10.947,49.227],[10.948,49.249],[10.994,49.265],[11.03,49.232],[10.972,49.208],[10.936,49.208]],[[10.791,49.222],[10.811,49.218],[10.806,49.209],[10.787,49.212],[10.791,49.222]],[[10.478,49.397],[10.479,49.407],[10.431,49.424],[10.47,49.451],[10.559,49.451],[10.542,49.437],[10.545,49.426],[10.524,49.416],[10.536,49.409],[10.543,49.415],[10.587,49.412],[10.585,49.392],[10.478,49.397]],[[10.729,49.455],[10.71,49.465],[10.682,49.465],[10.683,49.472],[10.703,49.473],[10.713,49.494],[10.734,49.488],[10.747,49.456],[10.729,49.455]],[[10.973,49.523],[10.985,49.52],[10.989,49.497],[11.012,49.494],[11.018,49.481],[11.012,49.459],[11.03,49.43],[11.046,49.429],[11.059,49.414],[11.005,49.414],[10.975,49.455],[10.929,49.445],[10.902,49.459],[10.956,49.478],[10.951,49.505],[10.973,49.523]]],[[[10.998,48.87],[11.037,48.9],[11.035,48.91],[10.996,48.929],[10.942,48.906],[10.955,48.881],[10.936,48.857],[10.977,48.857],[10.979,48.872],[10.998,48.87]]],[[[10.072,49.588],[10.223,49.584],[10.201,49.593],[10.202,49.604],[10.174,49.598],[10.162,49.622],[10.184,49.652],[10.187,49.679],[10.21,49.679],[10.216,49.694],[10.234,49.695],[10.239,49.714],[10.219,49.725],[10.159,49.723],[10.123,49.696],[10.179,49.687],[10.148,49.649],[10.097,49.655],[10.061,49.647],[10.068,49.624],[10.088,49.625],[10.072,49.607],[10.072,49.588]]]]}},{"type":"Feature","properties":{"NAME":"County of Abensberg","SUBJECTO":"Holy Roman Empire","PARTOF":"Holy Roman Empire","ADMIN_LEVEL":4,"OHM_RELATION_ID":2830492,"START_DATE":"1150","END_DATE":"1485-02-28"},"geometry":{"type":"MultiPolygon","coordinates":[[[[11.843,48.927],[11.762,48.937],[11.736,48.926],[11.711,48.937],[11.69,48.93],[11.572,48.927],[11.562,48.922],[11.569,48.917],[11.553,48.895],[11.564,48.891],[11.575,48.857],[11.571,48.848],[11.586,48.825],[11.632,48.811],[11.647,48.815],[11.652,48.804],[11.674,48.803],[11.744,48.778],[11.754,48.786],[11.779,48.785],[11.771,48.775],[11.782,48.767],[11.808,48.769],[11.819,48.736],[11.792,48.716],[11.767,48.711],[11.765,48.681],[11.795,48.693],[11.805,48.687],[11.798,48.679],[11.816,48.674],[11.848,48.724],[11.849,48.738],[11.874,48.748],[11.897,48.722],[11.915,48.725],[11.914,48.717],[11.925,48.71],[11.948,48.709],[11.959,48.724],[11.938,48.734],[11.952,48.747],[11.987,48.733],[12.008,48.758],[12.065,48.764],[12.065,48.772],[12.053,48.774],[12.055,48.781],[12.036,48.797],[12.031,48.787],[12.019,48.79],[12.018,48.81],[11.992,48.814],[11.965,48.829],[11.926,48.825],[11.868,48.877],[11.841,48.878],[11.833,48.899],[11.855,48.915],[11.896,48.907],[11.926,48.911],[11.925,48.889],[11.941,48.882],[11.969,48.886],[12.006,48.875],[12.03,48.885],[12.138,48.876],[12.145,48.889],[12.111,48.906],[12.081,48.9],[12.01,48.906],[12.001,48.91],[11.994,48.93],[11.971,48.918],[11.971,48.908],[11.952,48.904],[11.94,48.908],[11.937,48.922],[11.922,48.935],[11.887,48.931],[11.864,48.942],[11.843,48.927]]]]}},{"type":"Feature","properties":{"NAME":"County of Bentheim","SUBJECTO":"Holy Roman Empire","PARTOF":"Holy Roman Empire","ADMIN_LEVEL":4,"OHM_RELATION_ID":2807457,"START_DATE":"1180","END_DATE":"1806-07-12"},"geometry":{"type":"MultiPolygon","coordinates":[[[[7.146,52.535],[7.142,52.588],[7.074,52.62],[7.002,52.642],[6.977,52.646],[6.936,52.638],[6.896,52.651],[6.817,52.648],[6.792,52.654],[6.742,52.645],[6.71,52.628],[6.725,52.619],[6.719,52.589],[6.767,52.564],[6.728,52.563],[6.711,52.549],[6.685,52.553],[6.705,52.521],[6.698,52.486],[6.753,52.464],[6.854,52.46],[6.853,52.45],[6.942,52.435],[6.962,52.444],[6.981,52.467],[6.992,52.467],[7.009,52.433],[7.036,52.403],[7.057,52.399],[7.072,52.374],[7.071,52.351],[7.026,52.283],[7.042,52.256],[7.066,52.241],[7.105,52.245],[7.113,52.255],[7.156,52.266],[7.299,52.264],[7.317,52.28],[7.258,52.341],[7.212,52.447],[7.203,52.444],[7.181,52.456],[7.158,52.48],[7.146,52.507],[7.146,52.535]]]]}},{"type":"Feature","properties":{"NAME":"County of Drenthe","SUBJECTO":"Holy Roman Empire","PARTOF":"Holy Roman Empire","ADMIN_LEVEL":5,"OHM_RELATION_ID":2831685,"START_DATE":"1046","END_DATE":"1536-08-05"},"geometry":{"type":"Polygon","coordinates":[[[6.117,52.851],[6.181,52.804],[6.215,52.798],[6.213,52.772],[6.134,52.734],[6.152,52.688],[6.333,52.661],[6.382,52.614],[6.522,52.618],[6.517,52.647],[6.601,52.672],[6.708,52.649],[6.702,52.628],[6.742,52.645],[6.792,52.654],[6.817,52.648],[6.824,52.648],[6.873,52.654],[6.887,52.651],[6.896,52.651],[6.909,52.647],[6.914,52.646],[6.915,52.645],[6.931,52.639],[6.942,52.639],[6.975,52.646],[6.976,52.646],[6.976,52.646],[6.977,52.646],[7.002,52.642],[7.017,52.638],[7.042,52.633],[7.056,52.643],[7.072,52.81],[7.093,52.838],[7.087,52.85],[7.059,52.864],[7.035,52.922],[6.77,53.101],[6.759,53.149],[6.622,53.228],[6.595,53.256],[6.549,53.251],[6.532,53.212],[6.481,53.209],[6.416,53.18],[6.381,53.15],[6.362,53.096],[6.312,53.092],[6.305,53.082],[6.358,53.066],[6.364,53.026],[6.434,52.976],[6.413,52.945],[6.338,52.908],[6.292,52.93],[6.25,52.924],[6.207,52.891],[6.117,52.851]]]}},{"type":"Feature","properties":{"NAME":"County of Falkenstein","SUBJECTO":"Holy Roman Empire","PARTOF":"Holy Roman Empire","ADMIN_LEVEL":5,"OHM_RELATION_ID":2830881,"START_DATE":"1135","END_DATE":"1797-10-17"},"geometry":{"type":"MultiPolygon","coordinates":[[[[8.233,49.763],[8.217,49.777],[8.154,49.773],[8.155,49.76],[8.171,49.758],[8.166,49.751],[8.193,49.749],[8.233,49.763]]],[[[7.927,49.878],[7.93,49.865],[7.96,49.87],[7.927,49.878]]],[[[7.938,49.588],[7.929,49.595],[7.943,49.604],[7.9,49.603],[7.886,49.609],[7.885,49.622],[7.863,49.628],[7.867,49.619],[7.848,49.594],[7.811,49.587],[7.761,49.545],[7.77,49.534],[7.863,49.545],[7.874,49.562],[7.944,49.567],[7.938,49.588]]],[[[7.949,49.608],[7.977,49.608],[7.969,49.613],[7.979,49.619],[7.948,49.619],[7.949,49.608]]],[[[8.078,49.678],[8.116,49.687],[8.054,49.699],[8.033,49.685],[8.078,49.678]]],[[[7.892,49.718],[7.877,49.71],[7.865,49.716],[7.862,49.706],[7.843,49.706],[7.839,49.683],[7.857,49.662],[7.878,49.662],[7.908,49.686],[7.907,49.696],[7.9,49.693],[7.891,49.702],[7.903,49.715],[7.892,49.718]]],[[[8.259,49.788],[8.244,49.793],[8.226,49.787],[8.248,49.778],[8.259,49.788]]]]}},{"type":"Feature","properties":{"NAME":"County of Hohnstein","SUBJECTO":"Holy Roman Empire","PARTOF":"Holy Roman Empire","ADMIN_LEVEL":4,"OHM_RELATION_ID":2830686,"START_DATE":"1182","END_DATE":"1593"},"geometry":{"type":"MultiPolygon","coordinates":[[[[10.627,51.571],[10.586,51.583],[10.591,51.57],[10.571,51.565],[10.567,51.58],[10.581,51.586],[10.567,51.61],[10.583,51.615],[10.541,51.615],[10.527,51.623],[10.517,51.61],[10.534,51.597],[10.532,51.568],[10.504,51.562],[10.512,51.548],[10.493,51.554],[10.48,51.548],[10.473,51.551],[10.486,51.557],[10.487,51.573],[10.426,51.592],[10.374,51.588],[10.378,51.562],[10.368,51.557],[10.368,51.543],[10.468,51.544],[10.48,51.518],[10.477,51.503],[10.464,51.497],[10.467,51.486],[10.434,51.477],[10.427,51.462],[10.466,51.456],[10.473,51.435],[10.488,51.427],[10.505,51.399],[10.504,51.384],[10.529,51.366],[10.547,51.371],[10.56,51.385],[10.572,51.367],[10.577,51.374],[10.565,51.386],[10.574,51.388],[10.591,51.385],[10.579,51.379],[10.585,51.367],[10.607,51.366],[10.606,51.375],[10.627,51.382],[10.623,51.374],[10.645,51.369],[10.633,51.362],[10.664,51.357],[10.701,51.332],[10.717,51.365],[10.682,51.384],[10.694,51.396],[10.717,51.4],[10.767,51.391],[10.779,51.407],[10.805,51.416],[10.796,51.427],[10.774,51.426],[10.769,51.437],[10.778,51.441],[10.77,51.45],[10.786,51.477],[10.754,51.489],[10.755,51.505],[10.779,51.512],[10.776,51.518],[10.801,51.523],[10.826,51.514],[10.822,51.498],[10.851,51.485],[10.97,51.458],[10.994,51.462],[10.983,51.479],[10.959,51.492],[10.94,51.501],[10.927,51.497],[10.922,51.509],[10.908,51.509],[10.897,51.522],[10.902,51.524],[10.897,51.536],[10.866,51.538],[10.858,51.552],[10.868,51.562],[10.864,51.579],[10.893,51.606],[10.862,51.632],[10.818,51.625],[10.812,51.639],[10.763,51.649],[10.762,51.657],[10.783,51.661],[10.78,51.68],[10.765,51.669],[10.738,51.671],[10.707,51.682],[10.706,51.694],[10.666,51.695],[10.668,51.67],[10.702,51.641],[10.676,51.638],[10.681,51.63],[10.638,51.619],[10.647,51.609],[10.632,51.604],[10.638,51.584],[10.663,51.58],[10.66,51.561],[10.646,51.559],[10.627,51.571]]]]}},{"type":"Feature","properties":{"NAME":"County of Horne","SUBJECTO":"Holy Roman Empire","PARTOF":"Holy Roman Empire","ADMIN_LEVEL":5,"OHM_RELATION_ID":2831137,"START_DATE":"0920","END_DATE":"1797-10-17"},"geometry":{"type":"MultiPolygon","coordinates":[[[[5.906,51.3],[5.906,51.294],[5.858,51.311],[5.844,51.278],[5.834,51.274],[5.841,51.25],[5.859,51.24],[5.893,51.24],[5.893,51.217],[5.876,51.182],[5.858,51.181],[5.872,51.168],[5.923,51.172],[5.917,51.174],[5.934,51.188],[5.977,51.202],[5.968,51.22],[6.006,51.231],[5.999,51.249],[6.007,51.255],[6.009,51.278],[5.925,51.309],[5.906,51.3]]]]}},{"type":"Feature","properties":{"NAME":"County of Leiningen","SUBJECTO":"Holy Roman Empire","PARTOF":"Holy Roman Empire","ADMIN_LEVEL":4,"OHM_RELATION_ID":2830777,"START_DATE":"1093","END_DATE":"1797-10-17"},"geometry":{"type":"MultiPolygon","coordinates":[[[[7.524,49.333],[7.528,49.299],[7.556,49.273],[7.568,49.276],[7.575,49.291],[7.564,49.311],[7.584,49.335],[7.582,49.345],[7.56,49.357],[7.524,49.333]]],[[[7.701,49.498],[7.738,49.473],[7.754,49.476],[7.755,49.491],[7.716,49.504],[7.701,49.498]]],[[[7.831,49.373],[7.848,49.367],[7.876,49.376],[7.885,49.388],[7.905,49.394],[7.919,49.388],[7.939,49.409],[7.93,49.421],[7.921,49.42],[7.891,49.402],[7.88,49.41],[7.833,49.387],[7.831,49.373]]],[[[7.845,49.134],[7.854,49.132],[7.86,49.117],[7.906,49.118],[7.921,49.129],[7.899,49.149],[7.91,49.164],[7.901,49.175],[7.875,49.153],[7.863,49.156],[7.865,49.144],[7.845,49.134]]],[[[7.888,49.191],[7.906,49.189],[7.915,49.178],[7.938,49.177],[7.951,49.186],[7.918,49.21],[7.888,49.191]]],[[[7.926,50.576],[7.933,50.565],[7.956,50.563],[7.969,50.552],[7.967,50.536],[7.996,50.525],[8.04,50.553],[8.026,50.573],[7.993,50.575],[7.991,50.594],[7.971,50.601],[7.926,50.576]]],[[[7.929,49.595],[7.938,49.588],[7.97,49.595],[7.977,49.608],[7.944,49.606],[7.941,49.604],[7.943,49.604],[7.929,49.595]]],[[[7.943,49.453],[7.959,49.442],[7.978,49.451],[7.982,49.443],[7.995,49.442],[7.996,49.449],[8.007,49.448],[8.017,49.458],[8.028,49.446],[7.995,49.433],[8.021,49.433],[7.995,49.423],[8.011,49.418],[8.025,49.423],[8.019,49.392],[7.988,49.391],[8.024,49.366],[8.049,49.375],[8.044,49.389],[8.024,49.397],[8.06,49.402],[8.087,49.438],[8.132,49.453],[8.115,49.461],[8.134,49.467],[8.159,49.463],[8.161,49.455],[8.221,49.463],[8.219,49.468],[8.251,49.482],[8.258,49.495],[8.195,49.495],[8.184,49.501],[8.192,49.504],[8.189,49.518],[8.174,49.517],[8.168,49.526],[8.216,49.525],[8.205,49.556],[8.19,49.555],[8.186,49.581],[8.21,49.583],[8.21,49.594],[8.234,49.604],[8.215,49.602],[8.205,49.612],[8.232,49.618],[8.207,49.653],[8.191,49.652],[8.194,49.636],[8.184,49.635],[8.188,49.619],[8.129,49.612],[8.121,49.621],[8.088,49.611],[8.078,49.59],[8.087,49.576],[8.115,49.585],[8.128,49.574],[8.124,49.568],[8.094,49.563],[8.101,49.554],[8.08,49.545],[8.097,49.536],[8.135,49.562],[8.136,49.555],[8.149,49.554],[8.156,49.544],[8.153,49.543],[8.154,49.541],[8.085,49.513],[8.075,49.519],[8.089,49.524],[8.08,49.533],[8.042,49.519],[8.011,49.509],[8.002,49.499],[7.957,49.489],[7.95,49.484],[7.957,49.463],[7.943,49.453]]],[[[8.029,49.831],[8.03,49.809],[8.05,49.801],[8.063,49.817],[8.058,49.836],[8.04,49.84],[8.029,49.831]]],[[[8.051,49.252],[8.076,49.244],[8.109,49.247],[8.083,49.256],[8.051,49.252]]],[[[8.15,50.413],[8.162,50.407],[8.178,50.409],[8.176,50.418],[8.164,50.421],[8.15,50.413]]],[[[8.197,49.722],[8.203,49.713],[8.27,49.724],[8.338,49.724],[8.338,49.737],[8.291,49.744],[8.216,49.73],[8.197,49.722]]],[[[8.215,49.819],[8.259,49.788],[8.355,49.783],[8.4,49.803],[8.385,49.817],[8.332,49.811],[8.33,49.83],[8.271,49.805],[8.224,49.822],[8.215,49.819]]],[[[8.235,49.829],[8.261,49.823],[8.279,49.833],[8.279,49.842],[8.238,49.841],[8.235,49.829]]],[[[8.276,49.423],[8.283,49.393],[8.291,49.394],[8.308,49.43],[8.28,49.434],[8.276,49.423]]]]}},{"type":"Feature","properties":{"NAME":"County of Moers","SUBJECTO":"Holy Roman Empire","PARTOF":"Holy Roman Empire","ADMIN_LEVEL":4,"OHM_RELATION_ID":2840625,"START_DATE":"1160","END_DATE":"1412"},"geometry":{"type":"MultiPolygon","coordinates":[[[[6.723,51.454],[6.719,51.466],[6.68,51.479],[6.694,51.492],[6.716,51.497],[6.723,51.512],[6.675,51.509],[6.666,51.527],[6.674,51.563],[6.625,51.56],[6.601,51.572],[6.598,51.591],[6.558,51.579],[6.572,51.569],[6.574,51.55],[6.625,51.55],[6.63,51.541],[6.613,51.521],[6.568,51.517],[6.574,51.505],[6.561,51.496],[6.558,51.478],[6.535,51.47],[6.525,51.453],[6.508,51.444],[6.509,51.437],[6.534,51.437],[6.539,51.408],[6.569,51.416],[6.578,51.4],[6.614,51.398],[6.615,51.376],[6.645,51.383],[6.674,51.369],[6.713,51.375],[6.744,51.395],[6.739,51.415],[6.71,51.442],[6.723,51.454]]],[[[6.515,51.37],[6.508,51.36],[6.513,51.351],[6.531,51.338],[6.53,51.325],[6.549,51.309],[6.594,51.322],[6.575,51.348],[6.537,51.367],[6.515,51.37]]]]}},{"type":"Feature","properties":{"NAME":"County of Montbéliard","SUBJECTO":"Holy Roman Empire","PARTOF":"Holy Roman Empire","ADMIN_LEVEL":5,"OHM_RELATION_ID":2812115,"START_DATE":"1042","END_DATE":"1796-08-07"},"geometry":{"type":"MultiPolygon","coordinates":[[[[6.714,47.471],[6.728,47.481],[6.774,47.473],[6.779,47.482],[6.799,47.485],[6.838,47.482],[6.843,47.472],[6.884,47.467],[6.912,47.476],[6.908,47.489],[6.915,47.498],[6.931,47.499],[6.937,47.483],[6.953,47.48],[6.954,47.512],[6.912,47.525],[6.918,47.531],[6.91,47.546],[6.891,47.555],[6.835,47.544],[6.802,47.547],[6.787,47.533],[6.755,47.541],[6.732,47.56],[6.748,47.584],[6.721,47.607],[6.686,47.613],[6.68,47.626],[6.692,47.633],[6.686,47.661],[6.664,47.665],[6.628,47.687],[6.589,47.675],[6.61,47.662],[6.626,47.626],[6.655,47.617],[6.669,47.596],[6.654,47.587],[6.664,47.578],[6.654,47.57],[6.669,47.556],[6.654,47.54],[6.686,47.515],[6.676,47.507],[6.678,47.486],[6.669,47.471],[6.693,47.462],[6.714,47.471]]],[[[6.794,47.454],[6.787,47.419],[6.793,47.41],[6.812,47.417],[6.833,47.439],[6.83,47.453],[6.794,47.454]]],[[[6.66,47.478],[6.639,47.491],[6.618,47.484],[6.615,47.473],[6.63,47.463],[6.647,47.466],[6.66,47.478]]]]}},{"type":"Feature","properties":{"NAME":"County/Principality of Neuchâtel","SUBJECTO":"Holy Roman Empire","PARTOF":"Holy Roman Empire","ADMIN_LEVEL":5,"OHM_RELATION_ID":2748494,"START_DATE":"1011","END_DATE":"1648-10-24"},"geometry":{"type":"MultiPolygon","coordinates":[[[[6.436,46.921],[6.465,46.89],[6.461,46.855],[6.484,46.847],[6.63,46.889],[6.654,46.914],[6.722,46.934],[6.719,46.904],[6.741,46.895],[6.738,46.871],[6.754,46.87],[6.779,46.854],[7.002,46.988],[7.038,46.98],[7.027,47.006],[7.035,47.014],[7.033,47.033],[7.088,47.06],[7.077,47.076],[7.089,47.083],[7.076,47.096],[7.041,47.109],[7.029,47.104],[7.024,47.113],[7.041,47.124],[7.028,47.127],[6.931,47.108],[6.869,47.087],[6.889,47.131],[6.862,47.166],[6.806,47.131],[6.741,47.11],[6.747,47.099],[6.739,47.091],[6.703,47.082],[6.707,47.074],[6.695,47.063],[6.723,47.047],[6.714,47.044],[6.712,47.022],[6.69,47.009],[6.609,46.983],[6.505,46.966],[6.497,46.974],[6.433,46.929],[6.436,46.921]]]]}},{"type":"Feature","properties":{"NAME":"Duchy of Swabia","SUBJECTO":"Holy Roman Empire","PARTOF":"Holy Roman Empire","ADMIN_LEVEL":4,"OHM_RELATION_ID":2805256,"START_DATE":"0922","END_DATE":"1268-10-28"},"geometry":{"type":"MultiPolygon","coordinates":[[[[6.716,47.671],[6.79,47.598],[6.839,47.612],[6.894,47.653],[7.189,47.523],[7.166,47.49],[7.203,47.491],[7.187,47.483],[7.186,47.479],[7.335,47.447],[7.43,47.462],[7.517,47.529],[7.501,47.529],[7.5,47.54],[7.544,47.56],[7.572,47.612],[7.618,47.619],[7.693,47.578],[7.803,47.598],[7.854,47.62],[7.929,47.613],[7.965,47.591],[8.183,47.657],[8.255,47.59],[8.275,47.464],[8.361,47.416],[8.429,47.283],[8.443,47.203],[8.388,47.142],[8.352,47.044],[8.366,46.819],[8.453,46.775],[8.458,46.707],[8.428,46.664],[8.425,46.558],[8.464,46.536],[8.633,46.605],[8.746,46.632],[8.836,46.614],[8.893,46.423],[8.863,46.385],[8.931,46.288],[8.946,46.18],[8.928,46.13],[9.009,46.148],[9.108,46.147],[9.248,46.253],[9.454,46.269],[9.553,46.328],[9.682,46.342],[9.756,46.407],[9.86,46.426],[9.94,46.48],[10.009,46.492],[10.107,46.605],[10.24,46.632],[10.333,46.547],[10.453,46.531],[10.491,46.563],[10.488,46.622],[10.405,46.634],[10.384,46.688],[10.417,46.708],[10.423,46.777],[10.452,46.809],[10.486,46.911],[10.485,46.943],[10.424,46.959],[10.428,46.974],[10.392,47],[10.349,46.99],[10.307,46.926],[10.24,46.93],[10.232,46.873],[10.152,46.853],[10.101,46.984],[10.121,47.137],[10.21,47.179],[10.248,47.173],[10.268,47.207],[10.429,47.225],[10.466,47.199],[10.583,47.301],[10.643,47.311],[10.709,47.353],[10.753,47.363],[10.758,47.413],[10.842,47.451],[10.854,47.5],[10.927,47.567],[10.915,47.614],[10.896,47.614],[10.916,47.662],[10.926,47.756],[10.968,47.815],[11.085,47.889],[11.017,48.025],[11.093,48.325],[11.025,48.375],[10.984,48.381],[10.974,48.428],[10.904,48.456],[10.911,48.516],[10.96,48.679],[10.996,48.732],[10.938,48.726],[10.867,48.734],[10.829,48.755],[10.744,48.777],[10.664,48.821],[10.664,48.882],[10.615,48.925],[10.62,48.962],[10.613,48.97],[10.591,48.969],[10.587,48.998],[10.604,49],[10.606,49.009],[10.583,49.032],[10.551,49.033],[10.539,49.027],[10.534,49.013],[10.44,49.014],[10.332,49.054],[10.365,49.075],[10.313,49.09],[10.299,49.082],[10.294,49.066],[10.282,49.066],[10.262,49.086],[10.242,49.077],[10.255,49.103],[10.237,49.097],[10.225,49.104],[10.193,49.088],[10.196,49.08],[10.169,49.077],[10.16,49.051],[10.102,49.027],[10.022,49.043],[9.966,49.009],[9.849,49.004],[9.759,48.977],[9.638,48.96],[9.597,48.92],[9.476,48.918],[9.439,48.892],[9.369,48.899],[9.363,48.882],[9.132,48.878],[9.119,48.819],[8.995,48.805],[8.951,48.773],[8.915,48.791],[8.847,48.764],[8.803,48.72],[8.674,48.76],[8.535,48.751],[8.519,48.686],[8.48,48.67],[8.447,48.676],[8.407,48.653],[8.356,48.664],[8.267,48.792],[8.182,48.804],[8.133,48.829],[8.203,48.941],[8.194,48.964],[8.032,48.963],[7.971,48.998],[7.902,49.011],[7.876,49.043],[7.877,49.064],[7.821,49.095],[7.777,49.104],[7.728,49.128],[7.695,49.134],[7.592,49.066],[7.59,49.043],[7.533,49.019],[7.497,49.019],[7.339,48.942],[7.327,48.918],[7.334,48.901],[7.358,48.893],[7.35,48.863],[7.215,48.812],[7.193,48.777],[7.228,48.746],[7.18,48.72],[7.185,48.656],[7.241,48.614],[7.228,48.548],[7.185,48.517],[7.171,48.467],[7.134,48.46],[7.11,48.382],[7.171,48.357],[7.199,48.308],[7.121,48.241],[7.122,48.175],[7.092,48.149],[7.078,48.102],[7.024,48.041],[6.961,48.022],[6.969,47.935],[6.893,47.836],[6.823,47.814],[6.741,47.754],[6.761,47.7],[6.716,47.671]],[[7.519,47.674],[7.549,47.681],[7.562,47.665],[7.549,47.661],[7.542,47.646],[7.519,47.674]],[[7.551,47.744],[7.574,47.776],[7.614,47.775],[7.616,47.755],[7.63,47.737],[7.628,47.725],[7.58,47.735],[7.551,47.744]]],[[[10.164,49.239],[10.168,49.229],[10.182,49.226],[10.198,49.236],[10.204,49.227],[10.221,49.226],[10.253,49.232],[10.302,49.256],[10.3,49.259],[10.234,49.257],[10.164,49.239]]],[[[10.218,49.158],[10.232,49.148],[10.218,49.119],[10.222,49.118],[10.255,49.13],[10.248,49.149],[10.218,49.161],[10.218,49.158]]],[[[10.345,49.225],[10.367,49.22],[10.368,49.22],[10.357,49.243],[10.353,49.243],[10.345,49.225]]],[[[10.366,49.11],[10.39,49.093],[10.427,49.102],[10.415,49.111],[10.377,49.117],[10.366,49.11]]],[[[10.419,49.024],[10.459,49.024],[10.455,49.043],[10.419,49.039],[10.419,49.024]]],[[[10.47,49.055],[10.491,49.041],[10.507,49.045],[10.507,49.051],[10.476,49.06],[10.47,49.055]]]]}},{"type":"Feature","properties":{"NAME":"Erfurt Territory","SUBJECTO":"Holy Roman Empire","PARTOF":"Holy Roman Empire","ADMIN_LEVEL":5,"OHM_RELATION_ID":2831882,"START_DATE":"1000","END_DATE":"1803-04-27"},"geometry":{"type":"MultiPolygon","coordinates":[[[[10.821,50.921],[10.819,50.89],[10.804,50.887],[10.771,50.859],[10.787,50.843],[10.845,50.839],[10.862,50.851],[10.874,50.878],[10.862,50.88],[10.86,50.916],[10.821,50.921]]],[[[11.023,50.929],[10.97,50.922],[10.98,50.904],[11.055,50.91],[11.055,50.896],[11.007,50.895],[10.995,50.874],[11.005,50.864],[11.024,50.859],[11.036,50.88],[11.113,50.893],[11.127,50.902],[11.152,50.877],[11.178,50.867],[11.188,50.872],[11.172,50.875],[11.181,50.879],[11.206,50.865],[11.208,50.882],[11.246,50.875],[11.253,50.889],[11.221,50.931],[11.232,50.946],[11.221,50.95],[11.267,50.971],[11.266,50.985],[11.241,50.985],[11.226,50.997],[11.237,51.007],[11.214,51.006],[11.195,51.021],[11.206,51.036],[11.177,51.07],[11.159,51.057],[11.147,51.066],[11.126,51.06],[11.128,51.082],[11.085,51.065],[11.081,51.074],[11.044,51.08],[11.041,51.065],[11.023,51.066],[11.02,51.06],[11.028,51.059],[11.025,51.031],[10.988,51.036],[10.964,51.086],[10.981,51.097],[10.97,51.124],[10.951,51.125],[10.957,51.119],[10.948,51.116],[10.95,51.101],[10.91,51.089],[10.884,51.084],[10.88,51.098],[10.838,51.095],[10.831,51.073],[10.869,51.058],[10.87,51.028],[10.911,51.021],[10.915,51.004],[10.889,50.995],[10.836,51.007],[10.781,50.986],[10.814,50.98],[10.832,50.99],[10.827,50.951],[10.852,50.952],[10.855,50.963],[10.894,50.961],[10.897,50.945],[10.868,50.942],[10.876,50.927],[10.905,50.923],[10.916,50.93],[10.912,50.941],[10.939,50.947],[10.953,50.938],[11,50.948],[11.002,50.939],[11.026,50.938],[11.023,50.929]],[[11.153,50.919],[11.191,50.91],[11.19,50.903],[11.176,50.896],[11.147,50.908],[11.134,50.905],[11.12,50.918],[11.153,50.919]],[[11.17,50.94],[11.172,50.956],[11.188,50.948],[11.188,50.938],[11.17,50.94]],[[11.108,51.035],[11.155,51.037],[11.188,51.022],[11.151,51.004],[11.144,51.009],[11.147,51.017],[11.124,51.021],[11.108,51.035]]],[[[11.307,50.804],[11.335,50.819],[11.358,50.815],[11.364,50.832],[11.405,50.833],[11.409,50.857],[11.379,50.865],[11.399,50.89],[11.418,50.898],[11.395,50.902],[11.381,50.925],[11.338,50.924],[11.357,50.911],[11.353,50.895],[11.32,50.873],[11.289,50.867],[11.307,50.804]]],[[[11.093,51.112],[11.138,51.092],[11.175,51.106],[11.174,51.128],[11.157,51.163],[11.122,51.172],[11.128,51.18],[11.115,51.185],[11.115,51.174],[11.085,51.169],[11.086,51.151],[11.061,51.15],[11.064,51.129],[11.097,51.128],[11.102,51.118],[11.093,51.112]]],[[[11.226,51.071],[11.229,51.049],[11.274,51.026],[11.296,51.032],[11.312,51.054],[11.28,51.062],[11.273,51.052],[11.263,51.052],[11.257,51.055],[11.272,51.061],[11.266,51.073],[11.226,51.071]]],[[[11.287,51.127],[11.256,51.131],[11.255,51.103],[11.282,51.102],[11.294,51.126],[11.287,51.127]]]]}},{"type":"Feature","properties":{"NAME":"Imperial Abbey of Berchtesgaden","SUBJECTO":"Holy Roman Empire","PARTOF":"Holy Roman Empire","ADMIN_LEVEL":4,"OHM_RELATION_ID":2830494,"START_DATE":"1194","END_DATE":"1559"},"geometry":{"type":"MultiPolygon","coordinates":[[[[12.898,47.692],[12.885,47.682],[12.853,47.679],[12.837,47.666],[12.851,47.646],[12.832,47.643],[12.822,47.657],[12.78,47.634],[12.78,47.604],[12.793,47.593],[12.781,47.574],[12.798,47.554],[12.82,47.545],[12.847,47.546],[12.851,47.532],[12.884,47.521],[12.921,47.493],[12.969,47.474],[12.975,47.484],[12.995,47.478],[12.995,47.471],[13.009,47.465],[13.03,47.487],[13.047,47.492],[13.045,47.526],[13.032,47.537],[13.058,47.561],[13.041,47.576],[13.043,47.583],[13.07,47.586],[13.063,47.6],[13.096,47.63],[13.098,47.642],[13.074,47.692],[13.018,47.723],[13.008,47.722],[12.989,47.694],[12.979,47.691],[12.952,47.706],[12.898,47.692]]]]}},{"type":"Feature","properties":{"NAME":"Imperial Abbey of Hersfeld","SUBJECTO":"Holy Roman Empire","PARTOF":"Holy Roman Empire","ADMIN_LEVEL":4,"OHM_RELATION_ID":2830973,"START_DATE":"0775","END_DATE":"1648-10-24"},"geometry":{"type":"MultiPolygon","coordinates":[[[[10.061,50.876],[10.044,50.876],[9.982,50.85],[9.934,50.864],[9.813,50.857],[9.73,50.886],[9.748,50.899],[9.755,50.896],[9.753,50.909],[9.712,50.91],[9.692,50.926],[9.616,50.922],[9.597,50.93],[9.561,50.913],[9.547,50.895],[9.495,50.875],[9.518,50.839],[9.507,50.834],[9.511,50.828],[9.501,50.81],[9.553,50.784],[9.56,50.763],[9.602,50.759],[9.629,50.78],[9.695,50.8],[9.7,50.813],[9.729,50.82],[9.74,50.807],[9.791,50.82],[9.807,50.814],[9.799,50.806],[9.812,50.794],[9.881,50.796],[9.896,50.79],[9.892,50.811],[9.899,50.817],[9.952,50.821],[9.957,50.81],[9.944,50.794],[9.955,50.786],[9.944,50.771],[9.969,50.783],[9.988,50.766],[10.04,50.758],[10.048,50.748],[10.043,50.734],[10.079,50.707],[10.076,50.72],[10.097,50.74],[10.06,50.76],[10.069,50.761],[10.075,50.783],[10.086,50.784],[10.078,50.79],[10.079,50.81],[10.057,50.821],[10.041,50.841],[10.054,50.851],[10.05,50.857],[10.061,50.876]],[[9.937,50.837],[9.899,50.841],[9.905,50.86],[9.944,50.845],[9.937,50.837]]],[[[10.074,50.879],[10.076,50.872],[10.092,50.874],[10.1,50.866],[10.114,50.869],[10.143,50.857],[10.189,50.853],[10.21,50.863],[10.185,50.866],[10.19,50.873],[10.22,50.888],[10.211,50.894],[10.198,50.88],[10.179,50.883],[10.17,50.902],[10.143,50.894],[10.137,50.907],[10.111,50.893],[10.094,50.893],[10.074,50.879]]]]}},{"type":"Feature","properties":{"NAME":"Imperial Abbey of Werden","SUBJECTO":"Holy Roman Empire","PARTOF":"Holy Roman Empire","ADMIN_LEVEL":4,"OHM_RELATION_ID":2831007,"START_DATE":"0877-05-22","END_DATE":"1803-04-27"},"geometry":{"type":"MultiPolygon","coordinates":[[[[6.926,51.429],[6.925,51.406],[6.897,51.389],[6.952,51.349],[6.967,51.347],[6.991,51.359],[7.036,51.347],[7.117,51.381],[7.119,51.392],[7.096,51.41],[7.08,51.443],[7.063,51.439],[7.046,51.419],[7.016,51.419],[6.986,51.433],[6.958,51.432],[6.946,51.44],[6.926,51.429]]]]}},{"type":"Feature","properties":{"NAME":"March of Cham","SUBJECTO":"Holy Roman Empire","PARTOF":"Holy Roman Empire","ADMIN_LEVEL":4,"OHM_RELATION_ID":2809509,"START_DATE":"1055","END_DATE":"1204"},"geometry":{"type":"MultiPolygon","coordinates":[[[[12.779,49.326],[12.726,49.315],[12.713,49.292],[12.689,49.317],[12.665,49.322],[12.652,49.347],[12.624,49.337],[12.623,49.316],[12.611,49.312],[12.615,49.288],[12.589,49.245],[12.6,49.244],[12.601,49.224],[12.611,49.214],[12.631,49.207],[12.603,49.204],[12.597,49.168],[12.58,49.165],[12.583,49.121],[12.596,49.115],[12.602,49.093],[12.621,49.094],[12.639,49.083],[12.65,49.1],[12.713,49.107],[12.71,49.125],[12.722,49.164],[12.741,49.167],[12.747,49.2],[12.78,49.194],[12.795,49.209],[12.817,49.211],[12.792,49.258],[12.798,49.266],[12.817,49.263],[12.848,49.275],[12.832,49.296],[12.807,49.295],[12.805,49.307],[12.779,49.326]]]]}},{"type":"Feature","properties":{"NAME":"Moravia","SUBJECTO":"Holy Roman Empire","PARTOF":"Holy Roman Empire","ADMIN_LEVEL":4,"OHM_RELATION_ID":2830504,"START_DATE":"1182","END_DATE":"1742-07-28"},"geometry":{"type":"MultiPolygon","coordinates":[[[[16.983,48.69],[16.998,48.69],[16.993,48.698],[17.003,48.699],[16.995,48.704],[17.005,48.715],[16.998,48.723],[17.017,48.73],[17.046,48.768],[17.092,48.789],[17.11,48.834],[17.119,48.84],[17.148,48.838],[17.151,48.848],[17.168,48.86],[17.177,48.857],[17.178,48.867],[17.195,48.875],[17.222,48.874],[17.277,48.861],[17.302,48.845],[17.322,48.845],[17.33,48.833],[17.364,48.814],[17.395,48.814],[17.45,48.846],[17.477,48.842],[17.526,48.812],[17.592,48.827],[17.601,48.84],[17.618,48.842],[17.634,48.855],[17.706,48.862],[17.781,48.915],[17.781,48.925],[17.884,48.927],[17.922,49.018],[17.991,49.028],[18.024,49.021],[18.069,49.037],[18.092,49.058],[18.116,49.093],[18.111,49.114],[18.119,49.124],[18.107,49.134],[18.133,49.16],[18.132,49.19],[18.153,49.216],[18.149,49.249],[18.185,49.27],[18.184,49.285],[18.297,49.304],[18.374,49.329],[18.416,49.368],[18.408,49.399],[18.45,49.394],[18.475,49.408],[18.49,49.432],[18.548,49.469],[18.534,49.486],[18.541,49.493],[18.527,49.494],[18.525,49.471],[18.466,49.455],[18.442,49.466],[18.421,49.494],[18.423,49.504],[18.394,49.532],[18.397,49.536],[18.377,49.56],[18.367,49.562],[18.367,49.599],[18.354,49.615],[18.367,49.624],[18.368,49.654],[18.36,49.669],[18.319,49.699],[18.303,49.733],[18.309,49.766],[18.275,49.801],[18.3,49.835],[18.276,49.867],[18.227,49.853],[18.225,49.829],[18.214,49.825],[18.219,49.825],[18.218,49.79],[18.196,49.782],[18.19,49.757],[18.12,49.717],[18.01,49.678],[17.992,49.685],[17.992,49.707],[17.982,49.71],[17.987,49.728],[17.98,49.736],[17.955,49.719],[17.918,49.708],[17.899,49.74],[17.902,49.754],[17.89,49.761],[17.901,49.776],[17.866,49.783],[17.864,49.764],[17.84,49.737],[17.87,49.701],[17.845,49.666],[17.845,49.651],[17.854,49.647],[17.884,49.657],[17.924,49.634],[17.93,49.62],[17.838,49.642],[17.835,49.638],[17.871,49.612],[17.863,49.606],[17.836,49.607],[17.788,49.635],[17.778,49.633],[17.768,49.654],[17.74,49.679],[17.748,49.692],[17.765,49.693],[17.755,49.716],[17.717,49.728],[17.697,49.726],[17.69,49.737],[17.694,49.751],[17.653,49.778],[17.64,49.811],[17.658,49.822],[17.658,49.842],[17.648,49.854],[17.659,49.868],[17.684,49.874],[17.714,49.867],[17.818,49.864],[17.837,49.873],[17.851,49.888],[17.851,49.913],[17.865,49.918],[17.867,49.936],[17.884,49.937],[17.871,49.962],[17.847,49.958],[17.857,49.934],[17.827,49.929],[17.81,49.917],[17.738,49.911],[17.714,49.897],[17.696,49.908],[17.643,49.889],[17.616,49.889],[17.599,49.877],[17.559,49.908],[17.532,49.898],[17.531,49.904],[17.507,49.913],[17.502,49.931],[17.468,49.927],[17.461,49.94],[17.465,49.957],[17.431,49.969],[17.4,49.973],[17.396,49.962],[17.411,49.948],[17.386,49.937],[17.355,49.953],[17.349,49.967],[17.322,49.984],[17.312,50.017],[17.288,50.019],[17.231,50.06],[17.231,50.084],[17.218,50.104],[17.158,50.12],[17.119,50.161],[17.109,50.185],[17.076,50.183],[17.057,50.196],[17.033,50.23],[16.997,50.216],[16.978,50.243],[16.962,50.237],[16.957,50.223],[16.913,50.225],[16.888,50.216],[16.879,50.199],[16.849,50.208],[16.841,50.201],[16.841,50.186],[16.822,50.17],[16.8,50.13],[16.801,50.11],[16.82,50.087],[16.8,50.071],[16.814,50.058],[16.81,50.055],[16.78,50.047],[16.761,50.055],[16.696,50.053],[16.708,50.005],[16.735,49.969],[16.734,49.953],[16.694,49.931],[16.683,49.919],[16.683,49.904],[16.644,49.894],[16.66,49.874],[16.662,49.853],[16.627,49.86],[16.569,49.835],[16.573,49.811],[16.565,49.787],[16.581,49.768],[16.582,49.753],[16.572,49.741],[16.534,49.741],[16.528,49.756],[16.506,49.764],[16.507,49.785],[16.497,49.791],[16.469,49.797],[16.455,49.787],[16.42,49.791],[16.406,49.785],[16.408,49.774],[16.388,49.758],[16.388,49.743],[16.376,49.735],[16.366,49.708],[16.445,49.7],[16.474,49.686],[16.481,49.663],[16.515,49.655],[16.529,49.607],[16.497,49.61],[16.49,49.6],[16.459,49.605],[16.443,49.586],[16.418,49.596],[16.406,49.572],[16.345,49.613],[16.298,49.625],[16.223,49.63],[16.228,49.642],[16.218,49.66],[16.222,49.666],[16.207,49.666],[16.19,49.678],[16.149,49.678],[16.139,49.691],[16.104,49.684],[16.091,49.67],[16.079,49.685],[16.064,49.688],[16.05,49.708],[16.015,49.706],[15.997,49.696],[15.973,49.668],[15.947,49.667],[15.928,49.679],[15.917,49.663],[15.92,49.65],[15.95,49.637],[15.974,49.638],[15.987,49.632],[15.992,49.618],[15.949,49.592],[15.871,49.588],[15.869,49.575],[15.875,49.567],[15.885,49.569],[15.887,49.555],[15.858,49.542],[15.842,49.503],[15.821,49.481],[15.824,49.467],[15.792,49.47],[15.785,49.462],[15.789,49.453],[15.779,49.45],[15.698,49.449],[15.688,49.432],[15.648,49.454],[15.634,49.446],[15.644,49.439],[15.639,49.425],[15.604,49.433],[15.608,49.428],[15.584,49.406],[15.548,49.418],[15.512,49.408],[15.516,49.405],[15.5,49.395],[15.504,49.382],[15.491,49.374],[15.492,49.364],[15.418,49.318],[15.388,49.334],[15.357,49.337],[15.386,49.326],[15.381,49.325],[15.387,49.316],[15.345,49.314],[15.331,49.284],[15.335,49.271],[15.299,49.274],[15.295,49.282],[15.28,49.278],[15.269,49.25],[15.279,49.247],[15.235,49.254],[15.227,49.248],[15.233,49.24],[15.225,49.225],[15.192,49.236],[15.168,49.217],[15.166,49.203],[15.135,49.197],[15.137,49.188],[15.164,49.188],[15.163,49.179],[15.183,49.173],[15.183,49.186],[15.214,49.211],[15.255,49.212],[15.26,49.201],[15.282,49.203],[15.267,49.194],[15.221,49.194],[15.206,49.181],[15.238,49.172],[15.226,49.145],[15.26,49.122],[15.251,49.098],[15.238,49.091],[15.265,49.075],[15.23,49.086],[15.207,49.059],[15.248,49.048],[15.255,49.041],[15.249,49.029],[15.286,49.016],[15.291,48.984],[15.322,48.976],[15.353,48.984],[15.423,48.952],[15.454,48.947],[15.468,48.952],[15.502,48.936],[15.513,48.914],[15.58,48.896],[15.612,48.898],[15.63,48.886],[15.655,48.882],[15.688,48.856],[15.708,48.861],[15.755,48.853],[15.778,48.873],[15.843,48.877],[15.85,48.87],[15.846,48.858],[15.865,48.852],[15.877,48.86],[15.886,48.842],[15.898,48.848],[15.905,48.84],[15.892,48.837],[15.931,48.834],[15.925,48.826],[15.934,48.82],[15.944,48.828],[15.956,48.824],[15.953,48.803],[15.997,48.778],[16.08,48.75],[16.279,48.741],[16.331,48.731],[16.34,48.742],[16.352,48.741],[16.36,48.728],[16.407,48.742],[16.419,48.759],[16.435,48.766],[16.46,48.809],[16.518,48.799],[16.541,48.814],[16.565,48.794],[16.598,48.782],[16.643,48.786],[16.729,48.774],[16.862,48.791],[16.872,48.786],[16.868,48.762],[16.892,48.742],[16.889,48.732],[16.879,48.731],[16.889,48.717],[16.92,48.713],[16.94,48.686],[16.972,48.691],[16.974,48.671],[16.983,48.69]]],[[[17.792,49.758],[17.803,49.749],[17.809,49.758],[17.822,49.756],[17.823,49.762],[17.794,49.767],[17.792,49.758]]],[[[18.06,49.728],[18.027,49.732],[18,49.711],[18.021,49.696],[18.061,49.701],[18.06,49.728]]],[[[17.954,49.795],[17.976,49.777],[18.01,49.791],[17.985,49.808],[17.964,49.806],[17.954,49.795]]],[[[17.796,49.969],[17.792,49.966],[17.803,49.957],[17.825,49.962],[17.815,49.97],[17.796,49.969]]],[[[17.62,50.171],[17.703,50.185],[17.72,50.208],[17.738,50.202],[17.759,50.208],[17.762,50.241],[17.745,50.243],[17.726,50.262],[17.726,50.273],[17.751,50.298],[17.731,50.303],[17.719,50.32],[17.691,50.327],[17.687,50.309],[17.695,50.304],[17.627,50.27],[17.61,50.266],[17.587,50.278],[17.562,50.27],[17.491,50.274],[17.459,50.269],[17.453,50.256],[17.434,50.253],[17.425,50.241],[17.422,50.213],[17.429,50.205],[17.463,50.215],[17.485,50.207],[17.517,50.212],[17.542,50.189],[17.606,50.189],[17.62,50.171]]],[[[17.98,49.922],[17.976,49.926],[17.973,49.888],[17.988,49.886],[17.994,49.91],[17.98,49.922]]],[[[18.005,50.05],[18.05,50.081],[18.076,50.083],[18.077,50.068],[18.081,50.092],[18.095,50.06],[18.123,50.065],[18.103,50.072],[18.087,50.103],[18.065,50.113],[18.015,50.13],[17.974,50.127],[17.951,50.108],[17.959,50.093],[17.948,50.07],[17.987,50.064],[17.991,50.051],[18.005,50.05]]]]}},{"type":"Feature","properties":{"NAME":"Prince-Archbishopric of Bremen","SUBJECTO":"Holy Roman Empire","PARTOF":"Holy Roman Empire","ADMIN_LEVEL":4,"OHM_RELATION_ID":2840404,"START_DATE":"1180","END_DATE":"1381"},"geometry":{"type":"Polygon","coordinates":[[[8.467,53.633],[8.473,53.595],[8.552,53.553],[8.567,53.539],[8.573,53.512],[8.571,53.494],[8.556,53.487],[8.566,53.475],[8.531,53.436],[8.528,53.423],[8.493,53.419],[8.501,53.351],[8.49,53.328],[8.493,53.297],[8.481,53.247],[8.485,53.227],[8.534,53.187],[8.618,53.168],[8.626,53.149],[8.631,53.16],[8.691,53.164],[8.703,53.154],[8.683,53.14],[8.626,53.148],[8.629,53.141],[8.644,53.128],[8.697,53.119],[8.764,53.128],[8.77,53.149],[8.796,53.143],[8.808,53.151],[8.824,53.13],[8.851,53.143],[8.862,53.133],[8.903,53.138],[8.911,53.133],[8.922,53.142],[8.917,53.147],[8.955,53.157],[8.95,53.155],[8.959,53.143],[8.997,53.109],[8.988,53.105],[8.987,53.096],[8.963,53.088],[8.963,53.048],[8.917,53.048],[8.917,53.06],[8.884,53.063],[8.888,53.067],[8.872,53.086],[8.84,53.103],[8.836,53.097],[8.858,53.081],[8.858,53.07],[8.833,53.068],[8.845,53.059],[8.872,53.058],[8.865,53.035],[8.891,53.015],[8.94,53.008],[8.944,52.998],[8.973,52.991],[8.964,52.979],[8.972,52.955],[8.93,52.927],[8.937,52.909],[8.956,52.891],[8.966,52.897],[8.982,52.889],[9,52.922],[9.014,52.926],[9.061,52.923],[9.079,52.903],[9.117,52.899],[9.162,52.92],[9.18,52.918],[9.182,52.919],[9.171,52.93],[9.173,52.93],[9.169,52.932],[9.187,52.937],[9.187,52.941],[9.183,52.946],[9.184,52.985],[9.223,53.079],[9.258,53.085],[9.275,53.108],[9.303,53.126],[9.341,53.136],[9.366,53.198],[9.335,53.238],[9.365,53.271],[9.347,53.308],[9.361,53.32],[9.45,53.315],[9.56,53.356],[9.617,53.367],[9.622,53.389],[9.642,53.393],[9.649,53.406],[9.682,53.411],[9.669,53.427],[9.693,53.462],[9.734,53.484],[9.792,53.489],[9.75,53.526],[9.724,53.539],[9.667,53.55],[9.65,53.568],[9.551,53.616],[9.52,53.654],[9.469,53.694],[9.385,53.727],[9.35,53.759],[9.378,53.795],[9.367,53.809],[9.322,53.85],[9.249,53.875],[9.107,53.879],[8.959,53.849],[8.963,53.697],[8.936,53.665],[8.955,53.659],[8.948,53.638],[8.938,53.634],[8.904,53.651],[8.893,53.645],[8.859,53.652],[8.827,53.68],[8.765,53.682],[8.769,53.691],[8.713,53.736],[8.709,53.77],[8.691,53.766],[8.686,53.779],[8.652,53.789],[8.607,53.795],[8.585,53.791],[8.574,53.815],[8.558,53.818],[8.538,53.82],[8.474,53.712],[8.467,53.633]]]}},{"type":"Feature","properties":{"NAME":"Prince-Archbishopric of Magdeburg","SUBJECTO":"Holy Roman Empire","PARTOF":"Holy Roman Empire","ADMIN_LEVEL":4,"OHM_RELATION_ID":2809710,"START_DATE":"1180","END_DATE":"1680-06-04"},"geometry":{"type":"MultiPolygon","coordinates":[[[[10.935,52.465],[10.961,52.436],[11.022,52.393],[11.065,52.377],[11.148,52.385],[11.146,52.419],[11.092,52.451],[11.051,52.508],[11.035,52.498],[10.975,52.501],[10.943,52.492],[10.935,52.465]]],[[[10.941,52.096],[10.97,52.087],[10.965,52.056],[10.987,52.052],[11.13,52.061],[11.188,52.105],[11.24,52.062],[11.273,52.066],[11.321,52.026],[11.317,52.006],[11.27,52.014],[11.264,51.998],[11.285,51.998],[11.294,51.989],[11.292,51.958],[11.3,51.972],[11.352,51.961],[11.373,51.935],[11.34,51.9],[11.365,51.882],[11.423,51.929],[11.465,51.939],[11.511,51.927],[11.541,51.882],[11.531,51.874],[11.565,51.853],[11.605,51.851],[11.633,51.862],[11.67,51.855],[11.687,51.855],[11.693,51.859],[11.674,51.868],[11.695,51.871],[11.765,51.863],[11.773,51.879],[11.783,51.881],[11.828,51.872],[11.829,51.859],[11.862,51.835],[11.849,51.819],[11.866,51.811],[11.882,51.838],[11.923,51.858],[11.907,51.864],[11.91,51.872],[11.933,51.881],[11.959,51.87],[11.955,51.857],[11.964,51.845],[11.951,51.807],[11.927,51.81],[11.928,51.792],[11.944,51.791],[11.959,51.8],[11.953,51.792],[11.983,51.791],[11.987,51.795],[11.977,51.8],[11.982,51.807],[12.004,51.823],[12.027,51.818],[12.052,51.832],[12.107,51.826],[12.105,51.809],[12.137,51.815],[12.135,51.84],[12.144,51.866],[12.114,51.872],[12.056,51.859],[12.026,51.863],[12.016,51.887],[11.974,51.909],[11.967,51.922],[11.929,51.949],[11.9,51.946],[11.9,51.935],[11.883,51.93],[11.867,51.934],[11.867,51.924],[11.883,51.916],[11.854,51.913],[11.836,51.924],[11.829,51.919],[11.814,51.935],[11.792,51.943],[11.734,51.937],[11.722,51.946],[11.714,51.944],[11.712,51.929],[11.691,51.931],[11.694,51.95],[11.68,51.956],[11.696,51.967],[11.766,51.977],[11.767,51.992],[11.737,51.995],[11.747,52.01],[11.801,51.989],[11.822,52.006],[11.789,52.032],[11.752,52.023],[11.732,52.028],[11.708,52.042],[11.713,52.045],[11.692,52.067],[11.696,52.07],[11.71,52.052],[11.741,52.047],[11.732,52.051],[11.749,52.056],[11.755,52.064],[11.749,52.073],[11.766,52.077],[11.751,52.094],[11.834,52.098],[11.832,52.107],[11.8,52.102],[11.803,52.111],[11.886,52.124],[11.902,52.117],[11.911,52.13],[11.907,52.155],[11.896,52.156],[11.893,52.172],[11.858,52.182],[11.843,52.206],[11.812,52.216],[11.825,52.229],[11.847,52.229],[11.87,52.249],[11.869,52.258],[11.888,52.269],[11.916,52.28],[11.947,52.27],[11.971,52.247],[11.945,52.234],[11.951,52.217],[11.993,52.215],[11.993,52.199],[11.927,52.198],[11.931,52.167],[11.915,52.154],[11.931,52.114],[11.928,52.102],[11.911,52.103],[11.904,52.068],[11.89,52.068],[11.886,52.061],[11.904,52.061],[11.917,52.044],[11.94,52.043],[11.929,52.026],[11.886,52.024],[11.899,52.017],[11.885,52.015],[11.891,52.001],[11.884,51.979],[11.91,51.958],[11.916,51.957],[11.899,51.97],[11.929,51.965],[11.93,51.97],[11.901,51.982],[11.911,52.002],[11.951,52.005],[11.964,51.999],[11.994,52.007],[11.994,52.018],[12.017,52.039],[12.052,52.045],[12.031,52.048],[12.039,52.063],[12.061,52.059],[12.081,52.076],[12.134,52.069],[12.178,52.077],[12.205,52.089],[12.212,52.103],[12.273,52.102],[12.268,52.125],[12.257,52.134],[12.295,52.155],[12.358,52.137],[12.365,52.144],[12.422,52.153],[12.434,52.165],[12.443,52.189],[12.435,52.196],[12.398,52.195],[12.347,52.211],[12.334,52.222],[12.257,52.233],[12.218,52.22],[12.158,52.219],[12.146,52.229],[12.147,52.249],[12.136,52.253],[12.134,52.265],[12.206,52.279],[12.244,52.266],[12.308,52.345],[12.342,52.34],[12.339,52.314],[12.373,52.303],[12.464,52.318],[12.469,52.33],[12.421,52.348],[12.438,52.364],[12.452,52.364],[12.477,52.395],[12.458,52.399],[12.445,52.386],[12.406,52.401],[12.394,52.391],[12.388,52.432],[12.366,52.429],[12.362,52.438],[12.405,52.456],[12.432,52.458],[12.454,52.492],[12.441,52.503],[12.415,52.509],[12.412,52.501],[12.386,52.516],[12.353,52.51],[12.335,52.528],[12.308,52.531],[12.304,52.545],[12.324,52.549],[12.312,52.555],[12.313,52.562],[12.33,52.569],[12.322,52.58],[12.329,52.591],[12.315,52.599],[12.322,52.607],[12.315,52.612],[12.319,52.636],[12.334,52.655],[12.297,52.672],[12.283,52.662],[12.271,52.669],[12.241,52.665],[12.227,52.682],[12.231,52.686],[12.222,52.688],[12.218,52.707],[12.199,52.717],[12.207,52.725],[12.201,52.728],[12.219,52.736],[12.22,52.749],[12.206,52.761],[12.224,52.776],[12.224,52.787],[12.213,52.795],[12.166,52.804],[12.141,52.783],[12.109,52.783],[12.106,52.795],[12.078,52.8],[12.072,52.817],[12.023,52.812],[12.042,52.734],[12.015,52.682],[12.01,52.661],[12.016,52.625],[11.987,52.572],[11.98,52.537],[11.96,52.519],[11.982,52.498],[11.987,52.473],[12.002,52.461],[11.991,52.429],[11.96,52.399],[11.935,52.395],[11.864,52.412],[11.841,52.402],[11.835,52.389],[11.766,52.379],[11.772,52.4],[11.722,52.409],[11.696,52.401],[11.698,52.371],[11.67,52.351],[11.623,52.361],[11.626,52.375],[11.646,52.369],[11.674,52.387],[11.67,52.396],[11.637,52.404],[11.622,52.397],[11.619,52.379],[11.466,52.374],[11.442,52.357],[11.44,52.372],[11.404,52.375],[11.397,52.372],[11.403,52.36],[11.352,52.338],[11.334,52.352],[11.313,52.353],[11.304,52.339],[11.309,52.329],[11.215,52.309],[11.194,52.311],[11.193,52.296],[11.171,52.294],[11.186,52.273],[11.258,52.245],[11.261,52.229],[11.284,52.229],[11.303,52.201],[11.236,52.183],[11.219,52.185],[11.234,52.204],[11.207,52.23],[11.177,52.238],[11.167,52.257],[11.132,52.287],[11.094,52.289],[11.066,52.275],[11.085,52.237],[11.077,52.224],[11.026,52.21],[11.012,52.188],[11.039,52.166],[11.06,52.172],[11.043,52.139],[11.034,52.13],[10.941,52.096]],[[11.895,52.327],[11.926,52.356],[11.942,52.341],[11.967,52.332],[11.905,52.318],[11.895,52.327]],[[12.062,52.212],[12.07,52.23],[12.094,52.233],[12.121,52.226],[12.1,52.207],[12.062,52.212]],[[12.073,52.17],[12.127,52.188],[12.183,52.168],[12.166,52.151],[12.142,52.159],[12.149,52.146],[12.109,52.124],[12.113,52.147],[12.097,52.167],[12.073,52.17]]],[[[11.604,51.666],[11.693,51.649],[11.721,51.63],[11.752,51.633],[11.759,51.583],[11.791,51.584],[11.799,51.573],[11.832,51.57],[11.82,51.556],[11.819,51.533],[11.839,51.528],[11.842,51.513],[11.832,51.511],[11.833,51.498],[11.863,51.493],[11.864,51.487],[11.846,51.47],[11.829,51.467],[11.823,51.475],[11.801,51.466],[11.82,51.455],[11.836,51.424],[11.853,51.46],[11.943,51.481],[11.955,51.48],[11.948,51.478],[11.953,51.468],[11.937,51.452],[11.929,51.457],[11.926,51.446],[11.953,51.433],[11.956,51.42],[11.944,51.424],[11.942,51.415],[11.953,51.416],[11.955,51.407],[12.019,51.402],[12.05,51.422],[12.056,51.421],[12.046,51.395],[12.065,51.387],[12.085,51.391],[12.09,51.423],[12.117,51.418],[12.165,51.407],[12.17,51.423],[12.151,51.459],[12.077,51.454],[12.074,51.46],[12.057,51.46],[12.038,51.477],[12.039,51.488],[12.088,51.485],[12.09,51.491],[12.054,51.494],[12.074,51.503],[12.071,51.512],[12.086,51.508],[12.128,51.517],[12.119,51.528],[12.082,51.522],[12.078,51.534],[12.169,51.55],[12.165,51.576],[12.046,51.584],[12.023,51.592],[12.02,51.58],[11.98,51.575],[11.992,51.585],[11.983,51.601],[11.953,51.601],[11.952,51.62],[11.968,51.627],[11.915,51.626],[11.945,51.631],[11.933,51.64],[11.946,51.645],[11.949,51.667],[11.928,51.665],[11.924,51.646],[11.863,51.678],[11.813,51.687],[11.802,51.7],[11.798,51.724],[11.78,51.732],[11.775,51.753],[11.743,51.739],[11.73,51.745],[11.694,51.743],[11.723,51.732],[11.725,51.726],[11.714,51.726],[11.708,51.715],[11.689,51.721],[11.693,51.725],[11.624,51.732],[11.615,51.703],[11.626,51.706],[11.634,51.694],[11.611,51.691],[11.613,51.677],[11.604,51.666]]],[[[11.867,51.741],[11.87,51.734],[11.907,51.727],[11.91,51.733],[11.909,51.74],[11.884,51.751],[11.877,51.75],[11.879,51.739],[11.867,51.741]]],[[[12.876,52.02],[12.885,52.005],[12.932,51.993],[12.932,51.988],[12.904,51.982],[12.904,51.962],[12.929,51.961],[12.931,51.972],[12.957,51.978],[12.97,51.975],[12.968,51.962],[12.992,51.961],[12.994,51.948],[13.002,51.944],[13.053,51.941],[13.066,51.935],[13.058,51.915],[13.039,51.918],[13.032,51.901],[13.08,51.906],[13.088,51.895],[13.085,51.874],[13.132,51.882],[13.15,51.872],[13.151,51.86],[13.159,51.861],[13.165,51.884],[13.23,51.878],[13.233,51.895],[13.266,51.895],[13.271,51.915],[13.254,51.927],[13.255,51.94],[13.295,51.945],[13.323,51.937],[13.353,51.947],[13.355,51.936],[13.378,51.93],[13.373,51.915],[13.333,51.905],[13.332,51.878],[13.318,51.863],[13.314,51.845],[13.301,51.84],[13.31,51.831],[13.363,51.83],[13.408,51.816],[13.459,51.848],[13.513,51.831],[13.505,51.866],[13.539,51.866],[13.542,51.879],[13.516,51.879],[13.521,51.906],[13.495,51.914],[13.492,51.928],[13.482,51.933],[13.454,51.927],[13.45,51.972],[13.373,51.973],[13.376,51.957],[13.35,51.959],[13.346,51.971],[13.32,51.973],[13.315,51.989],[13.343,51.99],[13.356,51.998],[13.361,52.042],[13.336,52.058],[13.323,52.054],[13.327,52.077],[13.268,52.087],[13.251,52.112],[13.222,52.12],[13.194,52.155],[13.192,52.191],[13.206,52.225],[13.218,52.235],[13.17,52.268],[13.135,52.262],[13.107,52.245],[13.098,52.218],[12.984,52.147],[12.952,52.143],[12.982,52.129],[12.993,52.096],[12.939,52.107],[12.909,52.064],[12.962,52.043],[12.976,52.025],[12.904,52.036],[12.876,52.02]]],[[[13.542,51.879],[13.575,51.889],[13.578,51.897],[13.552,51.903],[13.553,51.891],[13.542,51.879]]]]}},{"type":"Feature","properties":{"NAME":"Prince-Bishopric of Basel","SUBJECTO":"Holy Roman Empire","PARTOF":"Holy Roman Empire","ADMIN_LEVEL":4,"OHM_RELATION_ID":2852254,"START_DATE":"1032","END_DATE":"1797-10-17"},"geometry":{"type":"MultiPolygon","coordinates":[[[[6.842,47.172],[6.855,47.161],[6.862,47.166],[6.889,47.131],[6.869,47.087],[6.931,47.108],[7.028,47.127],[7.041,47.124],[7.024,47.113],[7.029,47.104],[7.041,47.109],[7.076,47.096],[7.089,47.083],[7.077,47.076],[7.088,47.06],[7.135,47.084],[7.128,47.089],[7.142,47.098],[7.137,47.107],[7.2,47.134],[7.241,47.128],[7.294,47.161],[7.326,47.162],[7.344,47.153],[7.37,47.159],[7.374,47.149],[7.366,47.144],[7.376,47.141],[7.386,47.148],[7.389,47.158],[7.361,47.171],[7.357,47.184],[7.339,47.195],[7.346,47.207],[7.341,47.217],[7.422,47.242],[7.416,47.253],[7.471,47.266],[7.487,47.284],[7.532,47.295],[7.572,47.326],[7.524,47.371],[7.46,47.37],[7.437,47.379],[7.444,47.401],[7.478,47.402],[7.48,47.388],[7.519,47.388],[7.53,47.414],[7.572,47.417],[7.575,47.438],[7.582,47.429],[7.614,47.436],[7.627,47.463],[7.605,47.47],[7.614,47.521],[7.594,47.519],[7.581,47.544],[7.556,47.544],[7.565,47.557],[7.555,47.564],[7.5,47.54],[7.501,47.529],[7.53,47.53],[7.523,47.519],[7.536,47.514],[7.53,47.462],[7.456,47.449],[7.443,47.461],[7.43,47.459],[7.421,47.446],[7.438,47.446],[7.456,47.428],[7.449,47.415],[7.438,47.413],[7.376,47.414],[7.376,47.433],[7.333,47.441],[7.282,47.435],[7.249,47.421],[7.231,47.439],[7.2,47.435],[7.17,47.443],[7.187,47.483],[7.203,47.491],[7.162,47.49],[7.13,47.503],[7.075,47.488],[7.037,47.498],[7.011,47.484],[7.002,47.469],[7.006,47.458],[6.996,47.45],[6.942,47.434],[6.938,47.406],[6.913,47.405],[6.91,47.385],[6.884,47.373],[6.879,47.356],[6.976,47.361],[7.014,47.372],[7.046,47.363],[7.062,47.344],[7.046,47.326],[6.967,47.325],[6.971,47.318],[7.015,47.317],[7.01,47.297],[7.003,47.289],[6.956,47.292],[6.928,47.281],[6.924,47.275],[6.935,47.27],[6.93,47.258],[6.955,47.243],[6.88,47.2],[6.874,47.185],[6.842,47.172]]],[[[7.519,47.674],[7.542,47.646],[7.549,47.661],[7.562,47.665],[7.549,47.681],[7.519,47.674]]],[[[7.551,47.744],[7.58,47.735],[7.628,47.725],[7.63,47.737],[7.616,47.755],[7.614,47.775],[7.574,47.776],[7.551,47.744]]]]}},{"type":"Feature","properties":{"NAME":"Prince-Bishopric of Lübeck","SUBJECTO":"Holy Roman Empire","PARTOF":"Holy Roman Empire","ADMIN_LEVEL":4,"OHM_RELATION_ID":2835925,"START_DATE":"1180","END_DATE":"1803-04-27"},"geometry":{"type":"MultiPolygon","coordinates":[[[[10.551,53.938],[10.543,53.926],[10.573,53.922],[10.571,53.906],[10.632,53.917],[10.663,53.898],[10.704,53.911],[10.734,53.909],[10.751,53.92],[10.808,53.932],[10.828,53.946],[10.827,53.965],[10.851,53.986],[10.843,53.988],[10.84,54.038],[10.755,54.054],[10.758,54.04],[10.694,54.026],[10.69,54.019],[10.704,54.013],[10.702,54.006],[10.666,54.008],[10.634,54.027],[10.623,54.009],[10.644,54.002],[10.65,53.982],[10.67,53.971],[10.667,53.964],[10.647,53.96],[10.636,53.966],[10.641,53.971],[10.629,53.969],[10.629,53.944],[10.641,53.944],[10.639,53.936],[10.601,53.924],[10.58,53.927],[10.576,53.945],[10.556,53.965],[10.535,53.955],[10.551,53.938]]],[[[10.598,54.07],[10.595,54.102],[10.628,54.094],[10.659,54.098],[10.677,54.09],[10.692,54.101],[10.707,54.092],[10.737,54.095],[10.756,54.107],[10.754,54.121],[10.724,54.127],[10.709,54.117],[10.697,54.121],[10.689,54.15],[10.664,54.153],[10.666,54.163],[10.651,54.173],[10.653,54.184],[10.674,54.189],[10.671,54.207],[10.62,54.227],[10.607,54.224],[10.61,54.231],[10.573,54.236],[10.54,54.228],[10.549,54.22],[10.538,54.219],[10.54,54.207],[10.528,54.188],[10.495,54.184],[10.483,54.174],[10.516,54.14],[10.541,54.134],[10.539,54.123],[10.495,54.123],[10.481,54.116],[10.479,54.104],[10.437,54.118],[10.441,54.125],[10.422,54.116],[10.427,54.09],[10.421,54.082],[10.459,54.061],[10.484,54.059],[10.506,54.073],[10.598,54.07]]]]}},{"type":"Feature","properties":{"NAME":"Prince-Bishopric of Passau","SUBJECTO":"Holy Roman Empire","PARTOF":"Holy Roman Empire","ADMIN_LEVEL":4,"OHM_RELATION_ID":2809505,"START_DATE":"999","END_DATE":"1803-04-27"},"geometry":{"type":"MultiPolygon","coordinates":[[[[13.234,48.671],[13.242,48.655],[13.266,48.644],[13.267,48.608],[13.385,48.595],[13.408,48.578],[13.45,48.576],[13.438,48.566],[13.401,48.567],[13.39,48.542],[13.362,48.531],[13.362,48.488],[13.383,48.487],[13.387,48.473],[13.41,48.476],[13.435,48.497],[13.447,48.494],[13.457,48.511],[13.436,48.553],[13.45,48.564],[13.475,48.556],[13.475,48.562],[13.504,48.572],[13.505,48.587],[13.516,48.591],[13.573,48.561],[13.597,48.57],[13.654,48.549],[13.657,48.544],[13.639,48.544],[13.643,48.539],[13.637,48.528],[13.654,48.504],[13.68,48.491],[13.677,48.484],[13.696,48.472],[13.704,48.476],[13.7,48.479],[13.72,48.506],[13.715,48.512],[13.727,48.513],[13.749,48.532],[13.744,48.542],[13.755,48.564],[13.768,48.554],[13.802,48.574],[13.802,48.595],[13.824,48.618],[13.826,48.63],[13.814,48.65],[13.819,48.672],[13.813,48.692],[13.833,48.692],[13.837,48.7],[13.812,48.702],[13.799,48.712],[13.82,48.733],[13.821,48.755],[13.84,48.772],[13.804,48.781],[13.815,48.797],[13.796,48.815],[13.793,48.829],[13.768,48.833],[13.733,48.887],[13.719,48.879],[13.676,48.879],[13.624,48.937],[13.625,48.949],[13.606,48.941],[13.58,48.971],[13.512,48.969],[13.506,48.96],[13.515,48.937],[13.507,48.923],[13.523,48.898],[13.522,48.879],[13.507,48.863],[13.453,48.856],[13.449,48.848],[13.47,48.843],[13.461,48.832],[13.447,48.831],[13.449,48.818],[13.44,48.81],[13.449,48.79],[13.425,48.756],[13.455,48.718],[13.451,48.688],[13.437,48.677],[13.39,48.682],[13.381,48.67],[13.372,48.67],[13.367,48.688],[13.348,48.689],[13.342,48.676],[13.308,48.68],[13.271,48.694],[13.238,48.686],[13.234,48.671]],[[13.437,48.637],[13.536,48.63],[13.532,48.606],[13.502,48.609],[13.483,48.6],[13.491,48.574],[13.437,48.637]]],[[[13.288,48.338],[13.32,48.319],[13.376,48.357],[13.357,48.369],[13.288,48.338]]]]}},{"type":"Feature","properties":{"NAME":"Prince-Bishopric of Verden","SUBJECTO":"Holy Roman Empire","PARTOF":"Holy Roman Empire","ADMIN_LEVEL":4,"OHM_RELATION_ID":2835911,"START_DATE":"1180","END_DATE":"1648-10-24"},"geometry":{"type":"MultiPolygon","coordinates":[[[[9.293,52.818],[9.325,52.822],[9.335,52.834],[9.366,52.821],[9.373,52.825],[9.391,52.843],[9.376,52.853],[9.413,52.879],[9.416,52.899],[9.478,52.933],[9.561,52.959],[9.621,52.953],[9.683,52.981],[9.692,52.992],[9.75,53.004],[9.786,53.022],[9.869,53.023],[9.901,53.057],[9.926,53.099],[9.891,53.141],[9.842,53.16],[9.831,53.175],[9.751,53.199],[9.729,53.214],[9.624,53.227],[9.609,53.242],[9.588,53.309],[9.562,53.337],[9.584,53.358],[9.56,53.356],[9.45,53.315],[9.361,53.32],[9.347,53.308],[9.365,53.271],[9.335,53.238],[9.366,53.198],[9.341,53.136],[9.303,53.126],[9.275,53.108],[9.258,53.085],[9.223,53.079],[9.184,52.985],[9.183,52.946],[9.19,52.937],[9.169,52.932],[9.189,52.921],[9.166,52.913],[9.175,52.887],[9.212,52.875],[9.203,52.863],[9.181,52.864],[9.182,52.856],[9.221,52.851],[9.219,52.844],[9.206,52.844],[9.193,52.816],[9.293,52.818]]]]}},{"type":"Feature","properties":{"NAME":"Prince-Bishopric of Worms","SUBJECTO":"Holy Roman Empire","PARTOF":"Holy Roman Empire","ADMIN_LEVEL":4,"OHM_RELATION_ID":2830736,"START_DATE":"0861","END_DATE":"1797-10-10"},"geometry":{"type":"MultiPolygon","coordinates":[[[[8.08,49.545],[8.042,49.523],[8.08,49.533],[8.089,49.524],[8.075,49.519],[8.085,49.513],[8.154,49.541],[8.149,49.554],[8.136,49.555],[8.135,49.562],[8.094,49.534],[8.08,49.545]]],[[[8.423,49.541],[8.414,49.559],[8.423,49.584],[8.464,49.59],[8.495,49.573],[8.513,49.587],[8.554,49.586],[8.59,49.592],[8.591,49.6],[8.562,49.604],[8.573,49.634],[8.532,49.619],[8.516,49.623],[8.487,49.614],[8.443,49.613],[8.418,49.628],[8.39,49.628],[8.374,49.616],[8.278,49.616],[8.275,49.609],[8.283,49.608],[8.29,49.591],[8.338,49.601],[8.344,49.596],[8.325,49.582],[8.317,49.568],[8.325,49.561],[8.311,49.555],[8.317,49.55],[8.359,49.558],[8.353,49.552],[8.372,49.547],[8.376,49.54],[8.394,49.55],[8.423,49.541]]],[[[8.233,49.588],[8.212,49.587],[8.222,49.56],[8.213,49.556],[8.22,49.546],[8.233,49.548],[8.24,49.537],[8.275,49.539],[8.281,49.587],[8.233,49.588]]]]}},{"type":"Feature","properties":{"NAME":"Prince-Bishopric of Würzburg","SUBJECTO":"Holy Roman Empire","PARTOF":"Holy Roman Empire","ADMIN_LEVEL":4,"OHM_RELATION_ID":2830508,"START_DATE":"1168","END_DATE":"1803-04-27"},"geometry":{"type":"MultiPolygon","coordinates":[[[[9.245,49.61],[9.255,49.602],[9.248,49.595],[9.269,49.584],[9.264,49.578],[9.275,49.568],[9.309,49.533],[9.345,49.548],[9.298,49.59],[9.293,49.615],[9.31,49.618],[9.331,49.61],[9.351,49.634],[9.294,49.655],[9.261,49.646],[9.265,49.632],[9.249,49.624],[9.245,49.61]]],[[[9.38,49.607],[9.404,49.587],[9.422,49.59],[9.441,49.573],[9.439,49.561],[9.463,49.563],[9.491,49.579],[9.511,49.566],[9.534,49.567],[9.539,49.582],[9.567,49.604],[9.565,49.611],[9.548,49.61],[9.538,49.623],[9.524,49.621],[9.509,49.651],[9.484,49.647],[9.486,49.658],[9.444,49.665],[9.436,49.664],[9.42,49.639],[9.403,49.64],[9.38,49.607]]],[[[9.447,49.903],[9.497,49.861],[9.509,49.864],[9.496,49.88],[9.508,49.884],[9.535,49.862],[9.578,49.869],[9.63,49.85],[9.653,49.83],[9.644,49.823],[9.577,49.821],[9.582,49.811],[9.618,49.805],[9.623,49.797],[9.614,49.79],[9.626,49.789],[9.661,49.76],[9.697,49.775],[9.725,49.762],[9.71,49.746],[9.671,49.744],[9.661,49.752],[9.643,49.726],[9.641,49.699],[9.617,49.69],[9.658,49.621],[9.604,49.596],[9.592,49.575],[9.565,49.576],[9.558,49.565],[9.57,49.545],[9.638,49.549],[9.726,49.537],[9.752,49.547],[9.731,49.564],[9.774,49.589],[9.818,49.578],[9.802,49.564],[9.812,49.556],[9.858,49.546],[9.875,49.578],[9.914,49.583],[9.898,49.564],[9.925,49.561],[9.927,49.551],[9.922,49.551],[9.924,49.525],[9.917,49.518],[9.924,49.509],[9.917,49.491],[9.954,49.481],[9.96,49.472],[9.949,49.465],[9.931,49.471],[9.911,49.467],[9.901,49.438],[9.934,49.437],[9.941,49.444],[9.962,49.436],[9.96,49.428],[9.895,49.416],[9.891,49.405],[9.864,49.393],[9.859,49.377],[9.871,49.373],[9.882,49.375],[9.888,49.387],[9.924,49.373],[9.969,49.397],[9.998,49.392],[10.014,49.403],[10.038,49.402],[10.04,49.411],[9.986,49.431],[9.993,49.446],[9.972,49.481],[9.975,49.481],[10.014,49.484],[10.027,49.502],[10.028,49.503],[10.034,49.504],[10.05,49.509],[10.059,49.518],[10.04,49.528],[10.042,49.529],[10.041,49.529],[10.043,49.53],[10.062,49.543],[10.062,49.545],[10.064,49.545],[10.065,49.546],[10.084,49.544],[10.086,49.541],[10.088,49.541],[10.099,49.529],[10.156,49.539],[10.181,49.545],[10.169,49.554],[10.165,49.569],[10.174,49.582],[10.072,49.588],[10.072,49.607],[10.088,49.625],[10.068,49.624],[10.061,49.647],[10.097,49.655],[10.114,49.687],[10.128,49.69],[10.123,49.696],[10.159,49.723],[10.219,49.725],[10.239,49.714],[10.234,49.695],[10.216,49.694],[10.21,49.679],[10.187,49.679],[10.184,49.652],[10.228,49.651],[10.226,49.665],[10.252,49.668],[10.304,49.694],[10.35,49.69],[10.35,49.701],[10.374,49.704],[10.359,49.718],[10.317,49.733],[10.284,49.798],[10.308,49.806],[10.32,49.819],[10.356,49.824],[10.37,49.816],[10.357,49.792],[10.407,49.78],[10.443,49.838],[10.437,49.847],[10.462,49.875],[10.49,49.868],[10.53,49.883],[10.528,49.897],[10.571,49.915],[10.565,49.92],[10.595,49.922],[10.618,49.932],[10.603,49.941],[10.607,49.948],[10.677,49.94],[10.705,49.954],[10.759,49.96],[10.769,49.972],[10.753,49.978],[10.708,50.035],[10.723,50.044],[10.754,50.03],[10.883,50.038],[10.876,50.062],[10.828,50.077],[10.824,50.096],[10.84,50.115],[10.899,50.139],[10.903,50.15],[10.922,50.154],[10.914,50.168],[10.877,50.176],[10.873,50.198],[10.858,50.205],[10.827,50.194],[10.821,50.181],[10.787,50.177],[10.771,50.204],[10.837,50.221],[10.827,50.238],[10.801,50.252],[10.782,50.252],[10.769,50.241],[10.733,50.251],[10.727,50.232],[10.732,50.213],[10.724,50.205],[10.687,50.222],[10.658,50.224],[10.663,50.228],[10.612,50.224],[10.599,50.246],[10.611,50.25],[10.599,50.263],[10.604,50.272],[10.592,50.27],[10.605,50.294],[10.593,50.317],[10.601,50.334],[10.562,50.338],[10.551,50.344],[10.555,50.357],[10.543,50.364],[10.533,50.365],[10.515,50.35],[10.514,50.359],[10.492,50.355],[10.496,50.367],[10.489,50.375],[10.47,50.374],[10.459,50.382],[10.449,50.403],[10.426,50.394],[10.395,50.395],[10.384,50.406],[10.404,50.425],[10.372,50.432],[10.382,50.439],[10.368,50.439],[10.336,50.466],[10.342,50.483],[10.331,50.494],[10.301,50.494],[10.303,50.486],[10.269,50.477],[10.251,50.44],[10.245,50.442],[10.248,50.432],[10.236,50.431],[10.232,50.42],[10.177,50.445],[10.149,50.442],[10.111,50.451],[10.097,50.461],[10.099,50.467],[10.083,50.474],[10.084,50.485],[10.118,50.481],[10.124,50.491],[10.111,50.499],[10.144,50.503],[10.155,50.502],[10.161,50.478],[10.175,50.469],[10.205,50.469],[10.2,50.5],[10.23,50.511],[10.231,50.532],[10.194,50.555],[10.176,50.544],[10.129,50.564],[10.109,50.564],[10.1,50.555],[10.073,50.538],[10.074,50.528],[10.045,50.517],[10.039,50.528],[10.061,50.557],[10.045,50.576],[10.047,50.601],[10.026,50.618],[9.997,50.619],[9.982,50.603],[10.015,50.538],[10.014,50.507],[9.977,50.533],[9.949,50.518],[9.946,50.501],[9.957,50.485],[9.996,50.461],[9.993,50.452],[9.958,50.424],[9.884,50.399],[9.876,50.369],[9.853,50.357],[9.883,50.331],[9.912,50.336],[9.929,50.33],[9.932,50.324],[9.901,50.311],[9.9,50.3],[9.916,50.276],[9.898,50.264],[9.927,50.239],[9.912,50.232],[9.92,50.214],[9.912,50.208],[9.968,50.201],[9.956,50.192],[9.956,50.165],[9.97,50.16],[9.984,50.141],[9.975,50.13],[9.945,50.127],[9.931,50.093],[9.941,50.088],[9.901,50.056],[9.91,50.043],[9.868,50.045],[9.852,50.076],[9.856,50.086],[9.835,50.093],[9.756,50.092],[9.752,50.103],[9.731,50.093],[9.717,50.099],[9.729,50.105],[9.695,50.127],[9.688,50.114],[9.641,50.124],[9.595,50.119],[9.594,50.079],[9.603,50.069],[9.658,50.066],[9.679,50.078],[9.686,50.077],[9.689,50.061],[9.683,50.055],[9.643,50.056],[9.651,50.029],[9.622,50.022],[9.581,49.996],[9.599,49.951],[9.502,49.953],[9.447,49.903]],[[10.122,50.563],[10.151,50.552],[10.139,50.543],[10.121,50.556],[10.122,50.563]],[[9.647,49.92],[9.666,49.929],[9.72,49.93],[9.735,49.914],[9.687,49.9],[9.701,49.889],[9.739,49.888],[9.744,49.86],[9.709,49.858],[9.672,49.888],[9.66,49.887],[9.658,49.895],[9.666,49.9],[9.647,49.92]],[[9.676,49.693],[9.677,49.716],[9.701,49.717],[9.724,49.744],[9.755,49.75],[9.792,49.731],[9.753,49.71],[9.751,49.697],[9.736,49.688],[9.676,49.693]],[[9.676,49.806],[9.682,49.815],[9.718,49.819],[9.73,49.789],[9.702,49.778],[9.676,49.806]],[[9.764,50.074],[9.78,50.081],[9.799,50.076],[9.793,50.054],[9.766,50.061],[9.764,50.074]],[[9.838,49.918],[9.856,49.938],[9.857,49.969],[9.89,49.965],[9.89,49.926],[9.838,49.918]],[[9.9,49.671],[9.906,49.685],[9.93,49.685],[9.949,49.709],[10.024,49.697],[10.031,49.676],[9.963,49.686],[9.951,49.675],[9.963,49.658],[9.953,49.623],[9.928,49.623],[9.916,49.647],[9.932,49.667],[9.9,49.671]],[[10.042,49.719],[10.042,49.728],[10.105,49.742],[10.113,49.734],[10.098,49.716],[10.061,49.703],[10.06,49.715],[10.042,49.719]],[[10.129,49.901],[10.172,49.904],[10.187,49.873],[10.141,49.869],[10.129,49.901]],[[10.167,50.028],[10.19,50.043],[10.182,50.053],[10.195,50.068],[10.205,50.073],[10.225,50.066],[10.229,50.085],[10.222,50.091],[10.237,50.122],[10.262,50.14],[10.275,50.139],[10.281,50.147],[10.323,50.14],[10.31,50.129],[10.269,50.132],[10.295,50.112],[10.257,50.086],[10.267,50.067],[10.26,50.059],[10.276,50.058],[10.241,50.039],[10.239,50.023],[10.249,50.019],[10.235,50.014],[10.212,50.009],[10.167,50.028]],[[10.269,49.897],[10.283,49.902],[10.279,49.916],[10.292,49.92],[10.313,49.884],[10.274,49.885],[10.269,49.897]],[[10.272,49.853],[10.299,49.858],[10.313,49.845],[10.29,49.832],[10.275,49.834],[10.272,49.853]],[[10.437,50.17],[10.45,50.196],[10.47,50.187],[10.471,50.178],[10.437,50.17]],[[10.513,49.964],[10.525,49.979],[10.517,49.992],[10.539,50.024],[10.598,50.025],[10.622,50.039],[10.613,50.051],[10.574,50.051],[10.574,50.062],[10.538,50.069],[10.52,50.088],[10.551,50.095],[10.58,50.087],[10.595,50.097],[10.632,50.083],[10.62,50.078],[10.647,50.058],[10.655,50.056],[10.653,50.07],[10.663,50.074],[10.686,50.069],[10.685,50.048],[10.659,50.041],[10.689,50.001],[10.69,49.974],[10.656,49.974],[10.64,49.987],[10.618,49.991],[10.599,49.976],[10.579,49.974],[10.563,49.953],[10.536,49.944],[10.516,49.948],[10.52,49.957],[10.513,49.964]],[[10.578,50.16],[10.595,50.161],[10.596,50.148],[10.586,50.146],[10.578,50.16]]],[[[9.527,50.19],[9.529,50.168],[9.616,50.18],[9.683,50.176],[9.7,50.203],[9.685,50.209],[9.682,50.231],[9.667,50.24],[9.604,50.222],[9.582,50.222],[9.576,50.232],[9.564,50.196],[9.544,50.201],[9.527,50.19]]],[[[9.687,49.317],[9.756,49.318],[9.798,49.333],[9.841,49.314],[9.864,49.326],[9.839,49.344],[9.849,49.349],[9.842,49.373],[9.83,49.373],[9.84,49.379],[9.836,49.386],[9.811,49.379],[9.78,49.383],[9.752,49.362],[9.761,49.343],[9.73,49.352],[9.738,49.338],[9.711,49.34],[9.705,49.335],[9.719,49.324],[9.701,49.327],[9.687,49.317]]],[[[9.752,49.204],[9.762,49.193],[9.781,49.188],[9.789,49.19],[9.787,49.206],[9.754,49.211],[9.752,49.204]]],[[[10.347,49.67],[10.376,49.643],[10.383,49.614],[10.397,49.607],[10.458,49.633],[10.457,49.648],[10.441,49.662],[10.404,49.666],[10.381,49.684],[10.347,49.67]]],[[[10.563,49.76],[10.65,49.738],[10.651,49.797],[10.605,49.807],[10.594,49.788],[10.609,49.774],[10.567,49.774],[10.563,49.76]]]]}}],"metadata":{"generatedBy":"scripts/build-fief-flat.ts","input":"data/hre_fiefs_1200.geojson","year":1200,"cutPolicy":"keep-smaller","containmentCoverageThreshold":0.9,"minOverlapAreaM2":1000,"sliverAreaLimitM2":1000000000,"resolutions":[{"kind":"sliver","cutName":"County of Drenthe","keptName":"County of Bentheim","overlapKm2":1.47,"coverageOfSmaller":0.0016},{"kind":"sliver","cutName":"County of Leiningen","keptName":"County of Falkenstein","overlapKm2":0.06,"coverageOfSmaller":0.0006},{"kind":"sliver","cutName":"County of Leiningen","keptName":"Prince-Bishopric of Worms","overlapKm2":1.65,"coverageOfSmaller":0.0118},{"kind":"sliver","cutName":"Duchy of Swabia","keptName":"Burgraviate of Nuremberg","overlapKm2":355.92,"coverageOfSmaller":0.0751},{"kind":"sliver","cutName":"Duchy of Swabia","keptName":"Prince-Bishopric of Basel","overlapKm2":33.9,"coverageOfSmaller":0.0214},{"kind":"sliver","cutName":"Prince-Archbishopric of Bremen","keptName":"Prince-Bishopric of Verden","overlapKm2":0.74,"coverageOfSmaller":0.0005},{"kind":"sliver","cutName":"Prince-Bishopric of Basel","keptName":"County/Principality of Neuchâtel","overlapKm2":1.49,"coverageOfSmaller":0.0019},{"kind":"sliver","cutName":"Prince-Bishopric of Würzburg","keptName":"Burgraviate of Nuremberg","overlapKm2":0.64,"coverageOfSmaller":0.0001}],"externalInputs":["data/france_fiefs_flat_1200.geojson","data/italy_fiefs_flat_1200.geojson"],"externalRemovals":[],"source":"OpenHistoricalMap","sourceUrl":"https://www.openhistoricalmap.org/","license":"CC0-1.0","borderPrecision":"史料に基づく復元（概略。測量された境界ではない）"}}