{"type":"FeatureCollection","features":[{"type":"Feature","properties":{"NAME":"Burgraviate of Nuremberg","SUBJECTO":"Holy Roman Empire","PARTOF":"Holy Roman Empire","ADMIN_LEVEL":4,"OHM_RELATION_ID":2830455,"START_DATE":"1050","END_DATE":"1219"},"geometry":{"type":"MultiPolygon","coordinates":[[[[10.38414,49.54214],[10.3838,49.52499],[10.4147,49.50426],[10.4322,49.50359],[10.41161,49.47392],[10.38723,49.46522],[10.37178,49.48262],[10.40028,49.48798],[10.35908,49.53412],[10.32131,49.53368],[10.31445,49.54816],[10.32509,49.56375],[10.29213,49.56575],[10.2626,49.55395],[10.23102,49.55818],[10.12493,49.531],[10.09918,49.529],[10.08763,49.54116],[10.06165,49.54518],[10.06138,49.53746],[10.04113,49.5294],[10.05942,49.51906],[10.04856,49.50728],[10.02804,49.50305],[10.01952,49.48495],[9.97499,49.48099],[9.99275,49.44648],[9.98623,49.43063],[10.00854,49.4246],[10.02056,49.44313],[10.05489,49.43375],[10.06382,49.4467],[10.08442,49.43398],[10.09815,49.43844],[10.116,49.42236],[10.14313,49.42929],[10.12218,49.44648],[10.08854,49.44916],[10.09472,49.46165],[10.17334,49.4679],[10.17094,49.48374],[10.22106,49.47638],[10.24475,49.46121],[10.28835,49.45116],[10.30689,49.43331],[10.28904,49.41901],[10.27599,49.41879],[10.26913,49.40405],[10.25711,49.40271],[10.26466,49.3893],[10.25265,49.38438],[10.26604,49.35241],[10.27874,49.3457],[10.27119,49.3381],[10.30689,49.32423],[10.29762,49.31125],[10.30535,49.3042],[10.31736,49.31102],[10.33779,49.29893],[10.31754,49.29211],[10.31908,49.27945],[10.29453,49.26422],[10.30226,49.25615],[10.25316,49.2324],[10.22123,49.22612],[10.20372,49.22724],[10.19754,49.23565],[10.18244,49.22623],[10.11412,49.24125],[10.08528,49.2566],[10.05901,49.24741],[10.03653,49.25895],[10.04648,49.27083],[10.04047,49.29647],[10.05987,49.29412],[10.06004,49.31058],[10.03575,49.31964],[9.97833,49.3099],[9.94752,49.32518],[9.92237,49.32546],[9.93825,49.28684],[9.95284,49.28449],[9.95507,49.27273],[9.97507,49.27184],[9.99018,49.26086],[9.87499,49.25604],[9.87585,49.24035],[9.90383,49.23419],[9.95739,49.24024],[9.97541,49.23251],[9.99619,49.24495],[10.01919,49.22881],[10.02005,49.21154],[10.03069,49.20582],[10.01078,49.19287],[10.02073,49.18294],[10.01043,49.17778],[9.98863,49.18844],[9.984,49.17362],[9.95687,49.16925],[9.96031,49.15802],[9.97335,49.15791],[9.94554,49.13905],[9.94606,49.12287],[9.99979,49.09534],[10.01919,49.09568],[10.01404,49.07758],[10.04974,49.07656],[10.09712,49.10197],[10.09541,49.0923],[10.11103,49.07409],[10.14175,49.07645],[10.15102,49.06487],[10.16098,49.06588],[10.15686,49.07533],[10.196,49.07983],[10.19308,49.08826],[10.22501,49.10377],[10.23668,49.09748],[10.25454,49.10332],[10.24166,49.07656],[10.26157,49.08556],[10.28183,49.06644],[10.2935,49.06622],[10.29865,49.08151],[10.31342,49.09006],[10.36491,49.07522],[10.33161,49.0543],[10.44044,49.01378],[10.53434,49.01344],[10.53932,49.02729],[10.55099,49.03325],[10.58344,49.03224],[10.60593,49.00939],[10.60387,49.00004],[10.58739,48.99824],[10.59082,48.9685],[10.61279,48.96985],[10.67081,48.90738],[10.70892,48.8961],[10.74463,48.91889],[10.79613,48.91573],[10.80643,48.93964],[10.88882,48.93378],[10.90942,48.9446],[10.90633,48.97053],[10.8799,48.99779],[10.91629,49.01243],[10.90496,49.02504],[10.9108,49.02977],[10.93929,49.03022],[10.95818,49.04034],[10.93037,49.05587],[10.93689,49.07477],[10.96745,49.07634],[10.98736,49.06284],[11.01311,49.05902],[11.01688,49.05182],[10.98633,49.02166],[11.16784,49.03099],[11.17001,49.0489],[11.1906,49.05115],[11.20641,49.03447],[11.22253,49.03922],[11.21635,49.05587],[11.25206,49.04867],[11.30356,49.06757],[11.28845,49.07881],[11.28845,49.09658],[11.22219,49.1496],[11.18889,49.10782],[11.20708,49.08444],[11.09894,49.07904],[11.07319,49.09905],[11.0416,49.06194],[10.99628,49.09343],[10.96779,49.09298],[10.92659,49.15162],[10.90633,49.15072],[10.90118,49.16307],[10.87166,49.15971],[10.85999,49.17856],[10.84179,49.1826],[10.84385,49.20055],[10.87887,49.21289],[10.91732,49.19135],[10.93277,49.19786],[10.98461,49.18686],[10.96573,49.15724],[10.97156,49.14938],[10.98461,49.15881],[11.00967,49.15881],[11.01688,49.1725],[11.05019,49.1752],[11.06701,49.15387],[11.21498,49.21109],[11.20262,49.22589],[11.22803,49.24809],[11.17687,49.28259],[11.21086,49.31729],[11.23077,49.30587],[11.23901,49.30923],[11.23077,49.32311],[11.25549,49.32311],[11.26167,49.31192],[11.2912,49.31237],[11.30665,49.29826],[11.32656,49.30028],[11.35574,49.32244],[11.31248,49.35398],[11.16485,49.54749],[11.02203,49.55629],[11.02478,49.56898],[11.01105,49.58289],[11.1216,49.58134],[11.12795,49.58668],[11.06907,49.60782],[11.01242,49.60226],[11.03439,49.64451],[11.06117,49.66274],[11.03439,49.67341],[10.97603,49.66096],[10.97053,49.62317],[10.98907,49.61649],[10.97091,49.58332],[10.95337,49.56709],[10.91698,49.57377],[10.89775,49.55506],[10.93689,49.54482],[10.9259,49.52298],[10.90324,49.53412],[10.86891,49.51986],[10.83527,49.53368],[10.86616,49.54704],[10.83527,49.59157],[10.85243,49.60359],[10.82771,49.60359],[10.81329,49.62183],[10.86616,49.63606],[10.84573,49.66291],[10.79338,49.65963],[10.70206,49.69384],[10.66498,49.68229],[10.63957,49.68718],[10.60455,49.67696],[10.56129,49.67652],[10.48576,49.63195],[10.52422,49.61972],[10.53657,49.59558],[10.49126,49.59558],[10.39478,49.55194],[10.39719,49.54214],[10.38414,49.54214]],[[10.38963,49.09298],[10.36594,49.11029],[10.37659,49.1168],[10.41538,49.11096],[10.42705,49.10152],[10.38963,49.09298]],[[10.45452,49.04349],[10.45898,49.02391],[10.41882,49.02414],[10.41882,49.03899],[10.45452,49.04349]],[[10.46997,49.05497],[10.47649,49.0597],[10.50739,49.05092],[10.50705,49.04462],[10.49091,49.04057],[10.46997,49.05497]],[[10.22162,49.11766],[10.19242,49.12627],[10.20608,49.14669],[10.21661,49.14888],[10.21845,49.16102],[10.24822,49.14926],[10.2554,49.13049],[10.22162,49.11766]],[[10.18536,49.11119],[10.20012,49.10197],[10.19428,49.09658],[10.17643,49.10377],[10.18536,49.11119]],[[10.15274,49.12018],[10.16991,49.11276],[10.15549,49.10804],[10.14862,49.11209],[10.15274,49.12018]],[[10.4274,49.22253],[10.40297,49.22986],[10.36746,49.2201],[10.34542,49.22473],[10.35331,49.24305],[10.37166,49.24412],[10.38961,49.26146],[10.43887,49.25804],[10.44008,49.27833],[10.45568,49.2842],[10.46325,49.27628],[10.47913,49.27741],[10.47688,49.26688],[10.5159,49.25786],[10.53667,49.26199],[10.58114,49.2492],[10.56404,49.201],[10.57846,49.17722],[10.49057,49.19247],[10.48576,49.2019],[10.4995,49.21087],[10.46585,49.20594],[10.4274,49.22253]],[[10.6897,49.13455],[10.67184,49.11254],[10.64712,49.11658],[10.63133,49.10265],[10.62172,49.12242],[10.58533,49.12737],[10.57983,49.15611],[10.64712,49.1642],[10.61005,49.17901],[10.66017,49.19696],[10.6897,49.13455]],[[10.74394,49.02841],[10.6945,49.02796],[10.6842,49.04327],[10.66772,49.04507],[10.66704,49.05272],[10.68008,49.05632],[10.67596,49.06487],[10.69862,49.07072],[10.74188,49.05812],[10.73364,49.05092],[10.74394,49.02841]],[[10.8823,49.15319],[10.92075,49.13433],[10.91217,49.12669],[10.87337,49.13433],[10.85827,49.12984],[10.85449,49.13545],[10.8823,49.15319]],[[11.09276,49.03809],[11.07525,49.06397],[11.10855,49.07387],[11.13087,49.0534],[11.09276,49.03809]],[[10.8902,49.08691],[10.91457,49.06374],[10.88436,49.0597],[10.88127,49.07387],[10.8902,49.08691]],[[10.93552,49.33273],[10.9465,49.35018],[10.93277,49.35286],[10.93689,49.37701],[10.95406,49.38371],[10.97259,49.3788],[10.97534,49.39578],[10.99251,49.39533],[10.99594,49.37075],[10.97191,49.36046],[10.96779,49.34749],[10.99869,49.33631],[10.96229,49.32602],[10.93552,49.33273]],[[10.67116,49.28707],[10.65262,49.28617],[10.65193,49.29916],[10.69038,49.31035],[10.73502,49.3005],[10.74188,49.28304],[10.76591,49.28841],[10.77965,49.28035],[10.77415,49.25884],[10.73502,49.24495],[10.71785,49.24719],[10.6794,49.23105],[10.62103,49.23464],[10.6279,49.24585],[10.65536,49.25167],[10.67116,49.28707]],[[10.93552,49.2084],[10.93723,49.22298],[10.94685,49.22702],[10.94753,49.24876],[10.99422,49.26512],[11.02993,49.23172],[10.97156,49.2084],[10.93552,49.2084]],[[10.79132,49.22175],[10.81055,49.21838],[10.80557,49.20863],[10.78737,49.21233],[10.79132,49.22175]],[[10.47752,49.39712],[10.4789,49.4074],[10.43083,49.42393],[10.46997,49.45072],[10.55923,49.45116],[10.54207,49.43732],[10.54481,49.42616],[10.52353,49.41633],[10.53589,49.40874],[10.54344,49.41544],[10.58739,49.41231],[10.58533,49.39221],[10.47752,49.39712]],[[10.72884,49.45474],[10.7103,49.465],[10.68214,49.46455],[10.68283,49.47214],[10.70343,49.47348],[10.71304,49.49445],[10.73364,49.48775],[10.74737,49.45607],[10.72884,49.45474]],[[10.97259,49.52276],[10.9853,49.52031],[10.98942,49.49723],[11.01242,49.49422],[11.01791,49.48084],[11.01173,49.4592],[11.02993,49.42962],[11.04555,49.42895],[11.05911,49.41354],[11.00538,49.41377],[10.97534,49.45518],[10.92899,49.44514],[10.90221,49.45853],[10.95612,49.47772],[10.95097,49.50492],[10.97259,49.52276]]],[[[10.99766,48.87014],[11.0368,48.89994],[11.03542,48.90986],[10.99594,48.92927],[10.9417,48.90625],[10.95474,48.88052],[10.93637,48.85715],[10.97671,48.85726],[10.97946,48.87172],[10.99766,48.87014]]],[[[10.07172,49.58779],[10.22346,49.58356],[10.20081,49.59336],[10.20218,49.60448],[10.17403,49.59825],[10.16235,49.62183],[10.18364,49.65207],[10.18707,49.67918],[10.20973,49.67918],[10.21591,49.69384],[10.23445,49.69517],[10.23926,49.71383],[10.21866,49.72492],[10.15892,49.72315],[10.12321,49.69562],[10.17883,49.68718],[10.14793,49.64896],[10.09712,49.65518],[10.06142,49.64674],[10.0676,49.62406],[10.08751,49.62539],[10.07172,49.60671],[10.07172,49.58779]]]]}},{"type":"Feature","properties":{"NAME":"County of Abensberg","SUBJECTO":"Holy Roman Empire","PARTOF":"Holy Roman Empire","ADMIN_LEVEL":4,"OHM_RELATION_ID":2830492,"START_DATE":"1150","END_DATE":"1485-02-28"},"geometry":{"type":"MultiPolygon","coordinates":[[[[11.84326,48.92656],[11.76224,48.93739],[11.73614,48.92611],[11.71143,48.93694],[11.69014,48.93017],[11.57204,48.92746],[11.56174,48.92205],[11.56929,48.91663],[11.55281,48.89452],[11.5638,48.89091],[11.57547,48.85704],[11.57135,48.848],[11.58577,48.82495],[11.63177,48.81093],[11.64688,48.81546],[11.65237,48.80415],[11.67366,48.80325],[11.7437,48.77791],[11.754,48.78606],[11.77872,48.78515],[11.77116,48.7752],[11.78215,48.7666],[11.80824,48.76886],[11.81854,48.73627],[11.79176,48.71634],[11.76704,48.7109],[11.76498,48.68053],[11.7952,48.69323],[11.80481,48.68733],[11.79794,48.67917],[11.8158,48.67373],[11.84807,48.72359],[11.84875,48.73763],[11.87416,48.74849],[11.89682,48.72177],[11.91536,48.72494],[11.91399,48.71679],[11.92497,48.70999],[11.94832,48.70864],[11.95862,48.72404],[11.93802,48.734],[11.95244,48.74713],[11.98746,48.7331],[12.00806,48.758],[12.06505,48.76388],[12.06505,48.77158],[12.05337,48.77429],[12.05543,48.78108],[12.03552,48.79691],[12.03072,48.78741],[12.01904,48.79013],[12.01836,48.81048],[11.99158,48.8141],[11.9648,48.82947],[11.92635,48.8245],[11.86798,48.87714],[11.84051,48.87759],[11.83309,48.89852],[11.85468,48.91511],[11.89613,48.90733],[11.92592,48.91122],[11.92532,48.88899],[11.94077,48.88199],[11.96943,48.8856],[12.00617,48.87533],[12.02951,48.88481],[12.13783,48.87623],[12.14521,48.88944],[12.11123,48.90625],[12.08067,48.89971],[12.01046,48.90569],[12.0005,48.90953],[11.99364,48.93023],[11.97063,48.91833],[11.97063,48.90812],[11.95158,48.90417],[11.93974,48.90761],[11.93665,48.92205],[11.9224,48.93457],[11.88686,48.93118],[11.86438,48.94156],[11.84326,48.92656]]]]}},{"type":"Feature","properties":{"NAME":"County of Bentheim","SUBJECTO":"Holy Roman Empire","PARTOF":"Holy Roman Empire","ADMIN_LEVEL":4,"OHM_RELATION_ID":2807457,"START_DATE":"1180","END_DATE":"1806-07-12"},"geometry":{"type":"MultiPolygon","coordinates":[[[[7.14631,52.53491],[7.1424,52.58767],[7.07444,52.61957],[7.00239,52.64236],[6.97718,52.64603],[6.93553,52.63789],[6.89635,52.65132],[6.81735,52.64791],[6.79203,52.65378],[6.74181,52.64532],[6.71006,52.62787],[6.72488,52.61863],[6.71877,52.58864],[6.76666,52.56353],[6.72758,52.56271],[6.711,52.54924],[6.68455,52.55289],[6.70533,52.52101],[6.69752,52.48632],[6.75273,52.46411],[6.8543,52.45971],[6.85254,52.44991],[6.94166,52.43543],[6.96219,52.44398],[6.98082,52.46702],[6.9918,52.46738],[7.00943,52.43311],[7.03587,52.4028],[7.05715,52.39944],[7.07215,52.37361],[7.0711,52.35101],[7.02604,52.28347],[7.04239,52.25614],[7.06579,52.24124],[7.10536,52.24451],[7.11292,52.25521],[7.15605,52.26637],[7.29853,52.26406],[7.31724,52.28003],[7.25763,52.34077],[7.21244,52.44682],[7.2031,52.44394],[7.18102,52.45575],[7.15768,52.47996],[7.14626,52.50666],[7.14631,52.53491]]]]}},{"type":"Feature","properties":{"NAME":"County of Drenthe","SUBJECTO":"Holy Roman Empire","PARTOF":"Holy Roman Empire","ADMIN_LEVEL":5,"OHM_RELATION_ID":2831685,"START_DATE":"1046","END_DATE":"1536-08-05"},"geometry":{"type":"MultiPolygon","coordinates":[[[[6.95327,52.63887],[6.97606,52.64593],[7.04179,52.63269],[7.05572,52.64342],[7.07155,52.81044],[7.09266,52.83821],[7.0873,52.84996],[7.05872,52.86416],[7.03537,52.92174],[6.76964,53.10062],[6.75934,53.14883],[6.62201,53.22782],[6.59454,53.25618],[6.54922,53.25125],[6.53206,53.2122],[6.48056,53.2085],[6.41601,53.1797],[6.381,53.14965],[6.36246,53.09567],[6.31233,53.09155],[6.30478,53.08165],[6.35765,53.06556],[6.36383,53.02635],[6.43387,52.97594],[6.41258,52.94491],[6.33774,52.90766],[6.29173,52.93002],[6.24985,52.92422],[6.20659,52.89068],[6.11732,52.8513],[6.1805,52.80359],[6.21483,52.7982],[6.21277,52.77245],[6.1338,52.73421],[6.15234,52.68845],[6.33293,52.66056],[6.38168,52.61431],[6.52245,52.61764],[6.51695,52.64681],[6.60072,52.67222],[6.70775,52.64884],[6.70166,52.62765],[6.74181,52.64532],[6.79007,52.65238],[6.81697,52.64741],[6.87276,52.65361],[6.91422,52.64608],[6.91791,52.63965],[6.95327,52.63887]]]]}},{"type":"Feature","properties":{"NAME":"County of Falkenstein","SUBJECTO":"Holy Roman Empire","PARTOF":"Holy Roman Empire","ADMIN_LEVEL":5,"OHM_RELATION_ID":2830881,"START_DATE":"1135","END_DATE":"1797-10-17"},"geometry":{"type":"MultiPolygon","coordinates":[[[[8.23322,49.76253],[8.21743,49.77694],[8.15392,49.77273],[8.15495,49.75965],[8.17074,49.75831],[8.16627,49.75122],[8.19305,49.749],[8.23322,49.76253]]],[[[7.92664,49.8776],[7.92973,49.86477],[7.95959,49.86986],[7.92664,49.8776]]],[[[7.93754,49.58807],[7.92912,49.59519],[7.9428,49.60381],[7.90003,49.60303],[7.88561,49.60893],[7.88509,49.62217],[7.86346,49.62806],[7.8669,49.61894],[7.84767,49.59402],[7.81128,49.58712],[7.76115,49.54504],[7.76974,49.53412],[7.86346,49.54526],[7.87411,49.56152],[7.94449,49.56664],[7.93754,49.58807]]],[[[7.94904,49.60821],[7.9771,49.60821],[7.96947,49.61288],[7.97856,49.61922],[7.94809,49.6185],[7.94904,49.60821]]],[[[8.0777,49.67829],[8.11615,49.68673],[8.05354,49.69923],[8.03345,49.68479],[8.0777,49.67829]]],[[[7.89196,49.71849],[7.8772,49.71038],[7.86535,49.71643],[7.86235,49.7055],[7.84269,49.70615],[7.83892,49.6834],[7.8566,49.66241],[7.87788,49.66196],[7.90835,49.68612],[7.90732,49.69634],[7.89977,49.6934],[7.89127,49.70172],[7.90295,49.71527],[7.89196,49.71849]]],[[[8.25871,49.78769],[8.24387,49.79279],[8.22584,49.78703],[8.24816,49.77794],[8.25871,49.78769]]]]}},{"type":"Feature","properties":{"NAME":"County of Hohnstein","SUBJECTO":"Holy Roman Empire","PARTOF":"Holy Roman Empire","ADMIN_LEVEL":4,"OHM_RELATION_ID":2830686,"START_DATE":"1182","END_DATE":"1593"},"geometry":{"type":"MultiPolygon","coordinates":[[[[10.62717,51.57075],[10.58561,51.58321],[10.5912,51.56987],[10.5707,51.56538],[10.56743,51.57954],[10.58116,51.58648],[10.56718,51.60963],[10.58349,51.61529],[10.54142,51.61494],[10.52675,51.62285],[10.51692,51.6102],[10.53361,51.59743],[10.5319,51.56797],[10.50359,51.56233],[10.51156,51.54845],[10.49276,51.55427],[10.48016,51.54772],[10.4733,51.55125],[10.4857,51.55653],[10.48748,51.57288],[10.42594,51.59238],[10.3738,51.58827],[10.37848,51.5624],[10.36788,51.55728],[10.36796,51.54332],[10.46836,51.54403],[10.47958,51.51836],[10.47718,51.50297],[10.46448,51.49656],[10.46722,51.48566],[10.43392,51.47689],[10.42705,51.46214],[10.46585,51.45636],[10.47272,51.43539],[10.48817,51.42726],[10.50465,51.39878],[10.50362,51.38378],[10.52885,51.36583],[10.54722,51.37141],[10.56001,51.38533],[10.57151,51.36749],[10.57692,51.37371],[10.56473,51.38619],[10.57417,51.38796],[10.59073,51.38507],[10.57863,51.37907],[10.58507,51.36739],[10.60696,51.36626],[10.60558,51.37467],[10.6267,51.38228],[10.62292,51.3736],[10.64472,51.36899],[10.63305,51.36171],[10.66378,51.35656],[10.70068,51.33233],[10.71742,51.36519],[10.6818,51.3841],[10.69382,51.39556],[10.71733,51.40006],[10.7666,51.39125],[10.77888,51.40694],[10.80523,51.41591],[10.79638,51.42747],[10.77441,51.42587],[10.76866,51.43667],[10.7781,51.4409],[10.76961,51.4501],[10.78609,51.47652],[10.75441,51.48864],[10.75531,51.50466],[10.77948,51.51217],[10.77636,51.51826],[10.80136,51.52258],[10.82608,51.51414],[10.82239,51.49806],[10.85072,51.48518],[10.9697,51.45829],[10.9938,51.46204],[10.98285,51.4785],[10.95929,51.49186],[10.93972,51.50089],[10.9271,51.49683],[10.92153,51.50933],[10.90805,51.50912],[10.89655,51.52156],[10.90221,51.52445],[10.89672,51.53593],[10.86608,51.53827],[10.85775,51.55173],[10.86788,51.56208],[10.86368,51.57851],[10.89312,51.60602],[10.86205,51.63166],[10.81836,51.62457],[10.81183,51.63938],[10.76295,51.64908],[10.76171,51.65658],[10.78257,51.66122],[10.77973,51.68033],[10.76514,51.66941],[10.73806,51.67101],[10.70729,51.68192],[10.70558,51.69437],[10.66644,51.69516],[10.66779,51.67014],[10.70169,51.64095],[10.6759,51.63754],[10.68147,51.62993],[10.6381,51.61928],[10.64707,51.60894],[10.63182,51.60386],[10.63818,51.5844],[10.66276,51.58029],[10.66047,51.56065],[10.6459,51.55905],[10.62717,51.57075]]]]}},{"type":"Feature","properties":{"NAME":"County of Horne","SUBJECTO":"Holy Roman Empire","PARTOF":"Holy Roman Empire","ADMIN_LEVEL":5,"OHM_RELATION_ID":2831137,"START_DATE":"0920","END_DATE":"1797-10-17"},"geometry":{"type":"MultiPolygon","coordinates":[[[[5.90635,51.30025],[5.90618,51.29381],[5.85829,51.3113],[5.84404,51.27792],[5.83426,51.27437],[5.84107,51.24983],[5.85855,51.24037],[5.89339,51.23994],[5.89335,51.21664],[5.87569,51.18179],[5.85752,51.18096],[5.87193,51.16842],[5.92322,51.17159],[5.9174,51.17389],[5.93431,51.18814],[5.97665,51.20186],[5.96798,51.22038],[6.00643,51.23097],[5.99862,51.24913],[6.00652,51.25499],[6.00866,51.27776],[5.92489,51.30851],[5.90635,51.30025]]]]}},{"type":"Feature","properties":{"NAME":"County of Leiningen","SUBJECTO":"Holy Roman Empire","PARTOF":"Holy Roman Empire","ADMIN_LEVEL":4,"OHM_RELATION_ID":2830777,"START_DATE":"1093","END_DATE":"1797-10-17"},"geometry":{"type":"MultiPolygon","coordinates":[[[[8.16246,50.40679],[8.17756,50.40909],[8.1763,50.41784],[8.16368,50.42082],[8.15014,50.41274],[8.16246,50.40679]]],[[[7.99592,50.52511],[8.04038,50.55254],[8.02617,50.57314],[7.99315,50.57539],[7.99084,50.59389],[7.97055,50.601],[7.92626,50.57606],[7.93297,50.56461],[7.95616,50.56251],[7.96899,50.55196],[7.96683,50.5355],[7.99592,50.52511]]],[[[8.04234,49.51875],[8.01075,49.50916],[8.00182,49.4989],[7.9565,49.48909],[7.94998,49.48374],[7.95719,49.46344],[7.94311,49.45273],[7.95891,49.44179],[7.97813,49.45094],[7.98157,49.44291],[7.99461,49.44201],[7.99564,49.44893],[8.00732,49.44759],[8.01693,49.45764],[8.02757,49.44558],[7.99496,49.43308],[8.02139,49.43286],[7.99496,49.42348],[8.01144,49.4179],[8.02483,49.42348],[8.01865,49.39198],[7.98809,49.39087],[8.02448,49.36605],[8.0492,49.37477],[8.0444,49.38908],[8.02448,49.39668],[8.0595,49.40248],[8.08662,49.43799],[8.13229,49.4525],[8.11512,49.46143],[8.13366,49.46656],[8.15872,49.46277],[8.16147,49.45451],[8.22052,49.46322],[8.2188,49.46835],[8.25142,49.4824],[8.25829,49.49534],[8.19477,49.4945],[8.18447,49.50052],[8.19237,49.50431],[8.18859,49.51797],[8.17417,49.5173],[8.16833,49.52599],[8.21588,49.52465],[8.20507,49.55606],[8.18962,49.55528],[8.18584,49.58067],[8.21022,49.58334],[8.21022,49.59358],[8.23391,49.60448],[8.21468,49.60159],[8.20473,49.61204],[8.23151,49.61783],[8.20747,49.65274],[8.19099,49.65163],[8.19374,49.63606],[8.18413,49.63495],[8.18825,49.6185],[8.1292,49.61182],[8.12096,49.62094],[8.08765,49.61116],[8.07838,49.58952],[8.08671,49.57571],[8.11516,49.58465],[8.12757,49.57427],[8.12396,49.56759],[8.09392,49.56314],[8.10113,49.55423],[8.08044,49.54526],[8.10207,49.53256],[8.13503,49.56219],[8.13606,49.55462],[8.14911,49.5535],[8.15632,49.54415],[8.08525,49.51295],[8.07495,49.51852],[8.08937,49.52432],[8.0801,49.53301],[8.04234,49.51875]]],[[[8.27579,49.42281],[8.283,49.39332],[8.29124,49.39399],[8.30772,49.43018],[8.27991,49.43375],[8.27579,49.42281]]],[[[7.83325,49.38707],[7.83136,49.37287],[7.84836,49.36684],[7.87582,49.37634],[7.88544,49.38841],[7.90501,49.39355],[7.91943,49.38751],[7.93934,49.40852],[7.93041,49.42058],[7.92114,49.41991],[7.89127,49.40159],[7.87994,49.40986],[7.83325,49.38707]]],[[[7.70142,49.49846],[7.73815,49.47348],[7.75429,49.47616],[7.75532,49.4911],[7.71618,49.50359],[7.70142,49.49846]]],[[[8.05126,49.25212],[8.07598,49.24383],[8.10894,49.24697],[8.0825,49.25638],[8.05126,49.25212]]],[[[7.90569,49.11849],[7.92054,49.12927],[7.89883,49.14882],[7.90981,49.16363],[7.90123,49.17463],[7.87469,49.15346],[7.86273,49.15603],[7.86458,49.14404],[7.84475,49.13439],[7.85377,49.13158],[7.85952,49.11658],[7.90569,49.11849]]],[[[7.88836,49.19057],[7.90552,49.18872],[7.91479,49.17811],[7.93788,49.17716],[7.9511,49.18619],[7.91771,49.2102],[7.88836,49.19057]]],[[[7.52357,49.3334],[7.52804,49.29893],[7.55628,49.2729],[7.56804,49.27643],[7.57473,49.29121],[7.56409,49.3108],[7.584,49.33452],[7.58194,49.34459],[7.55962,49.35666],[7.52357,49.3334]]],[[[8.40002,49.80347],[8.38457,49.81736],[8.3321,49.81096],[8.33004,49.82957],[8.27064,49.80454],[8.22395,49.82226],[8.21537,49.81938],[8.25871,49.78769],[8.3551,49.78348],[8.40002,49.80347]]],[[[8.23837,49.84064],[8.23528,49.8289],[8.26069,49.82337],[8.27854,49.83289],[8.27923,49.84197],[8.23837,49.84064]]],[[[8.21571,49.72981],[8.19683,49.72204],[8.20301,49.71338],[8.26961,49.72404],[8.33828,49.72426],[8.33828,49.73713],[8.2909,49.74356],[8.21571,49.72981]]],[[[8.04028,49.83953],[8.02929,49.83068],[8.03032,49.80941],[8.04989,49.80121],[8.06259,49.8165],[8.05813,49.83577],[8.04028,49.83953]]],[[[7.93754,49.58807],[7.97028,49.59514],[7.9771,49.60821],[7.94406,49.60609],[7.92912,49.59519],[7.93754,49.58807]]]]}},{"type":"Feature","properties":{"NAME":"County of Moers","SUBJECTO":"Holy Roman Empire","PARTOF":"Holy Roman Empire","ADMIN_LEVEL":4,"OHM_RELATION_ID":2840625,"START_DATE":"1160","END_DATE":"1412"},"geometry":{"type":"MultiPolygon","coordinates":[[[[6.7226,51.45422],[6.71917,51.46599],[6.68037,51.47946],[6.69411,51.49207],[6.71642,51.49699],[6.72295,51.51152],[6.6754,51.50922],[6.66561,51.52712],[6.67351,51.56299],[6.6251,51.56042],[6.60092,51.57179],[6.59836,51.59136],[6.55764,51.57862],[6.57188,51.56939],[6.57394,51.54975],[6.62544,51.55018],[6.62956,51.54078],[6.61308,51.52071],[6.56776,51.51729],[6.57394,51.5049],[6.5609,51.49592],[6.55815,51.47796],[6.5348,51.46984],[6.5245,51.45272],[6.50803,51.44374],[6.50871,51.43689],[6.53412,51.43689],[6.53892,51.4082],[6.56914,51.41591],[6.57806,51.40006],[6.61377,51.39835],[6.61514,51.37564],[6.64467,51.38335],[6.67426,51.36903],[6.71344,51.37486],[6.74393,51.39529],[6.73874,51.41463],[6.7099,51.44224],[6.7226,51.45422]]],[[[6.51455,51.37028],[6.50837,51.36021],[6.51318,51.35099],[6.53137,51.33833],[6.53,51.32546],[6.54865,51.30864],[6.59412,51.32245],[6.57484,51.34754],[6.53721,51.36749],[6.51455,51.37028]]]]}},{"type":"Feature","properties":{"NAME":"County of Montbéliard","SUBJECTO":"Holy Roman Empire","PARTOF":"Holy Roman Empire","ADMIN_LEVEL":5,"OHM_RELATION_ID":2812115,"START_DATE":"1042","END_DATE":"1796-08-07"},"geometry":{"type":"MultiPolygon","coordinates":[[[[6.71385,47.47127],[6.72758,47.48102],[6.77359,47.47301],[6.77925,47.48241],[6.79865,47.48519],[6.83796,47.48241],[6.84311,47.47243],[6.88431,47.46675],[6.9116,47.47649],[6.90783,47.48856],[6.91486,47.49842],[6.93117,47.49853],[6.93666,47.48345],[6.95349,47.48044],[6.95435,47.51233],[6.91246,47.52508],[6.91795,47.53088],[6.90971,47.54571],[6.89083,47.55498],[6.83453,47.54386],[6.80191,47.54687],[6.78715,47.53297],[6.75453,47.54061],[6.73187,47.55985],[6.74801,47.58417],[6.72054,47.60663],[6.68587,47.61334],[6.67969,47.62607],[6.69239,47.63254],[6.68587,47.66053],[6.66372,47.66458],[6.6275,47.68665],[6.58905,47.67487],[6.61034,47.66192],[6.62613,47.6263],[6.65531,47.61658],[6.6687,47.59621],[6.65428,47.58741],[6.66355,47.57768],[6.65428,47.57027],[6.6687,47.55626],[6.65394,47.53957],[6.68587,47.51535],[6.67591,47.50723],[6.67849,47.48601],[6.66904,47.47127],[6.69273,47.46175],[6.71385,47.47127]]],[[[6.79384,47.45427],[6.78715,47.41943],[6.79341,47.41008],[6.81212,47.41671],[6.83298,47.43865],[6.82955,47.45328],[6.79384,47.45427]]],[[[6.65977,47.47846],[6.63866,47.49076],[6.61755,47.48438],[6.61531,47.47266],[6.63016,47.46309],[6.6469,47.4657],[6.65977,47.47846]]]]}},{"type":"Feature","properties":{"NAME":"County/Principality of Neuchâtel","SUBJECTO":"Holy Roman Empire","PARTOF":"Holy Roman Empire","ADMIN_LEVEL":5,"OHM_RELATION_ID":2748494,"START_DATE":"1011","END_DATE":"1648-10-24"},"geometry":{"type":"MultiPolygon","coordinates":[[[[6.43637,46.92132],[6.46455,46.89028],[6.46065,46.85509],[6.48382,46.84687],[6.62956,46.88929],[6.65428,46.91369],[6.72226,46.93432],[6.71883,46.90384],[6.74148,46.89492],[6.73805,46.87052],[6.75384,46.86958],[6.77925,46.85362],[7.00172,46.98775],[7.03812,46.98025],[7.02713,47.00601],[7.03468,47.01397],[7.03331,47.0327],[7.08841,47.05972],[7.07717,47.07644],[7.0885,47.08269],[7.07571,47.09631],[7.04095,47.10881],[7.02885,47.10431],[7.02395,47.11266],[7.04078,47.12434],[7.02782,47.12715],[6.93066,47.10822],[6.8692,47.08742],[6.88886,47.13112],[6.8615,47.16559],[6.8061,47.13077],[6.74055,47.10962],[6.74667,47.09936],[6.73924,47.09057],[6.70305,47.0823],[6.70651,47.0744],[6.69521,47.06251],[6.72303,47.04714],[6.71368,47.04357],[6.71179,47.02211],[6.68956,47.00859],[6.60879,46.98312],[6.50483,46.96566],[6.4965,46.97411],[6.43266,46.92868],[6.43637,46.92132]]]]}},{"type":"Feature","properties":{"NAME":"Duchy of Swabia","SUBJECTO":"Holy Roman Empire","PARTOF":"Holy Roman Empire","ADMIN_LEVEL":4,"OHM_RELATION_ID":2805256,"START_DATE":"0922","END_DATE":"1268-10-28"},"geometry":{"type":"MultiPolygon","coordinates":[[[[7.69523,49.13433],[7.59155,49.06577],[7.59018,49.04327],[7.5325,49.01896],[7.49679,49.01896],[7.33886,48.94235],[7.32651,48.91799],[7.33406,48.90129],[7.35809,48.89271],[7.34985,48.86291],[7.21527,48.81229],[7.1933,48.77701],[7.22763,48.74623],[7.17956,48.71996],[7.18506,48.65559],[7.24136,48.61385],[7.22763,48.54752],[7.18506,48.51661],[7.17132,48.46655],[7.13425,48.46017],[7.10953,48.38179],[7.17132,48.35716],[7.19879,48.30786],[7.12051,48.24068],[7.12188,48.17479],[7.09236,48.14868],[7.07794,48.10239],[7.02438,48.04137],[6.96121,48.02208],[6.96945,47.93475],[6.89314,47.83616],[6.82295,47.81376],[6.74148,47.7541],[6.76071,47.6996],[6.71608,47.67094],[6.78955,47.59783],[6.83899,47.61218],[6.89392,47.65336],[7.18918,47.52277],[7.16171,47.48473],[7.33475,47.44667],[7.4295,47.46245],[7.53525,47.54316],[7.57233,47.61172],[7.61764,47.61913],[7.69317,47.57838],[7.80304,47.59783],[7.85385,47.62005],[7.92938,47.61264],[7.96509,47.59135],[8.18344,47.65706],[8.25485,47.59042],[8.27545,47.46431],[8.36059,47.41601],[8.42926,47.28296],[8.44299,47.20278],[8.38806,47.1421],[8.35235,47.04393],[8.36609,46.81886],[8.4526,46.77467],[8.4581,46.70691],[8.42789,46.66358],[8.42518,46.55763],[8.46436,46.53645],[8.63251,46.60511],[8.74649,46.63152],[8.83575,46.6136],[8.89343,46.42271],[8.86322,46.38483],[8.93051,46.28812],[8.94562,46.17983],[8.92776,46.13036],[9.00879,46.14844],[9.10766,46.14654],[9.24774,46.253],[9.45373,46.26914],[9.55261,46.32797],[9.6817,46.34219],[9.75586,46.40662],[9.86023,46.42555],[9.93988,46.48043],[10.00854,46.49178],[10.10673,46.60511],[10.23994,46.63247],[10.33333,46.54658],[10.4528,46.53069],[10.49057,46.56264],[10.48782,46.62209],[10.40474,46.63423],[10.38448,46.68784],[10.41744,46.70832],[10.42328,46.77749],[10.45212,46.80946],[10.48611,46.91064],[10.48508,46.94276],[10.42431,46.9587],[10.42791,46.97405],[10.39204,46.99993],[10.34912,46.98962],[10.30655,46.92635],[10.23994,46.92964],[10.23239,46.87287],[10.15205,46.85268],[10.10055,46.984],[10.12115,47.13743],[10.21042,47.17851],[10.2475,47.17291],[10.2681,47.20651],[10.42877,47.22517],[10.46585,47.19905],[10.58258,47.30065],[10.643,47.3109],[10.70892,47.35278],[10.75287,47.36301],[10.75836,47.41322],[10.84213,47.45131],[10.85449,47.49958],[10.92728,47.56726],[10.91492,47.61357],[10.89569,47.61357],[10.91629,47.66169],[10.9259,47.75595],[10.96847,47.815],[11.0852,47.88872],[11.01654,48.02484],[11.09344,48.32521],[11.02478,48.3745],[10.98358,48.38088],[10.97397,48.42829],[10.90393,48.45562],[10.9108,48.5157],[10.96023,48.67917],[10.99594,48.73174],[10.93826,48.7263],[10.86685,48.73355],[10.82859,48.75482],[10.74394,48.77746],[10.66429,48.82088],[10.66429,48.88233],[10.61485,48.92476],[10.62378,48.98833],[10.60112,49.02121],[10.55099,49.06577],[10.47546,49.08286],[10.45486,49.12692],[10.40405,49.14668],[10.34912,49.25974],[10.23376,49.25705],[10.16373,49.23912],[10.19531,49.17362],[10.23239,49.14848],[10.21591,49.11343],[10.17746,49.09815],[10.15961,49.05137],[10.10193,49.02706],[10.02228,49.04327],[9.96597,49.00905],[9.84924,49.00365],[9.7586,48.97661],[9.63776,48.96039],[9.59656,48.91979],[9.47571,48.91799],[9.43863,48.89181],[9.36859,48.89903],[9.3631,48.88188],[9.13238,48.87826],[9.11865,48.81862],[8.99505,48.80506],[8.95111,48.77339],[8.9154,48.79058],[8.84674,48.76434],[8.80279,48.72041],[8.6737,48.75981],[8.535,48.75076],[8.51852,48.68552],[8.48007,48.67011],[8.44711,48.67555],[8.40729,48.65287],[8.35647,48.66376],[8.26721,48.79239],[8.18207,48.80415],[8.13263,48.82947],[8.20267,48.94054],[8.19443,48.96399],[8.03238,48.96309],[7.97058,48.99824],[7.90192,49.01085],[7.87582,49.04327],[7.8772,49.06397],[7.82089,49.09545],[7.77695,49.10355],[7.72785,49.12804],[7.69523,49.13433]]]]}},{"type":"Feature","properties":{"NAME":"Erfurt Territory","SUBJECTO":"Holy Roman Empire","PARTOF":"Holy Roman Empire","ADMIN_LEVEL":5,"OHM_RELATION_ID":2831882,"START_DATE":"1000","END_DATE":"1803-04-27"},"geometry":{"type":"MultiPolygon","coordinates":[[[[10.82076,50.921],[10.81857,50.88972],[10.8037,50.88681],[10.77074,50.8588],[10.78705,50.84298],[10.84519,50.83862],[10.86228,50.85126],[10.87432,50.87759],[10.86179,50.87954],[10.8599,50.91633],[10.82076,50.921]]],[[[11.02255,50.92944],[10.97032,50.92197],[10.98036,50.90433],[11.05538,50.90953],[11.05508,50.89619],[11.00718,50.89451],[10.995,50.87369],[11.00513,50.86367],[11.02444,50.85901],[11.03559,50.88024],[11.1134,50.89261],[11.12666,50.90248],[11.15209,50.87696],[11.17777,50.8669],[11.18823,50.87247],[11.17172,50.87504],[11.18073,50.87856],[11.20633,50.86473],[11.20829,50.88224],[11.24622,50.87515],[11.25343,50.88874],[11.22082,50.93052],[11.23215,50.94588],[11.22116,50.94999],[11.26682,50.97075],[11.26648,50.98545],[11.24073,50.98469],[11.2258,50.99658],[11.23661,51.00717],[11.21361,51.00609],[11.19524,51.02131],[11.20623,51.036],[11.17653,51.07031],[11.15868,51.05715],[11.14735,51.06556],[11.12589,51.05995],[11.12761,51.08207],[11.08538,51.06459],[11.08126,51.07419],[11.0435,51.07959],[11.04109,51.06513],[11.02306,51.06637],[11.02004,51.06046],[11.02761,51.05898],[11.0253,51.03082],[10.98768,51.03575],[10.96393,51.08649],[10.98092,51.09749],[10.96993,51.12378],[10.95097,51.12486],[10.95732,51.1185],[10.9477,51.11575],[10.94976,51.10083],[10.9102,51.08854],[10.88402,51.0839],[10.88011,51.09811],[10.83801,51.09506],[10.8308,51.0729],[10.86925,51.05769],[10.8699,51.02774],[10.91105,51.02091],[10.91526,51.0036],[10.88874,50.99496],[10.83561,51.00738],[10.78128,50.9855],[10.81368,50.9798],[10.83183,50.99048],[10.82698,50.95134],[10.8523,50.95232],[10.85535,50.96327],[10.89427,50.96051],[10.89691,50.94527],[10.86848,50.94183],[10.87638,50.92744],[10.90479,50.92251],[10.91612,50.93028],[10.91219,50.94115],[10.93869,50.94707],[10.95298,50.93791],[10.9998,50.94832],[11.00238,50.93853],[11.0259,50.93758],[11.02255,50.92944]],[[11.15301,50.91938],[11.19078,50.90953],[11.18975,50.90347],[11.17601,50.8961],[11.14717,50.9079],[11.13396,50.90509],[11.11954,50.91829],[11.15301,50.91938]],[[11.17043,50.93961],[11.17207,50.95626],[11.18846,50.94799],[11.18803,50.93788],[11.17043,50.93961]],[[11.10752,51.0347],[11.15507,51.0374],[11.1882,51.02207],[11.15078,51.00447],[11.14374,51.00943],[11.14666,51.01678],[11.12417,51.02088],[11.10752,51.0347]]],[[[11.30733,50.80449],[11.33506,50.81891],[11.35842,50.81517],[11.36373,50.83158],[11.40501,50.8331],[11.40947,50.85733],[11.37875,50.86469],[11.39943,50.89047],[11.41806,50.89778],[11.39471,50.90238],[11.38098,50.92533],[11.33823,50.92414],[11.3572,50.91088],[11.35283,50.89491],[11.32038,50.87293],[11.28931,50.86713],[11.30733,50.80449]]],[[[11.09327,51.1122],[11.13842,51.09199],[11.17481,51.10568],[11.17413,51.12766],[11.15705,51.16327],[11.12209,51.1719],[11.12765,51.18037],[11.11535,51.18497],[11.11535,51.17418],[11.08523,51.16866],[11.08604,51.15084],[11.06143,51.15033],[11.064,51.12907],[11.09714,51.12754],[11.10194,51.11813],[11.09327,51.1122]]],[[[11.22597,51.07053],[11.22854,51.04938],[11.27438,51.02553],[11.29575,51.03152],[11.31214,51.05353],[11.27983,51.06241],[11.273,51.05181],[11.26262,51.05192],[11.25695,51.05461],[11.27197,51.06093],[11.26596,51.07301],[11.22597,51.07053]]],[[[11.28678,51.12743],[11.25642,51.1308],[11.25481,51.10266],[11.28227,51.1018],[11.29429,51.12594],[11.28678,51.12743]]]]}},{"type":"Feature","properties":{"NAME":"Imperial Abbey of Berchtesgaden","SUBJECTO":"Holy Roman Empire","PARTOF":"Holy Roman Empire","ADMIN_LEVEL":4,"OHM_RELATION_ID":2830494,"START_DATE":"1194","END_DATE":"1559"},"geometry":{"type":"MultiPolygon","coordinates":[[[[12.89791,47.69157],[12.8849,47.68249],[12.85263,47.67926],[12.83684,47.66631],[12.85057,47.64642],[12.83203,47.64319],[12.82173,47.65706],[12.77985,47.6337],[12.77985,47.60362],[12.79341,47.59331],[12.78122,47.57351],[12.79753,47.55394],[12.81967,47.54537],[12.84697,47.54629],[12.85057,47.53215],[12.88404,47.52056],[12.92078,47.49343],[12.96867,47.47417],[12.97451,47.48415],[12.99477,47.478],[12.99477,47.47081],[13.00936,47.465],[13.02979,47.48705],[13.04747,47.49215],[13.04523,47.52555],[13.0315,47.53691],[13.05777,47.56101],[13.04146,47.57629],[13.04317,47.58347],[13.06995,47.58614],[13.06292,47.60003],[13.09639,47.62954],[13.09811,47.64226],[13.07373,47.69174],[13.01798,47.72299],[13.00816,47.72203],[12.9891,47.69393],[12.97914,47.6907],[12.95185,47.70595],[12.89791,47.69157]]]]}},{"type":"Feature","properties":{"NAME":"Imperial Abbey of Hersfeld","SUBJECTO":"Holy Roman Empire","PARTOF":"Holy Roman Empire","ADMIN_LEVEL":4,"OHM_RELATION_ID":2830973,"START_DATE":"0775","END_DATE":"1648-10-24"},"geometry":{"type":"MultiPolygon","coordinates":[[[[10.0614,50.87639],[10.04447,50.87623],[9.98202,50.84958],[9.9337,50.86377],[9.81302,50.85704],[9.73028,50.88603],[9.74848,50.89903],[9.75534,50.89632],[9.75303,50.90872],[9.71191,50.90991],[9.69209,50.92576],[9.61555,50.92243],[9.59657,50.93025],[9.56098,50.91348],[9.5472,50.89529],[9.4945,50.87493],[9.51759,50.83934],[9.50661,50.83381],[9.51056,50.82822],[9.50111,50.81011],[9.55261,50.7838],[9.55977,50.76294],[9.60217,50.75856],[9.62892,50.77984],[9.69473,50.79975],[9.69981,50.81263],[9.72878,50.8202],[9.74041,50.8074],[9.79058,50.81987],[9.80689,50.81391],[9.79929,50.80645],[9.81212,50.79438],[9.88087,50.79593],[9.89563,50.79005],[9.8922,50.81082],[9.8992,50.81659],[9.95224,50.82147],[9.95657,50.8096],[9.94404,50.79392],[9.95469,50.786],[9.94355,50.77134],[9.96913,50.78267],[9.98803,50.76559],[10.04004,50.75764],[10.04811,50.748],[10.04344,50.73358],[10.07867,50.70691],[10.07569,50.71965],[10.09721,50.7402],[10.0597,50.75981],[10.06884,50.76116],[10.07493,50.78277],[10.08584,50.7838],[10.07811,50.7895],[10.07863,50.80996],[10.05708,50.82098],[10.04099,50.84091],[10.05421,50.85085],[10.05047,50.85657],[10.0614,50.87639]],[[9.93664,50.8368],[9.89943,50.84058],[9.90512,50.86039],[9.94374,50.84516],[9.93664,50.8368]]],[[[10.07442,50.87853],[10.07579,50.87206],[10.09219,50.87407],[10.10021,50.86556],[10.11433,50.86862],[10.14278,50.85687],[10.18875,50.85256],[10.21008,50.86253],[10.18518,50.86553],[10.19033,50.87277],[10.2202,50.88771],[10.21085,50.89416],[10.19797,50.87954],[10.17909,50.88268],[10.16991,50.90244],[10.14261,50.89416],[10.13729,50.9072],[10.11146,50.89313],[10.09386,50.89296],[10.07442,50.87853]]]]}},{"type":"Feature","properties":{"NAME":"Imperial Abbey of Werden","SUBJECTO":"Holy Roman Empire","PARTOF":"Holy Roman Empire","ADMIN_LEVEL":4,"OHM_RELATION_ID":2831007,"START_DATE":"0877-05-22","END_DATE":"1803-04-27"},"geometry":{"type":"MultiPolygon","coordinates":[[[[6.92619,51.42918],[6.92482,51.40611],[6.89701,51.38882],[6.95151,51.34863],[6.96696,51.34734],[6.99117,51.35876],[7.03597,51.34713],[7.1173,51.38078],[7.1186,51.39234],[7.09597,51.41041],[7.0797,51.44299],[7.06318,51.43903],[7.04567,51.41869],[7.01614,51.41912],[6.98559,51.43346],[6.95812,51.43175],[6.94611,51.43989],[6.92619,51.42918]]]]}},{"type":"Feature","properties":{"NAME":"March of Cham","SUBJECTO":"Holy Roman Empire","PARTOF":"Holy Roman Empire","ADMIN_LEVEL":4,"OHM_RELATION_ID":2809509,"START_DATE":"1055","END_DATE":"1204"},"geometry":{"type":"MultiPolygon","coordinates":[[[[12.77916,49.32557],[12.7256,49.3146],[12.71255,49.29222],[12.68921,49.31662],[12.66518,49.32221],[12.65247,49.3466],[12.62363,49.3372],[12.6226,49.3155],[12.61059,49.31169],[12.61471,49.28774],[12.58896,49.2454],[12.60029,49.24405],[12.60063,49.22388],[12.61093,49.21356],[12.6305,49.20706],[12.60269,49.20369],[12.59651,49.16756],[12.57969,49.16532],[12.58278,49.12107],[12.59617,49.11456],[12.60166,49.09298],[12.62089,49.09365],[12.63943,49.08331],[12.65041,49.09995],[12.71324,49.10714],[12.70981,49.12489],[12.72217,49.16352],[12.74071,49.16734],[12.74689,49.19965],[12.77985,49.19382],[12.79461,49.20863],[12.81692,49.21065],[12.79221,49.25772],[12.79839,49.26601],[12.81727,49.26288],[12.84782,49.27497],[12.83203,49.29602],[12.80697,49.29535],[12.80491,49.30744],[12.77916,49.32557]]]]}},{"type":"Feature","properties":{"NAME":"Moravia","SUBJECTO":"Holy Roman Empire","PARTOF":"Holy Roman Empire","ADMIN_LEVEL":4,"OHM_RELATION_ID":2830504,"START_DATE":"1182","END_DATE":"1742-07-28"},"geometry":{"type":"MultiPolygon","coordinates":[[[[16.98274,48.6901],[16.99809,48.69044],[16.99302,48.69778],[17.0033,48.6985],[16.99543,48.70442],[17.00469,48.71496],[16.99779,48.72272],[17.01655,48.72998],[17.04594,48.76808],[17.09217,48.78855],[17.10998,48.83431],[17.11881,48.8402],[17.14791,48.83785],[17.15134,48.84809],[17.16807,48.85952],[17.17659,48.85719],[17.1782,48.86702],[17.1945,48.87488],[17.22216,48.87406],[17.27667,48.86055],[17.30233,48.8449],[17.32167,48.8453],[17.32974,48.83282],[17.36434,48.81369],[17.39487,48.81389],[17.45013,48.84551],[17.47701,48.84155],[17.5256,48.81236],[17.59242,48.82711],[17.60111,48.84025],[17.61754,48.84183],[17.6339,48.85496],[17.7056,48.86235],[17.78088,48.91545],[17.78132,48.92528],[17.8839,48.92749],[17.92226,49.01797],[17.9909,49.02849],[18.02447,49.02123],[18.06858,49.03669],[18.09177,49.05766],[18.11551,49.09342],[18.111,49.11408],[18.11892,49.12354],[18.10732,49.1336],[18.13323,49.16006],[18.13174,49.18972],[18.15325,49.21568],[18.14857,49.24939],[18.18452,49.2703],[18.18432,49.28514],[18.29697,49.30439],[18.37447,49.3286],[18.41557,49.36755],[18.40793,49.39878],[18.45006,49.39359],[18.47542,49.40841],[18.49034,49.43201],[18.54765,49.46867],[18.53419,49.48575],[18.54095,49.4925],[18.52736,49.49394],[18.52502,49.47076],[18.46574,49.45485],[18.44175,49.46608],[18.42145,49.49436],[18.42272,49.50434],[18.39358,49.53193],[18.39683,49.53642],[18.37721,49.55998],[18.36742,49.56235],[18.36663,49.5989],[18.35353,49.61515],[18.36702,49.62361],[18.3682,49.65417],[18.36003,49.66865],[18.3188,49.69903],[18.30251,49.73334],[18.30863,49.76626],[18.2752,49.80123],[18.29983,49.83495],[18.27588,49.86699],[18.22743,49.85314],[18.2249,49.82911],[18.21416,49.82521],[18.21949,49.82512],[18.21827,49.78972],[18.19636,49.7823],[18.19042,49.75679],[18.12029,49.717],[18.01022,49.67804],[17.99204,49.68545],[17.99163,49.70655],[17.98174,49.71007],[17.98728,49.72765],[17.97963,49.73581],[17.95543,49.71937],[17.91814,49.70821],[17.8994,49.73998],[17.90208,49.75399],[17.88998,49.76141],[17.90127,49.7758],[17.86623,49.78337],[17.86447,49.76416],[17.84007,49.73743],[17.87023,49.7008],[17.84525,49.66618],[17.84491,49.65142],[17.85359,49.64684],[17.88362,49.65704],[17.92438,49.63424],[17.93033,49.61995],[17.83834,49.64219],[17.83453,49.63773],[17.87089,49.61228],[17.86309,49.60557],[17.83588,49.60669],[17.78783,49.6351],[17.77775,49.63307],[17.76835,49.65436],[17.73989,49.67866],[17.74765,49.69184],[17.76495,49.6928],[17.75452,49.7161],[17.7166,49.72771],[17.69665,49.72593],[17.68969,49.73742],[17.69372,49.75077],[17.65308,49.77751],[17.64035,49.81072],[17.65752,49.82186],[17.65824,49.84225],[17.64791,49.85371],[17.65922,49.86815],[17.68389,49.8744],[17.7137,49.86664],[17.81833,49.86416],[17.8373,49.87277],[17.85071,49.88807],[17.85069,49.91318],[17.86496,49.91798],[17.86734,49.93582],[17.88392,49.93725],[17.87105,49.96188],[17.84674,49.95844],[17.85715,49.93354],[17.82692,49.92923],[17.8098,49.91675],[17.73757,49.91134],[17.7143,49.8973],[17.69637,49.90797],[17.643,49.88924],[17.61568,49.88892],[17.59943,49.87684],[17.55903,49.90837],[17.53231,49.89754],[17.53113,49.90435],[17.50655,49.91282],[17.50151,49.93062],[17.46822,49.92652],[17.46127,49.94013],[17.46479,49.95658],[17.43146,49.96885],[17.40042,49.97276],[17.39647,49.96193],[17.41075,49.94795],[17.38555,49.93738],[17.35493,49.95258],[17.349,49.96687],[17.32186,49.98355],[17.31217,50.01657],[17.28762,50.0191],[17.2313,50.05997],[17.23063,50.08363],[17.21836,50.1035],[17.15817,50.11982],[17.11885,50.16106],[17.10921,50.18462],[17.07646,50.18263],[17.05724,50.19602],[17.03293,50.23002],[16.99717,50.21646],[16.97824,50.24346],[16.96155,50.23704],[16.95655,50.22277],[16.91254,50.2254],[16.88804,50.21583],[16.8787,50.19905],[16.84884,50.20757],[16.84089,50.20132],[16.84108,50.18648],[16.8219,50.17045],[16.80026,50.12984],[16.80112,50.10975],[16.81964,50.08667],[16.80001,50.07134],[16.81391,50.05828],[16.81006,50.05487],[16.78002,50.04719],[16.76063,50.0554],[16.69609,50.05262],[16.70845,50.00479],[16.73468,49.9686],[16.73353,49.95306],[16.69442,49.9306],[16.68344,49.91927],[16.68292,49.9038],[16.64404,49.8941],[16.66038,49.87354],[16.66236,49.85259],[16.62696,49.85993],[16.56881,49.83513],[16.57297,49.81098],[16.56487,49.78732],[16.58077,49.768],[16.58246,49.75314],[16.57154,49.74065],[16.53353,49.74093],[16.52828,49.75631],[16.50622,49.76351],[16.507,49.78501],[16.49691,49.79075],[16.46899,49.79663],[16.45468,49.78739],[16.41952,49.79126],[16.40572,49.78472],[16.40774,49.77383],[16.3883,49.75806],[16.38808,49.7427],[16.37619,49.73469],[16.3657,49.70765],[16.44468,49.70018],[16.47426,49.68572],[16.48087,49.66265],[16.51465,49.65499],[16.52886,49.6069],[16.49744,49.60978],[16.49009,49.59969],[16.45919,49.60521],[16.44302,49.58583],[16.41832,49.59559],[16.40637,49.5723],[16.34474,49.61327],[16.29824,49.62544],[16.22279,49.63021],[16.2282,49.64212],[16.21797,49.65964],[16.22228,49.66613],[16.20695,49.66618],[16.19014,49.67788],[16.14853,49.67793],[16.13947,49.69136],[16.10393,49.68423],[16.09098,49.66999],[16.07855,49.6849],[16.06432,49.68816],[16.05049,49.70847],[16.01548,49.70568],[15.9966,49.69613],[15.9733,49.66839],[15.94655,49.66736],[15.92818,49.67857],[15.91679,49.66345],[15.9203,49.65025],[15.95014,49.63749],[15.9738,49.63825],[15.98727,49.63179],[15.99248,49.61816],[15.94893,49.59233],[15.87139,49.58841],[15.86873,49.57455],[15.87462,49.56691],[15.8846,49.56906],[15.8869,49.55508],[15.85818,49.54239],[15.84203,49.50332],[15.82104,49.48138],[15.82394,49.4667],[15.79176,49.46955],[15.7845,49.46245],[15.78926,49.45284],[15.77892,49.45],[15.69792,49.44887],[15.68812,49.43189],[15.64795,49.4535],[15.63407,49.44569],[15.64356,49.4393],[15.63857,49.42528],[15.60392,49.43253],[15.60775,49.42789],[15.58371,49.40565],[15.54821,49.41823],[15.51166,49.40781],[15.51577,49.40466],[15.49971,49.39498],[15.50377,49.3817],[15.49093,49.37404],[15.49184,49.36412],[15.41757,49.31837],[15.38776,49.33402],[15.35731,49.33711],[15.38634,49.32619],[15.3807,49.32476],[15.38675,49.3163],[15.34456,49.31429],[15.3306,49.28418],[15.33518,49.27104],[15.29912,49.27403],[15.29519,49.28163],[15.28002,49.27811],[15.2689,49.25035],[15.27932,49.24666],[15.23502,49.25426],[15.22698,49.24809],[15.23264,49.23964],[15.22471,49.22463],[15.19239,49.23617],[15.16796,49.2169],[15.16605,49.20325],[15.13495,49.19697],[15.1369,49.18763],[15.16449,49.18822],[15.16253,49.17886],[15.1829,49.17273],[15.18318,49.18587],[15.21419,49.21097],[15.25531,49.21203],[15.2604,49.20111],[15.28166,49.20341],[15.26746,49.19431],[15.22145,49.19355],[15.20592,49.18108],[15.23794,49.17189],[15.2259,49.14526],[15.26003,49.12152],[15.2511,49.09844],[15.23818,49.09143],[15.2646,49.07533],[15.23044,49.08576],[15.207,49.05875],[15.24768,49.04806],[15.25504,49.04136],[15.24906,49.02857],[15.28555,49.0159],[15.29103,48.98432],[15.32173,48.97613],[15.35324,48.98406],[15.4229,48.95239],[15.45372,48.94665],[15.46788,48.95155],[15.50201,48.93597],[15.51339,48.91412],[15.58033,48.89571],[15.61244,48.89825],[15.6295,48.88581],[15.65481,48.88191],[15.68785,48.85647],[15.70821,48.8607],[15.75487,48.85311],[15.77788,48.87319],[15.84252,48.87672],[15.85018,48.86954],[15.84644,48.85842],[15.86527,48.85247],[15.87688,48.85953],[15.88563,48.8419],[15.89799,48.84807],[15.90477,48.84013],[15.89153,48.83674],[15.93065,48.83384],[15.92508,48.82561],[15.93368,48.81961],[15.94417,48.82799],[15.95628,48.82351],[15.95262,48.80274],[15.99749,48.77828],[16.07989,48.74995],[16.27865,48.74146],[16.33055,48.73131],[16.3401,48.74211],[16.35183,48.74142],[16.36007,48.72839],[16.40677,48.74157],[16.41925,48.75918],[16.435,48.76563],[16.46041,48.80903],[16.51823,48.79896],[16.54073,48.81429],[16.56473,48.7939],[16.59811,48.78197],[16.64344,48.7858],[16.72877,48.77417],[16.86204,48.79106],[16.87181,48.78618],[16.8676,48.76207],[16.89159,48.74167],[16.88889,48.73223],[16.87918,48.73117],[16.88856,48.71725],[16.92028,48.7129],[16.93972,48.68563],[16.97248,48.69096],[16.97358,48.67067],[16.98274,48.6901]]],[[[17.79201,49.75799],[17.80315,49.7487],[17.80852,49.75829],[17.82209,49.75622],[17.82323,49.7617],[17.79437,49.76748],[17.79201,49.75799]]],[[[18.05982,49.72762],[18.02666,49.73183],[17.99989,49.71121],[18.02116,49.6959],[18.06073,49.70088],[18.05982,49.72762]]],[[[17.9536,49.79493],[17.97553,49.77732],[18.01028,49.79054],[17.98494,49.80801],[17.9637,49.80609],[17.9536,49.79493]]],[[[17.796,49.96886],[17.79154,49.96626],[17.80342,49.95681],[17.82456,49.96235],[17.81513,49.96981],[17.796,49.96886]]],[[[17.61966,50.17117],[17.7031,50.18466],[17.72043,50.20842],[17.73797,50.20211],[17.75896,50.20818],[17.7624,50.24078],[17.74511,50.24331],[17.72594,50.26235],[17.72593,50.27293],[17.7507,50.29777],[17.73073,50.30328],[17.71901,50.32029],[17.69101,50.32744],[17.68747,50.30898],[17.69529,50.30386],[17.62722,50.27005],[17.61024,50.26609],[17.58739,50.27823],[17.56238,50.27036],[17.49051,50.27405],[17.45923,50.26931],[17.45336,50.25614],[17.43375,50.25331],[17.42488,50.24087],[17.42223,50.21297],[17.42917,50.20454],[17.46253,50.21463],[17.48489,50.20708],[17.5171,50.21233],[17.54233,50.18909],[17.60571,50.1891],[17.61966,50.17117]]],[[[17.98013,49.92172],[17.97616,49.9257],[17.97274,49.88837],[17.98773,49.88585],[17.99402,49.90959],[17.98013,49.92172]]],[[[18.005,50.0498],[18.04976,50.08094],[18.0756,50.08309],[18.0768,50.06788],[18.08118,50.09245],[18.09525,50.05989],[18.12255,50.06463],[18.10272,50.07207],[18.08684,50.10324],[18.06539,50.11348],[18.01492,50.13021],[17.97432,50.12713],[17.95115,50.10781],[17.95921,50.093],[17.94754,50.07025],[17.98659,50.06408],[17.99088,50.05075],[18.005,50.0498]]]]}},{"type":"Feature","properties":{"NAME":"Prince-Archbishopric of Bremen","SUBJECTO":"Holy Roman Empire","PARTOF":"Holy Roman Empire","ADMIN_LEVEL":4,"OHM_RELATION_ID":2840404,"START_DATE":"1180","END_DATE":"1381"},"geometry":{"type":"Polygon","coordinates":[[[8.46703,53.63283],[8.47321,53.59454],[8.552,53.55316],[8.56689,53.5386],[8.57346,53.51204],[8.57071,53.49387],[8.55577,53.48723],[8.56642,53.47538],[8.53071,53.43562],[8.52762,53.42293],[8.49325,53.41879],[8.50144,53.35111],[8.4902,53.32785],[8.49295,53.29672],[8.48076,53.24683],[8.48537,53.22716],[8.53396,53.18685],[8.61834,53.16801],[8.62621,53.14853],[8.63092,53.16026],[8.69085,53.16381],[8.70263,53.15418],[8.6828,53.14041],[8.62646,53.14792],[8.62942,53.14058],[8.64377,53.12832],[8.69748,53.11896],[8.76391,53.12818],[8.77044,53.14919],[8.7961,53.14312],[8.8076,53.15109],[8.82357,53.12957],[8.85113,53.14349],[8.8616,53.13281],[8.90286,53.13815],[8.91149,53.13251],[8.92167,53.14152],[8.91744,53.14656],[8.95532,53.15731],[8.9504,53.15522],[8.9594,53.14297],[8.99718,53.10916],[8.98759,53.1051],[8.98696,53.0955],[8.96335,53.08812],[8.96308,53.04759],[8.91721,53.04769],[8.91725,53.05963],[8.88385,53.06311],[8.88768,53.0668],[8.87163,53.08601],[8.8402,53.10338],[8.83563,53.09686],[8.85841,53.08127],[8.85816,53.06992],[8.83262,53.06822],[8.84532,53.05945],[8.87193,53.05811],[8.86525,53.03541],[8.89143,53.01521],[8.94047,53.00797],[8.9439,52.99805],[8.97328,52.99134],[8.96437,52.97866],[8.97216,52.95495],[8.93013,52.92672],[8.93658,52.90895],[8.95581,52.8912],[8.96566,52.8968],[8.98196,52.88868],[8.9997,52.92195],[9.01364,52.92619],[9.06072,52.92313],[9.07876,52.90252],[9.11715,52.89921],[9.16188,52.91961],[9.18365,52.91769],[9.17101,52.92965],[9.1874,52.937],[9.18406,52.98493],[9.22302,53.07856],[9.25753,53.08547],[9.27521,53.10804],[9.30302,53.12587],[9.34113,53.13565],[9.36584,53.19796],[9.33512,53.23789],[9.36464,53.27065],[9.34679,53.30826],[9.36104,53.32042],[9.44962,53.31549],[9.55965,53.35619],[9.61673,53.36674],[9.62188,53.38891],[9.64239,53.39254],[9.64891,53.40621],[9.68192,53.41112],[9.66917,53.42742],[9.69256,53.4622],[9.7344,53.48376],[9.79208,53.48856],[9.74951,53.52613],[9.72393,53.53929],[9.66728,53.5502],[9.65012,53.56794],[9.55051,53.61593],[9.52028,53.65437],[9.46867,53.69417],[9.3849,53.72749],[9.35022,53.75856],[9.37808,53.79523],[9.36735,53.80919],[9.32156,53.84989],[9.24911,53.8752],[9.10656,53.87896],[8.95935,53.84929],[8.96261,53.69701],[8.936,53.66539],[8.95454,53.65919],[8.94768,53.63815],[8.93751,53.63437],[8.90387,53.65114],[8.89279,53.64532],[8.85942,53.65163],[8.82653,53.68006],[8.76451,53.68245],[8.76898,53.69098],[8.71268,53.73602],[8.7089,53.76962],[8.69143,53.7658],[8.68582,53.77936],[8.65192,53.78876],[8.60693,53.79537],[8.5854,53.79088],[8.57391,53.81467],[8.55758,53.81824],[8.53773,53.81996],[8.47355,53.71154],[8.46703,53.63283]]]}},{"type":"Feature","properties":{"NAME":"Prince-Archbishopric of Magdeburg","SUBJECTO":"Holy Roman Empire","PARTOF":"Holy Roman Empire","ADMIN_LEVEL":4,"OHM_RELATION_ID":2809710,"START_DATE":"1180","END_DATE":"1680-06-04"},"geometry":{"type":"MultiPolygon","coordinates":[[[[11.66952,51.85544],[11.68666,51.85492],[11.69284,51.85945],[11.67379,51.86825],[11.69456,51.87135],[11.76464,51.8634],[11.77297,51.87869],[11.78339,51.8811],[11.82811,51.87225],[11.82927,51.85897],[11.86166,51.83493],[11.84898,51.81911],[11.86604,51.81055],[11.88189,51.83849],[11.92345,51.85826],[11.90742,51.86414],[11.90969,51.87188],[11.93261,51.88113],[11.95913,51.86955],[11.95484,51.85662],[11.96424,51.84527],[11.95085,51.80681],[11.9272,51.81031],[11.92789,51.79187],[11.94433,51.79067],[11.95943,51.79951],[11.953,51.79155],[11.98347,51.79091],[11.9866,51.79535],[11.97714,51.7999],[11.98166,51.80705],[12.00433,51.82299],[12.02696,51.81831],[12.05183,51.83225],[12.10745,51.82647],[12.10505,51.80885],[12.13719,51.81469],[12.1353,51.8396],[12.14393,51.86605],[12.11369,51.87162],[12.05642,51.859],[12.02617,51.86258],[12.01561,51.88709],[11.97441,51.90896],[11.96746,51.92241],[11.92918,51.94912],[11.9003,51.94567],[11.90038,51.93479],[11.88313,51.93032],[11.86691,51.93379],[11.86708,51.92413],[11.88283,51.91566],[11.85365,51.91317],[11.83597,51.9236],[11.82931,51.91926],[11.81425,51.93495],[11.79204,51.94316],[11.73358,51.93671],[11.72237,51.94628],[11.71426,51.94376],[11.71178,51.92906],[11.69117,51.93144],[11.69415,51.9502],[11.68005,51.95632],[11.69576,51.96692],[11.76638,51.97723],[11.76694,51.99183],[11.73726,51.9954],[11.74684,52.00969],[11.8006,51.98906],[11.82217,52.00622],[11.78885,52.03238],[11.75177,52.0225],[11.73185,52.02757],[11.70829,52.04193],[11.71342,52.04484],[11.69235,52.06665],[11.69641,52.07009],[11.70997,52.05183],[11.74087,52.04732],[11.73241,52.05146],[11.74902,52.05637],[11.75507,52.06423],[11.74896,52.07262],[11.76627,52.07695],[11.75144,52.09357],[11.83399,52.09847],[11.83219,52.10669],[11.79975,52.10168],[11.80271,52.11125],[11.88583,52.12432],[11.9018,52.11726],[11.91107,52.13012],[11.90686,52.15498],[11.89631,52.15603],[11.89296,52.17156],[11.85751,52.18235],[11.84257,52.20571],[11.81219,52.21634],[11.82541,52.22906],[11.84687,52.22927],[11.87021,52.24903],[11.86867,52.25828],[11.88807,52.26874],[11.91613,52.28003],[11.94703,52.27026],[11.97098,52.24672],[11.94488,52.23369],[11.95106,52.21728],[11.99329,52.21455],[11.99329,52.19877],[11.92738,52.19835],[11.93132,52.16677],[11.91459,52.15382],[11.93081,52.1141],[11.92806,52.10187],[11.91124,52.10345],[11.90403,52.06832],[11.89013,52.06811],[11.88601,52.06078],[11.90412,52.0613],[11.91699,52.04431],[11.93991,52.04283],[11.92918,52.02583],[11.88572,52.02417],[11.89939,52.01664],[11.88549,52.01528],[11.8909,52.00121],[11.88412,51.97928],[11.91021,51.95812],[11.916,51.95715],[11.89905,51.97016],[11.92941,51.965],[11.93019,51.97006],[11.90079,51.98155],[11.91118,52.00174],[11.95098,52.00494],[11.9642,51.99904],[11.99398,52.00686],[11.99372,52.01847],[12.01703,52.03869],[12.05217,52.04516],[12.03072,52.04791],[12.03861,52.06326],[12.06097,52.05851],[12.08093,52.07602],[12.1338,52.06927],[12.178,52.07676],[12.20478,52.08921],[12.21182,52.1025],[12.2731,52.10155],[12.26804,52.12479],[12.25722,52.13436],[12.29525,52.15466],[12.3579,52.13702],[12.36524,52.14435],[12.42219,52.15256],[12.43358,52.16505],[12.4427,52.18893],[12.43515,52.19561],[12.39841,52.19477],[12.34692,52.21055],[12.33353,52.22191],[12.25731,52.23285],[12.21817,52.22044],[12.15843,52.21886],[12.14573,52.22948],[12.14727,52.24914],[12.13577,52.25334],[12.13371,52.26522],[12.20632,52.27866],[12.24353,52.26577],[12.30821,52.34468],[12.34192,52.33982],[12.33854,52.314],[12.37301,52.30336],[12.46402,52.31804],[12.4688,52.32978],[12.4211,52.34789],[12.43751,52.36372],[12.45168,52.36384],[12.47654,52.39479],[12.45751,52.39902],[12.44489,52.38565],[12.40588,52.40093],[12.39404,52.39077],[12.38824,52.43215],[12.36576,52.42933],[12.36213,52.43814],[12.40537,52.45619],[12.43197,52.45821],[12.4542,52.49172],[12.44058,52.50274],[12.41477,52.50886],[12.4118,52.50118],[12.38554,52.51575],[12.35297,52.51037],[12.33451,52.52823],[12.30795,52.53063],[12.30357,52.5452],[12.32434,52.54938],[12.31233,52.5548],[12.31318,52.56221],[12.33044,52.56926],[12.32172,52.57953],[12.32911,52.59077],[12.31451,52.59906],[12.32215,52.60704],[12.31473,52.61212],[12.31885,52.63637],[12.33357,52.65509],[12.29718,52.67154],[12.28319,52.66241],[12.2707,52.66894],[12.24074,52.66517],[12.22735,52.68231],[12.23109,52.68616],[12.22225,52.68814],[12.2177,52.70666],[12.19929,52.71719],[12.20667,52.72509],[12.20105,52.72831],[12.21911,52.73624],[12.21989,52.74933],[12.20581,52.76092],[12.22366,52.77587],[12.22358,52.78704],[12.21319,52.79456],[12.16598,52.8038],[12.14127,52.78325],[12.10912,52.78278],[12.10552,52.79456],[12.07831,52.79993],[12.07232,52.8172],[12.02273,52.81226],[12.04205,52.73401],[12.01544,52.68231],[12.01046,52.66087],[12.01597,52.62452],[11.98677,52.57212],[11.9796,52.53687],[11.95986,52.5186],[11.98231,52.49815],[11.98711,52.47348],[12.00205,52.46103],[11.99106,52.42891],[11.95999,52.39938],[11.93501,52.39496],[11.8642,52.41158],[11.84069,52.40195],[11.83485,52.38948],[11.76619,52.37937],[11.77159,52.40027],[11.72181,52.40899],[11.69589,52.4008],[11.69804,52.37073],[11.66993,52.35062],[11.62311,52.36056],[11.6262,52.37513],[11.64585,52.36858],[11.67383,52.38697],[11.67048,52.3959],[11.63748,52.40381],[11.6222,52.39734],[11.61856,52.3789],[11.46591,52.37374],[11.44239,52.35743],[11.43977,52.37217],[11.40364,52.37521],[11.39703,52.37225],[11.40252,52.35961],[11.35184,52.33841],[11.33414,52.35191],[11.31257,52.3534],[11.30369,52.33917],[11.30944,52.32878],[11.21532,52.30858],[11.19378,52.31105],[11.19258,52.29614],[11.17146,52.29441],[11.18614,52.27278],[11.25755,52.24504],[11.26064,52.22906],[11.28365,52.22906],[11.30304,52.2014],[11.2361,52.18298],[11.21944,52.18456],[11.23438,52.20424],[11.20708,52.22959],[11.17687,52.2381],[11.16743,52.25734],[11.1319,52.28685],[11.09447,52.28874],[11.06581,52.2752],[11.08478,52.23726],[11.07714,52.22367],[11.02555,52.20995],[11.01191,52.18788],[11.03873,52.16627],[11.06023,52.17243],[11.04274,52.13916],[11.03435,52.12967],[10.94054,52.09616],[10.96987,52.08682],[10.96476,52.0564],[10.98697,52.05178],[11.12984,52.06051],[11.1882,52.10524],[11.24039,52.06178],[11.27266,52.066],[11.32072,52.0263],[11.31686,52.0057],[11.27034,52.01352],[11.26373,51.99804],[11.28476,51.99767],[11.29369,51.98884],[11.29231,51.95781],[11.30013,51.97219],[11.35248,51.96088],[11.37342,51.93453],[11.33995,51.89969],[11.3645,51.88221],[11.42338,51.92881],[11.46458,51.93855],[11.51058,51.92712],[11.54097,51.88174],[11.53095,51.87419],[11.56453,51.85251],[11.60517,51.85116],[11.63272,51.86194],[11.66952,51.85544]],[[11.89502,52.32695],[11.92626,52.35616],[11.94231,52.34074],[11.96651,52.33235],[11.90532,52.31798],[11.89502,52.32695]],[[12.06951,52.23032],[12.09423,52.23348],[12.12135,52.2257],[12.10041,52.2074],[12.06196,52.2116],[12.06951,52.23032]],[[12.18281,52.16762],[12.16633,52.15055],[12.14195,52.1594],[12.14882,52.14613],[12.10865,52.124],[12.11346,52.14739],[12.09663,52.16698],[12.0726,52.16993],[12.1265,52.18762],[12.18281,52.16762]]],[[[12.11678,51.41821],[12.16521,51.40653],[12.17023,51.42316],[12.15088,51.45893],[12.07664,51.45369],[12.07432,51.45962],[12.05655,51.45962],[12.03844,51.47657],[12.03896,51.48812],[12.08771,51.48534],[12.09028,51.49143],[12.05441,51.494],[12.07415,51.50255],[12.07106,51.51238],[12.08633,51.50832],[12.12762,51.51729],[12.11895,51.5276],[12.08183,51.52228],[12.07801,51.53406],[12.16936,51.54975],[12.16483,51.5764],[12.04621,51.58432],[12.0226,51.59243],[12.01977,51.58022],[11.98016,51.57491],[11.99188,51.5847],[11.98299,51.6012],[11.95321,51.60093],[11.95188,51.61962],[11.96793,51.62665],[11.91502,51.62553],[11.9454,51.63088],[11.93308,51.63994],[11.94583,51.64521],[11.9487,51.66673],[11.92802,51.66468],[11.92403,51.64593],[11.863,51.67788],[11.81271,51.68708],[11.80202,51.69959],[11.79773,51.72376],[11.77975,51.73224],[11.77507,51.75265],[11.74271,51.73888],[11.73022,51.74491],[11.69396,51.74274],[11.72327,51.73248],[11.72529,51.72604],[11.71443,51.72642],[11.70791,51.71506],[11.68894,51.72059],[11.69297,51.72485],[11.62354,51.73229],[11.61538,51.70347],[11.62594,51.70581],[11.63444,51.69448],[11.61066,51.69139],[11.61272,51.67692],[11.60371,51.66585],[11.69323,51.64881],[11.72104,51.62995],[11.75245,51.63304],[11.75949,51.58262],[11.79125,51.58368],[11.79863,51.5727],[11.83219,51.5696],[11.82026,51.55616],[11.81923,51.53299],[11.8388,51.52818],[11.84206,51.51291],[11.83245,51.51109],[11.83339,51.49827],[11.86335,51.49277],[11.86447,51.48696],[11.84618,51.46957],[11.82884,51.46657],[11.82335,51.47524],[11.80133,51.46619],[11.81957,51.45545],[11.83571,51.42405],[11.85305,51.46048],[11.94317,51.48138],[11.95463,51.47991],[11.9484,51.47753],[11.95338,51.46834],[11.93716,51.45176],[11.92931,51.45746],[11.92592,51.44593],[11.95278,51.43325],[11.95553,51.42009],[11.9442,51.42394],[11.94231,51.41537],[11.95347,51.41612],[11.95536,51.4067],[12.01929,51.40213],[12.04991,51.42247],[12.05559,51.42074],[12.04556,51.39457],[12.06473,51.38712],[12.08485,51.39125],[12.09026,51.42324],[12.11678,51.41821]]],[[[11.86678,51.7409],[11.87034,51.73397],[11.90669,51.727],[11.90991,51.73346],[11.90875,51.7404],[11.88433,51.75079],[11.87695,51.75047],[11.87867,51.73936],[11.86678,51.7409]]],[[[11.02195,52.39349],[11.06503,52.37701],[11.1479,52.38453],[11.14614,52.41938],[11.0919,52.45109],[11.05122,52.50828],[11.03508,52.49822],[10.9753,52.50141],[10.94333,52.49234],[10.93492,52.46451],[10.96144,52.4355],[11.02195,52.39349]]],[[[13.37804,51.92987],[13.37268,51.91452],[13.33328,51.90547],[13.33225,51.87776],[13.31805,51.86308],[13.31358,51.8449],[13.30062,51.83965],[13.31019,51.83055],[13.36315,51.83026],[13.40796,51.81644],[13.45851,51.84819],[13.51258,51.83074],[13.50537,51.86579],[13.53906,51.86608],[13.54237,51.87856],[13.57537,51.88884],[13.5782,51.89652],[13.55155,51.90322],[13.55284,51.89077],[13.54181,51.87869],[13.51619,51.87877],[13.52142,51.90578],[13.49464,51.91351],[13.49211,51.92752],[13.48203,51.93268],[13.45439,51.92712],[13.45014,51.97185],[13.37302,51.97346],[13.37577,51.95659],[13.35043,51.95869],[13.34607,51.97098],[13.31998,51.97336],[13.31543,51.98932],[13.34298,51.98953],[13.35603,51.9982],[13.36092,52.0416],[13.33575,52.05847],[13.32308,52.05402],[13.32719,52.07745],[13.26754,52.08694],[13.25088,52.11157],[13.22239,52.11958],[13.19424,52.15498],[13.19218,52.19077],[13.20591,52.22507],[13.21793,52.23495],[13.17003,52.26784],[13.13519,52.26217],[13.10686,52.24515],[13.09759,52.2176],[12.98447,52.14697],[12.95151,52.14276],[12.98241,52.12927],[12.99305,52.09617],[12.9388,52.10651],[12.90859,52.06389],[12.96249,52.04278],[12.97623,52.02483],[12.90413,52.0357],[12.87615,52.01961],[12.88512,52.00549],[12.93162,51.99338],[12.93235,51.98787],[12.90413,51.98158],[12.90404,51.96236],[12.92911,51.96135],[12.93142,51.97209],[12.95666,51.97758],[12.96953,51.97536],[12.96846,51.96237],[12.99172,51.96106],[12.99399,51.94792],[13.00215,51.94448],[13.05339,51.94109],[13.06575,51.9349],[13.05785,51.91516],[13.03905,51.91791],[13.03171,51.90145],[13.08017,51.90615],[13.08789,51.89461],[13.08482,51.8737],[13.13201,51.88237],[13.14965,51.87217],[13.15106,51.85953],[13.15853,51.86067],[13.16505,51.88433],[13.23003,51.87808],[13.23295,51.89493],[13.26606,51.89468],[13.27054,51.91489],[13.25372,51.92717],[13.25483,51.93977],[13.29517,51.94495],[13.32298,51.93728],[13.35259,51.94675],[13.35465,51.93567],[13.37804,51.92987]]]]}},{"type":"Feature","properties":{"NAME":"Prince-Bishopric of Basel","SUBJECTO":"Holy Roman Empire","PARTOF":"Holy Roman Empire","ADMIN_LEVEL":4,"OHM_RELATION_ID":2852254,"START_DATE":"1032","END_DATE":"1797-10-17"},"geometry":{"type":"MultiPolygon","coordinates":[[[[7.51949,47.6735],[7.54167,47.64622],[7.54933,47.66148],[7.56168,47.66529],[7.54883,47.68101],[7.51949,47.6735]]],[[[7.58039,47.73465],[7.62799,47.72474],[7.63007,47.7366],[7.61642,47.75461],[7.61417,47.77489],[7.57356,47.77555],[7.5509,47.74401],[7.58039,47.73465]]],[[[6.99587,47.44964],[6.94188,47.43391],[6.93841,47.40609],[6.9132,47.4046],[6.91017,47.38504],[6.88361,47.37286],[6.8793,47.35624],[6.97556,47.36097],[7.01423,47.37181],[7.04577,47.36321],[7.06237,47.34403],[7.04561,47.32648],[6.96713,47.32492],[6.97125,47.31817],[7.01538,47.31691],[7.00979,47.29704],[7.00301,47.28855],[6.95639,47.29222],[6.92842,47.2808],[6.9243,47.27463],[6.93503,47.27049],[6.93023,47.25756],[6.95492,47.24265],[6.8804,47.20045],[6.874,47.18545],[6.8424,47.17207],[6.88886,47.13112],[6.8692,47.08742],[6.93066,47.10822],[7.02782,47.12715],[7.04078,47.12434],[7.02395,47.11266],[7.02885,47.10431],[7.04095,47.10881],[7.07571,47.09631],[7.0885,47.08269],[7.07717,47.07644],[7.08841,47.05972],[7.13493,47.08386],[7.12772,47.08906],[7.14214,47.09829],[7.13716,47.10682],[7.19982,47.13392],[7.24147,47.12756],[7.29424,47.16124],[7.32634,47.16194],[7.34367,47.1526],[7.36959,47.15856],[7.37354,47.14898],[7.36565,47.14385],[7.37612,47.14093],[7.3859,47.14805],[7.38934,47.15832],[7.36058,47.17075],[7.35655,47.18388],[7.33938,47.1952],[7.34591,47.20733],[7.34058,47.21718],[7.42195,47.24195],[7.41646,47.25314],[7.47139,47.26618],[7.4865,47.28389],[7.53181,47.2946],[7.57164,47.32626],[7.52426,47.37092],[7.4604,47.37046],[7.43671,47.37883],[7.44358,47.40137],[7.47826,47.40184],[7.48032,47.38836],[7.51877,47.38766],[7.53044,47.41415],[7.57164,47.4174],[7.57473,47.43831],[7.5816,47.42948],[7.61352,47.43552],[7.62657,47.46338],[7.60529,47.46988],[7.61353,47.52114],[7.59443,47.51932],[7.58142,47.54386],[7.55585,47.54444],[7.56469,47.5573],[7.55466,47.56437],[7.50015,47.54015],[7.50101,47.52905],[7.53048,47.52976],[7.52346,47.51867],[7.53589,47.51387],[7.52958,47.46175],[7.45551,47.44939],[7.44302,47.46137],[7.43003,47.45949],[7.4209,47.44594],[7.438,47.44626],[7.4556,47.42826],[7.44864,47.41514],[7.43792,47.41287],[7.37599,47.41415],[7.37576,47.43338],[7.33296,47.44097],[7.28183,47.43478],[7.2494,47.42141],[7.23087,47.4394],[7.1999,47.43513],[7.17022,47.44298],[7.1869,47.48251],[7.20296,47.49139],[7.16227,47.49002],[7.13023,47.50292],[7.07485,47.48818],[7.03693,47.49751],[7.01129,47.48409],[7.00194,47.46851],[7.0058,47.45778],[6.99587,47.44964]]]]}},{"type":"Feature","properties":{"NAME":"Prince-Bishopric of Lübeck","SUBJECTO":"Holy Roman Empire","PARTOF":"Holy Roman Empire","ADMIN_LEVEL":4,"OHM_RELATION_ID":2835925,"START_DATE":"1180","END_DATE":"1803-04-27"},"geometry":{"type":"MultiPolygon","coordinates":[[[[10.55097,53.93847],[10.5425,53.92618],[10.57262,53.92216],[10.57056,53.90639],[10.63202,53.91728],[10.66335,53.89781],[10.70377,53.91132],[10.73364,53.90864],[10.75145,53.92006],[10.80756,53.93201],[10.82782,53.94554],[10.82733,53.9652],[10.85057,53.98595],[10.84308,53.98787],[10.84032,54.03781],[10.75544,54.0542],[10.75759,54.03971],[10.69373,54.02595],[10.69047,54.01897],[10.70446,54.01301],[10.70197,54.0059],[10.66601,54.00817],[10.63434,54.02692],[10.62326,54.00898],[10.64421,54.00192],[10.65026,53.98206],[10.66978,53.97128],[10.66669,53.96442],[10.64721,53.95977],[10.6358,53.96619],[10.6412,53.97133],[10.6291,53.96856],[10.6285,53.94361],[10.64137,53.94391],[10.6394,53.93568],[10.60129,53.9238],[10.57966,53.92709],[10.57631,53.94538],[10.55649,53.96538],[10.53522,53.955],[10.55097,53.93847]]],[[[10.59832,54.07046],[10.59451,54.10234],[10.62845,54.0944],[10.65908,54.09832],[10.67747,54.09028],[10.69223,54.10059],[10.70665,54.09203],[10.73729,54.09512],[10.7557,54.10722],[10.75416,54.12118],[10.72424,54.12656],[10.70897,54.11655],[10.69734,54.12143],[10.68897,54.14979],[10.66416,54.15268],[10.66609,54.16299],[10.65125,54.17316],[10.65348,54.18361],[10.6736,54.18868],[10.67077,54.20673],[10.62007,54.22676],[10.60681,54.22405],[10.6096,54.23091],[10.57331,54.23554],[10.54031,54.22799],[10.54915,54.21998],[10.53791,54.21883],[10.54048,54.20653],[10.52834,54.18833],[10.49508,54.18446],[10.48327,54.17381],[10.51589,54.13991],[10.54095,54.13373],[10.53864,54.12322],[10.49529,54.12332],[10.48113,54.11582],[10.47898,54.10425],[10.43675,54.11794],[10.44062,54.12523],[10.42242,54.11577],[10.42663,54.09026],[10.421,54.08157],[10.45851,54.06072],[10.48405,54.05888],[10.5055,54.07279],[10.59832,54.07046]]]]}},{"type":"Feature","properties":{"NAME":"Prince-Bishopric of Passau","SUBJECTO":"Holy Roman Empire","PARTOF":"Holy Roman Empire","ADMIN_LEVEL":4,"OHM_RELATION_ID":2809505,"START_DATE":"999","END_DATE":"1803-04-27"},"geometry":{"type":"MultiPolygon","coordinates":[[[[13.23441,48.67147],[13.24162,48.65469],[13.26599,48.64403],[13.26668,48.60811],[13.3847,48.59529],[13.4077,48.57797],[13.44967,48.57576],[13.43782,48.56559],[13.40075,48.56741],[13.38959,48.54161],[13.36246,48.5307],[13.36178,48.48817],[13.38306,48.48703],[13.38667,48.47349],[13.40967,48.47645],[13.43473,48.49704],[13.44745,48.49436],[13.45722,48.51149],[13.43645,48.55264],[13.44996,48.56393],[13.47542,48.55616],[13.4746,48.56228],[13.50413,48.57243],[13.50459,48.5867],[13.51557,48.59083],[13.57262,48.56051],[13.5973,48.56957],[13.65414,48.54865],[13.65734,48.54429],[13.6385,48.54389],[13.64313,48.539],[13.63678,48.52843],[13.65377,48.50353],[13.67952,48.49067],[13.67661,48.48441],[13.69553,48.47218],[13.70424,48.47554],[13.70004,48.47884],[13.72021,48.5062],[13.71456,48.51211],[13.72709,48.51302],[13.74909,48.53222],[13.74398,48.54234],[13.7549,48.5643],[13.76832,48.5535],[13.80209,48.57445],[13.80226,48.59478],[13.82441,48.61839],[13.82629,48.63041],[13.81428,48.65038],[13.81908,48.67215],[13.81338,48.69235],[13.83342,48.69187],[13.83739,48.70011],[13.81232,48.70222],[13.79858,48.71231],[13.82011,48.73253],[13.82132,48.75483],[13.83955,48.77162],[13.80387,48.7809],[13.81524,48.79709],[13.79558,48.81485],[13.79253,48.82877],[13.76781,48.83263],[13.73259,48.88698],[13.71947,48.87899],[13.67594,48.87873],[13.62398,48.93742],[13.62545,48.94883],[13.60575,48.94119],[13.58008,48.97074],[13.51154,48.96896],[13.50586,48.95991],[13.51481,48.93699],[13.507,48.92318],[13.52348,48.89768],[13.52245,48.87939],[13.50735,48.86268],[13.45345,48.85636],[13.44898,48.84823],[13.47027,48.84303],[13.46065,48.8315],[13.44692,48.83128],[13.44864,48.81772],[13.44006,48.81026],[13.44933,48.79035],[13.42461,48.75562],[13.45499,48.71792],[13.45053,48.6879],[13.43697,48.67691],[13.39027,48.68235],[13.38135,48.67033],[13.37208,48.67033],[13.36727,48.68824],[13.34839,48.68915],[13.34187,48.67577],[13.30753,48.67963],[13.27148,48.69436],[13.23784,48.68597],[13.23441,48.67147]],[[13.43697,48.63688],[13.53584,48.63019],[13.53207,48.60601],[13.5022,48.60942],[13.48314,48.60023],[13.49061,48.57417],[13.43697,48.63688]]],[[[13.28796,48.33845],[13.31989,48.31859],[13.37628,48.35732],[13.35714,48.36885],[13.28796,48.33845]]]]}},{"type":"Feature","properties":{"NAME":"Prince-Bishopric of Verden","SUBJECTO":"Holy Roman Empire","PARTOF":"Holy Roman Empire","ADMIN_LEVEL":4,"OHM_RELATION_ID":2835911,"START_DATE":"1180","END_DATE":"1648-10-24"},"geometry":{"type":"MultiPolygon","coordinates":[[[[9.29332,52.8175],[9.32465,52.82216],[9.33518,52.83377],[9.36576,52.82054],[9.37258,52.82472],[9.39059,52.8425],[9.37563,52.8529],[9.41322,52.87886],[9.41563,52.8992],[9.47798,52.93253],[9.56068,52.95934],[9.62133,52.95343],[9.68295,52.98139],[9.69204,52.99208],[9.75028,53.00445],[9.78607,53.0217],[9.86907,53.02302],[9.90057,53.057],[9.9258,53.09949],[9.89113,53.14142],[9.84246,53.15969],[9.83122,53.17502],[9.75148,53.19948],[9.72902,53.21408],[9.62353,53.22708],[9.60852,53.24233],[9.58763,53.30937],[9.56191,53.33702],[9.5837,53.35817],[9.55965,53.35619],[9.44962,53.31549],[9.36104,53.32042],[9.34679,53.30826],[9.36464,53.27065],[9.33512,53.23789],[9.36584,53.19796],[9.34113,53.13565],[9.30302,53.12587],[9.27521,53.10804],[9.25753,53.08547],[9.22302,53.07856],[9.18406,52.98493],[9.18341,52.94639],[9.18972,52.93747],[9.16912,52.93229],[9.18869,52.92112],[9.16603,52.91284],[9.17496,52.88716],[9.21204,52.87452],[9.20311,52.86312],[9.18148,52.86395],[9.18217,52.85586],[9.22062,52.85068],[9.2189,52.84363],[9.2062,52.84405],[9.19281,52.81563],[9.29332,52.8175]]]]}},{"type":"Feature","properties":{"NAME":"Prince-Bishopric of Worms","SUBJECTO":"Holy Roman Empire","PARTOF":"Holy Roman Empire","ADMIN_LEVEL":4,"OHM_RELATION_ID":2830736,"START_DATE":"0861","END_DATE":"1797-10-10"},"geometry":{"type":"MultiPolygon","coordinates":[[[[8.08044,49.54526],[8.04199,49.52298],[8.0801,49.53301],[8.08937,49.52432],[8.07495,49.51852],[8.08525,49.51295],[8.15357,49.54058],[8.14911,49.5535],[8.13606,49.55462],[8.13503,49.56219],[8.09418,49.53368],[8.08044,49.54526]]],[[[8.42334,49.54107],[8.41417,49.55912],[8.4225,49.58375],[8.46412,49.58959],[8.49502,49.57312],[8.51346,49.58687],[8.55449,49.58582],[8.58985,49.59227],[8.59092,49.60048],[8.56187,49.60359],[8.57277,49.63362],[8.53243,49.61861],[8.51629,49.62261],[8.48694,49.6136],[8.44299,49.61293],[8.41827,49.62761],[8.39012,49.62761],[8.37398,49.61649],[8.27751,49.61583],[8.27511,49.60915],[8.28335,49.60826],[8.29039,49.59091],[8.33798,49.60117],[8.34369,49.59554],[8.3248,49.58189],[8.31682,49.56753],[8.32455,49.56085],[8.31116,49.55528],[8.31665,49.54994],[8.35922,49.55796],[8.35304,49.55194],[8.37227,49.54727],[8.3757,49.53969],[8.39424,49.54994],[8.42334,49.54107]]],[[[8.23287,49.5879],[8.21194,49.58735],[8.22155,49.56041],[8.21297,49.55551],[8.21983,49.54638],[8.23254,49.54816],[8.24043,49.53724],[8.27494,49.53925],[8.28087,49.58671],[8.23287,49.5879]]]]}},{"type":"Feature","properties":{"NAME":"Prince-Bishopric of Würzburg","SUBJECTO":"Holy Roman Empire","PARTOF":"Holy Roman Empire","ADMIN_LEVEL":4,"OHM_RELATION_ID":2830508,"START_DATE":"1168","END_DATE":"1803-04-27"},"geometry":{"type":"MultiPolygon","coordinates":[[[[9.24499,49.61004],[9.25495,49.60203],[9.24757,49.59458],[9.26903,49.58367],[9.26353,49.57822],[9.27538,49.56778],[9.3092,49.53301],[9.34456,49.54771],[9.29787,49.58979],[9.29272,49.61538],[9.30988,49.61805],[9.33117,49.6096],[9.35065,49.63351],[9.29426,49.65518],[9.26147,49.64562],[9.26525,49.63184],[9.24946,49.62383],[9.24499,49.61004]]],[[[9.38035,49.60693],[9.40395,49.58712],[9.42163,49.58979],[9.44086,49.57254],[9.43863,49.56085],[9.46335,49.56286],[9.49116,49.57866],[9.51064,49.56631],[9.5335,49.56709],[9.53888,49.58223],[9.56669,49.60359],[9.56463,49.61116],[9.54781,49.60982],[9.53751,49.62339],[9.52412,49.62116],[9.50901,49.65074],[9.48429,49.6474],[9.48584,49.65841],[9.44378,49.66496],[9.43554,49.66407],[9.41975,49.6394],[9.40258,49.64007],[9.38035,49.60693]]],[[[9.44687,49.90304],[9.49734,49.86078],[9.50901,49.86388],[9.49596,49.87981],[9.50832,49.8838],[9.5351,49.86211],[9.57767,49.86942],[9.62952,49.84994],[9.65286,49.83001],[9.64394,49.8227],[9.57664,49.82137],[9.58248,49.81074],[9.6175,49.80498],[9.62334,49.79722],[9.61441,49.79013],[9.62574,49.78936],[9.6611,49.76009],[9.69749,49.7745],[9.72462,49.76208],[9.7102,49.74611],[9.67089,49.74423],[9.6611,49.7521],[9.64308,49.72592],[9.64136,49.69884],[9.61681,49.69007],[9.65835,49.62139],[9.60411,49.59647],[9.59244,49.57466],[9.56497,49.57599],[9.5581,49.56486],[9.56978,49.54482],[9.63844,49.54883],[9.72565,49.53724],[9.75174,49.54704],[9.73114,49.56352],[9.7744,49.5889],[9.81766,49.57777],[9.80186,49.56352],[9.81177,49.5557],[9.85833,49.54598],[9.875,49.57789],[9.91385,49.58301],[9.8983,49.5635],[9.9245,49.5614],[9.92715,49.55139],[9.92162,49.55139],[9.92434,49.52548],[9.91694,49.51822],[9.92409,49.50937],[9.91682,49.49117],[9.95356,49.48075],[9.95979,49.47247],[9.94881,49.46489],[9.93061,49.47114],[9.9107,49.46656],[9.90108,49.43822],[9.9337,49.43665],[9.94091,49.44402],[9.9622,49.43554],[9.96048,49.4275],[9.89456,49.41633],[9.89147,49.40472],[9.86366,49.39265],[9.8592,49.37701],[9.87053,49.37276],[9.88186,49.37522],[9.88838,49.38662],[9.92366,49.37326],[9.96941,49.39668],[9.99756,49.39221],[10.01404,49.40338],[10.03807,49.40159],[10.04013,49.41142],[9.98623,49.43063],[9.99275,49.44648],[9.97209,49.48069],[10.01252,49.48306],[10.02795,49.50246],[10.05263,49.50983],[10.05952,49.51775],[10.03975,49.52777],[10.06511,49.54555],[10.08372,49.54357],[10.09918,49.529],[10.18285,49.54368],[10.16853,49.55417],[10.1651,49.56887],[10.17403,49.58245],[10.07172,49.58779],[10.07172,49.60671],[10.08751,49.62539],[10.0676,49.62406],[10.06142,49.64674],[10.09712,49.65518],[10.1136,49.68673],[10.12802,49.69029],[10.12321,49.69562],[10.15892,49.72315],[10.21866,49.72492],[10.23926,49.71383],[10.23445,49.69517],[10.21591,49.69384],[10.20973,49.67918],[10.18707,49.67918],[10.18364,49.65207],[10.22827,49.65074],[10.22621,49.66496],[10.2523,49.66807],[10.3038,49.69384],[10.34981,49.69029],[10.34981,49.70095],[10.37384,49.70361],[10.35873,49.71782],[10.31685,49.73336],[10.28389,49.79767],[10.30792,49.80564],[10.32028,49.81894],[10.35599,49.82381],[10.37041,49.81584],[10.35667,49.79235],[10.40749,49.78038],[10.44319,49.83754],[10.43701,49.84684],[10.46173,49.87517],[10.48988,49.86809],[10.52971,49.88269],[10.52833,49.89729],[10.57091,49.91454],[10.56541,49.92028],[10.59494,49.92161],[10.6176,49.93178],[10.60318,49.94062],[10.60661,49.94769],[10.67734,49.93973],[10.7048,49.95431],[10.75905,49.96006],[10.76935,49.97242],[10.75287,49.97772],[10.70824,50.03509],[10.72266,50.04391],[10.75355,50.0298],[10.88333,50.03774],[10.87646,50.06155],[10.8284,50.07653],[10.82445,50.09647],[10.83982,50.11546],[10.89861,50.13907],[10.90324,50.1504],[10.92217,50.15359],[10.91423,50.16766],[10.87745,50.17646],[10.87269,50.19844],[10.85827,50.20503],[10.82703,50.19448],[10.82119,50.18108],[10.7872,50.17734],[10.77141,50.2035],[10.83715,50.22096],[10.82703,50.23776],[10.80128,50.2516],[10.78222,50.25193],[10.76866,50.24128],[10.73296,50.25105],[10.72729,50.23172],[10.73175,50.21294],[10.72351,50.20459],[10.68678,50.22151],[10.6576,50.22393],[10.66257,50.22799],[10.61245,50.22404],[10.59872,50.24567],[10.61142,50.24973],[10.59872,50.26312],[10.60369,50.2719],[10.59151,50.26981],[10.60507,50.29351],[10.59322,50.31664],[10.60095,50.33396],[10.56215,50.3379],[10.55117,50.34415],[10.5546,50.35685],[10.54344,50.36386],[10.53263,50.36463],[10.51512,50.35017],[10.51392,50.35904],[10.49177,50.35543],[10.49572,50.36693],[10.48885,50.37503],[10.46997,50.37437],[10.45898,50.38214],[10.4492,50.40316],[10.4262,50.39364],[10.39461,50.39484],[10.38448,50.406],[10.40388,50.42493],[10.37161,50.43225],[10.38191,50.4387],[10.36835,50.43903],[10.33556,50.46625],[10.34225,50.48307],[10.33058,50.49356],[10.30125,50.49395],[10.3032,50.48624],[10.26857,50.47652],[10.2511,50.4404],[10.24518,50.4416],[10.24836,50.43225],[10.23582,50.43094],[10.23196,50.41989],[10.17673,50.44499],[10.14853,50.44232],[10.11091,50.45083],[10.09712,50.46071],[10.09911,50.46696],[10.08264,50.47362],[10.08382,50.48526],[10.11834,50.48067],[10.12429,50.49076],[10.11103,50.49907],[10.14389,50.50322],[10.15503,50.50162],[10.16066,50.47753],[10.17536,50.46873],[10.2045,50.46864],[10.20012,50.50011],[10.23033,50.51103],[10.23136,50.53154],[10.19377,50.55489],[10.17602,50.54365],[10.1289,50.56444],[10.12072,50.56431],[10.15059,50.552],[10.13909,50.54301],[10.12073,50.55583],[10.12062,50.56431],[10.10944,50.56413],[10.09982,50.55515],[10.07347,50.53781],[10.07389,50.52838],[10.04513,50.51697],[10.03889,50.52827],[10.06129,50.55672],[10.04511,50.5755],[10.04725,50.60054],[10.0264,50.6181],[9.99696,50.61949],[9.98228,50.60274],[10.01507,50.53776],[10.01352,50.50721],[9.97713,50.53285],[9.94881,50.51768],[9.94606,50.5012],[9.95739,50.4846],[9.99636,50.46111],[9.9931,50.4516],[9.95756,50.4235],[9.88392,50.39911],[9.87637,50.36912],[9.85268,50.35729],[9.88289,50.331],[9.91173,50.33582],[9.92889,50.3299],[9.93233,50.3242],[9.90108,50.31127],[9.90005,50.29987],[9.91619,50.27552],[9.89765,50.26389],[9.92718,50.23908],[9.91207,50.23227],[9.91962,50.2136],[9.91241,50.20833],[9.96803,50.20086],[9.95602,50.19163],[9.95636,50.16502],[9.96975,50.16041],[9.98383,50.14083],[9.97456,50.12982],[9.94537,50.12718],[9.93095,50.09283],[9.94125,50.08799],[9.90074,50.05626],[9.90967,50.04347],[9.86778,50.04524],[9.85199,50.07609],[9.85611,50.08623],[9.83482,50.09283],[9.75586,50.09239],[9.75174,50.10252],[9.73114,50.09261],[9.71672,50.09878],[9.72908,50.10473],[9.69475,50.12652],[9.68788,50.11419],[9.64119,50.12388],[9.5945,50.11926],[9.59381,50.07874],[9.60274,50.06904],[9.65836,50.0664],[9.67861,50.07785],[9.68565,50.07675],[9.68857,50.06122],[9.68342,50.05482],[9.64256,50.05593],[9.65149,50.02903],[9.62162,50.02208],[9.58111,49.99555],[9.59909,49.95139],[9.50197,49.95299],[9.44687,49.90304]],[[9.64668,49.92028],[9.66608,49.92879],[9.72015,49.93045],[9.73526,49.91365],[9.68651,49.90005],[9.70076,49.88922],[9.73921,49.88844],[9.74367,49.86045],[9.70882,49.85846],[9.67183,49.88761],[9.6599,49.88651],[9.65801,49.89486],[9.66574,49.89983],[9.64668,49.92028]],[[9.67597,49.69326],[9.677,49.71636],[9.70073,49.71696],[9.72393,49.74412],[9.75534,49.75],[9.7916,49.73093],[9.75289,49.71015],[9.7512,49.697],[9.73587,49.68776],[9.67597,49.69326]],[[9.67621,49.80564],[9.68239,49.81539],[9.71844,49.81938],[9.73045,49.78947],[9.7023,49.77838],[9.67621,49.80564]],[[9.7641,50.07433],[9.77989,50.08138],[9.79912,50.07565],[9.79294,50.05405],[9.76616,50.06067],[9.7641,50.07433]],[[9.83826,49.91763],[9.85611,49.93796],[9.8568,49.96889],[9.89044,49.96491],[9.89044,49.92603],[9.83826,49.91763]],[[9.90005,49.67118],[9.90555,49.68451],[9.92958,49.68496],[9.94949,49.7085],[10.02434,49.69651],[10.03052,49.67563],[9.96323,49.68585],[9.95087,49.67518],[9.96323,49.65829],[9.95293,49.62317],[9.92821,49.62317],[9.91585,49.64718],[9.93233,49.66718],[9.90005,49.67118]],[[10.0415,49.71915],[10.0415,49.72803],[10.10536,49.74223],[10.11291,49.7338],[10.09781,49.7156],[10.06142,49.70272],[10.06004,49.71471],[10.0415,49.71915]],[[10.12871,49.90127],[10.17197,49.90392],[10.18707,49.8734],[10.14107,49.86897],[10.12871,49.90127]],[[10.167,50.02836],[10.18955,50.04348],[10.18172,50.05293],[10.19493,50.06759],[10.20516,50.07271],[10.22459,50.06582],[10.22946,50.08474],[10.22162,50.09146],[10.23685,50.12212],[10.26157,50.14017],[10.27496,50.13929],[10.2808,50.14655],[10.32337,50.13995],[10.31033,50.12938],[10.26896,50.13202],[10.29453,50.11221],[10.25718,50.08596],[10.26732,50.06683],[10.2603,50.0594],[10.2756,50.05763],[10.24056,50.03945],[10.23878,50.02252],[10.24896,50.0192],[10.23469,50.01379],[10.21242,50.00885],[10.167,50.02836]],[[10.26947,49.89685],[10.2832,49.90171],[10.27908,49.9163],[10.29213,49.91984],[10.31273,49.88446],[10.27359,49.88534],[10.26947,49.89685]],[[10.27222,49.85304],[10.299,49.85791],[10.31273,49.84463],[10.29007,49.83223],[10.27496,49.834],[10.27222,49.85304]],[[10.43745,50.17036],[10.45008,50.19629],[10.46962,50.18744],[10.4712,50.17767],[10.43745,50.17036]],[[10.51254,49.96359],[10.5249,49.97905],[10.51666,49.99185],[10.53863,50.02362],[10.59769,50.02539],[10.62157,50.0391],[10.61286,50.05054],[10.57385,50.05095],[10.57351,50.06193],[10.5383,50.06932],[10.52046,50.08781],[10.55072,50.09484],[10.57998,50.08718],[10.59454,50.09676],[10.63168,50.0828],[10.62036,50.07759],[10.64655,50.05752],[10.65478,50.05621],[10.65263,50.06975],[10.66281,50.07377],[10.68591,50.06897],[10.68489,50.04849],[10.6594,50.04083],[10.68901,50.00068],[10.69038,49.97419],[10.65639,49.97441],[10.63957,49.98732],[10.6176,49.99053],[10.59906,49.9764],[10.57915,49.97375],[10.56267,49.95299],[10.53589,49.94415],[10.51598,49.94813],[10.5201,49.95741],[10.51254,49.96359]],[[10.5783,50.15989],[10.59524,50.16052],[10.59603,50.14817],[10.58646,50.14623],[10.5783,50.15989]]],[[[9.52721,50.18965],[9.52858,50.16788],[9.61613,50.17998],[9.68307,50.17602],[9.70024,50.20284],[9.68513,50.20943],[9.68239,50.23096],[9.66694,50.23974],[9.60411,50.22217],[9.58248,50.22173],[9.57561,50.23227],[9.5636,50.19624],[9.54369,50.20064],[9.52721,50.18965]]],[[[9.68685,49.31729],[9.75552,49.31841],[9.79809,49.3334],[9.84066,49.31416],[9.86435,49.32646],[9.8386,49.34392],[9.8489,49.34928],[9.84169,49.37276],[9.83036,49.37321],[9.84032,49.3788],[9.83585,49.3855],[9.81148,49.3788],[9.78012,49.38321],[9.75178,49.36169],[9.76067,49.34302],[9.73045,49.35152],[9.73801,49.3381],[9.71054,49.33966],[9.70505,49.33452],[9.71947,49.32445],[9.70093,49.32691],[9.68685,49.31729]]],[[[9.75208,49.20392],[9.7617,49.1927],[9.78126,49.18844],[9.78916,49.18978],[9.78744,49.20616],[9.75414,49.21109],[9.75208,49.20392]]],[[[10.34706,49.66985],[10.3759,49.64273],[10.38277,49.61382],[10.39719,49.60671],[10.45761,49.63251],[10.45692,49.6484],[10.44096,49.66185],[10.40405,49.6663],[10.38071,49.68407],[10.34706,49.66985]]],[[[10.56335,49.76042],[10.64987,49.73779],[10.65124,49.79722],[10.60524,49.80697],[10.59425,49.78836],[10.60867,49.77417],[10.56747,49.77417],[10.56335,49.76042]]]]}}],"metadata":{"source":"OpenHistoricalMap","sourceUrl":"https://www.openhistoricalmap.org/","license":"CC0-1.0","year":1200,"featureCount":26,"missingWays":{},"unclosedRings":{},"droppedInnerRings":{},"relationsWithoutGeometry":[]}}