{"type":"FeatureCollection","features":[{"type":"Feature","properties":{"NAME":"Burgraviate of Nuremberg","SUBJECTO":"Holy Roman Empire","PARTOF":"Holy Roman Empire","ADMIN_LEVEL":4,"OHM_RELATION_ID":2830455,"START_DATE":"1050","END_DATE":"1219"},"geometry":{"type":"MultiPolygon","coordinates":[[[[10.38414,49.54214],[10.3838,49.52499],[10.4147,49.50426],[10.4322,49.50359],[10.41161,49.47392],[10.38723,49.46522],[10.37178,49.48262],[10.40028,49.48798],[10.35908,49.53412],[10.32131,49.53368],[10.31445,49.54816],[10.32509,49.56375],[10.29213,49.56575],[10.2626,49.55395],[10.23102,49.55818],[10.12493,49.531],[10.09918,49.529],[10.08763,49.54116],[10.06165,49.54518],[10.06138,49.53746],[10.04113,49.5294],[10.05942,49.51906],[10.04856,49.50728],[10.02804,49.50305],[10.01952,49.48495],[9.97499,49.48099],[9.99275,49.44648],[9.98623,49.43063],[10.00854,49.4246],[10.02056,49.44313],[10.05489,49.43375],[10.06382,49.4467],[10.08442,49.43398],[10.09815,49.43844],[10.116,49.42236],[10.14313,49.42929],[10.12218,49.44648],[10.08854,49.44916],[10.09472,49.46165],[10.17334,49.4679],[10.17094,49.48374],[10.22106,49.47638],[10.24475,49.46121],[10.28835,49.45116],[10.30689,49.43331],[10.28904,49.41901],[10.27599,49.41879],[10.26913,49.40405],[10.25711,49.40271],[10.26466,49.3893],[10.25265,49.38438],[10.26604,49.35241],[10.27874,49.3457],[10.27119,49.3381],[10.30689,49.32423],[10.29762,49.31125],[10.30535,49.3042],[10.31736,49.31102],[10.33779,49.29893],[10.31754,49.29211],[10.31908,49.27945],[10.29453,49.26422],[10.30226,49.25615],[10.25316,49.2324],[10.22123,49.22612],[10.20372,49.22724],[10.19754,49.23565],[10.18244,49.22623],[10.11412,49.24125],[10.08528,49.2566],[10.05901,49.24741],[10.03653,49.25895],[10.04648,49.27083],[10.04047,49.29647],[10.05987,49.29412],[10.06004,49.31058],[10.03575,49.31964],[9.97833,49.3099],[9.94752,49.32518],[9.92237,49.32546],[9.93825,49.28684],[9.95284,49.28449],[9.95507,49.27273],[9.97507,49.27184],[9.99018,49.26086],[9.87499,49.25604],[9.87585,49.24035],[9.90383,49.23419],[9.95739,49.24024],[9.97541,49.23251],[9.99619,49.24495],[10.01919,49.22881],[10.02005,49.21154],[10.03069,49.20582],[10.01078,49.19287],[10.02073,49.18294],[10.01043,49.17778],[9.98863,49.18844],[9.984,49.17362],[9.95687,49.16925],[9.96031,49.15802],[9.97335,49.15791],[9.94554,49.13905],[9.94606,49.12287],[9.99979,49.09534],[10.01919,49.09568],[10.01404,49.07758],[10.04974,49.07656],[10.09712,49.10197],[10.09541,49.0923],[10.11103,49.07409],[10.14175,49.07645],[10.15102,49.06487],[10.16098,49.06588],[10.15686,49.07533],[10.196,49.07983],[10.19308,49.08826],[10.22501,49.10377],[10.23668,49.09748],[10.25454,49.10332],[10.24166,49.07656],[10.26157,49.08556],[10.28183,49.06644],[10.2935,49.06622],[10.29865,49.08151],[10.31342,49.09006],[10.36491,49.07522],[10.33161,49.0543],[10.44044,49.01378],[10.53434,49.01344],[10.53932,49.02729],[10.55099,49.03325],[10.58344,49.03224],[10.60593,49.00939],[10.60387,49.00004],[10.58739,48.99824],[10.59082,48.9685],[10.61279,48.96985],[10.67081,48.90738],[10.70892,48.8961],[10.74463,48.91889],[10.79613,48.91573],[10.80643,48.93964],[10.88882,48.93378],[10.90942,48.9446],[10.90633,48.97053],[10.8799,48.99779],[10.91629,49.01243],[10.90496,49.02504],[10.9108,49.02977],[10.93929,49.03022],[10.95818,49.04034],[10.93037,49.05587],[10.93689,49.07477],[10.96745,49.07634],[10.98736,49.06284],[11.01311,49.05902],[11.01688,49.05182],[10.98633,49.02166],[11.16784,49.03099],[11.17001,49.0489],[11.1906,49.05115],[11.20641,49.03447],[11.22253,49.03922],[11.21635,49.05587],[11.25206,49.04867],[11.30356,49.06757],[11.28845,49.07881],[11.28845,49.09658],[11.22219,49.1496],[11.18889,49.10782],[11.20708,49.08444],[11.09894,49.07904],[11.07319,49.09905],[11.0416,49.06194],[10.99628,49.09343],[10.96779,49.09298],[10.92659,49.15162],[10.90633,49.15072],[10.90118,49.16307],[10.87166,49.15971],[10.85999,49.17856],[10.84179,49.1826],[10.84385,49.20055],[10.87887,49.21289],[10.91732,49.19135],[10.93277,49.19786],[10.98461,49.18686],[10.96573,49.15724],[10.97156,49.14938],[10.98461,49.15881],[11.00967,49.15881],[11.01688,49.1725],[11.05019,49.1752],[11.06701,49.15387],[11.21498,49.21109],[11.20262,49.22589],[11.22803,49.24809],[11.17687,49.28259],[11.21086,49.31729],[11.23077,49.30587],[11.23901,49.30923],[11.23077,49.32311],[11.25549,49.32311],[11.26167,49.31192],[11.2912,49.31237],[11.30665,49.29826],[11.32656,49.30028],[11.35574,49.32244],[11.31248,49.35398],[11.16485,49.54749],[11.02203,49.55629],[11.02478,49.56898],[11.01105,49.58289],[11.1216,49.58134],[11.12795,49.58668],[11.06907,49.60782],[11.01242,49.60226],[11.03439,49.64451],[11.06117,49.66274],[11.03439,49.67341],[10.97603,49.66096],[10.97053,49.62317],[10.98907,49.61649],[10.97091,49.58332],[10.95337,49.56709],[10.91698,49.57377],[10.89775,49.55506],[10.93689,49.54482],[10.9259,49.52298],[10.90324,49.53412],[10.86891,49.51986],[10.83527,49.53368],[10.86616,49.54704],[10.83527,49.59157],[10.85243,49.60359],[10.82771,49.60359],[10.81329,49.62183],[10.86616,49.63606],[10.84573,49.66291],[10.79338,49.65963],[10.70206,49.69384],[10.66498,49.68229],[10.63957,49.68718],[10.60455,49.67696],[10.56129,49.67652],[10.48576,49.63195],[10.52422,49.61972],[10.53657,49.59558],[10.49126,49.59558],[10.39478,49.55194],[10.39719,49.54214],[10.38414,49.54214]],[[10.38963,49.09298],[10.36594,49.11029],[10.37659,49.1168],[10.41538,49.11096],[10.42705,49.10152],[10.38963,49.09298]],[[10.45452,49.04349],[10.45898,49.02391],[10.41882,49.02414],[10.41882,49.03899],[10.45452,49.04349]],[[10.46997,49.05497],[10.47649,49.0597],[10.50739,49.05092],[10.50705,49.04462],[10.49091,49.04057],[10.46997,49.05497]],[[10.22162,49.11766],[10.19242,49.12627],[10.20608,49.14669],[10.21661,49.14888],[10.21845,49.16102],[10.24822,49.14926],[10.2554,49.13049],[10.22162,49.11766]],[[10.18536,49.11119],[10.20012,49.10197],[10.19428,49.09658],[10.17643,49.10377],[10.18536,49.11119]],[[10.15274,49.12018],[10.16991,49.11276],[10.15549,49.10804],[10.14862,49.11209],[10.15274,49.12018]],[[10.4274,49.22253],[10.40297,49.22986],[10.36746,49.2201],[10.34542,49.22473],[10.35331,49.24305],[10.37166,49.24412],[10.38961,49.26146],[10.43887,49.25804],[10.44008,49.27833],[10.45568,49.2842],[10.46325,49.27628],[10.47913,49.27741],[10.47688,49.26688],[10.5159,49.25786],[10.53667,49.26199],[10.58114,49.2492],[10.56404,49.201],[10.57846,49.17722],[10.49057,49.19247],[10.48576,49.2019],[10.4995,49.21087],[10.46585,49.20594],[10.4274,49.22253]],[[10.6897,49.13455],[10.67184,49.11254],[10.64712,49.11658],[10.63133,49.10265],[10.62172,49.12242],[10.58533,49.12737],[10.57983,49.15611],[10.64712,49.1642],[10.61005,49.17901],[10.66017,49.19696],[10.6897,49.13455]],[[10.74394,49.02841],[10.6945,49.02796],[10.6842,49.04327],[10.66772,49.04507],[10.66704,49.05272],[10.68008,49.05632],[10.67596,49.06487],[10.69862,49.07072],[10.74188,49.05812],[10.73364,49.05092],[10.74394,49.02841]],[[10.8823,49.15319],[10.92075,49.13433],[10.91217,49.12669],[10.87337,49.13433],[10.85827,49.12984],[10.85449,49.13545],[10.8823,49.15319]],[[11.09276,49.03809],[11.07525,49.06397],[11.10855,49.07387],[11.13087,49.0534],[11.09276,49.03809]],[[10.8902,49.08691],[10.91457,49.06374],[10.88436,49.0597],[10.88127,49.07387],[10.8902,49.08691]],[[10.93552,49.33273],[10.9465,49.35018],[10.93277,49.35286],[10.93689,49.37701],[10.95406,49.38371],[10.97259,49.3788],[10.97534,49.39578],[10.99251,49.39533],[10.99594,49.37075],[10.97191,49.36046],[10.96779,49.34749],[10.99869,49.33631],[10.96229,49.32602],[10.93552,49.33273]],[[10.67116,49.28707],[10.65262,49.28617],[10.65193,49.29916],[10.69038,49.31035],[10.73502,49.3005],[10.74188,49.28304],[10.76591,49.28841],[10.77965,49.28035],[10.77415,49.25884],[10.73502,49.24495],[10.71785,49.24719],[10.6794,49.23105],[10.62103,49.23464],[10.6279,49.24585],[10.65536,49.25167],[10.67116,49.28707]],[[10.93552,49.2084],[10.93723,49.22298],[10.94685,49.22702],[10.94753,49.24876],[10.99422,49.26512],[11.02993,49.23172],[10.97156,49.2084],[10.93552,49.2084]],[[10.79132,49.22175],[10.81055,49.21838],[10.80557,49.20863],[10.78737,49.21233],[10.79132,49.22175]],[[10.47752,49.39712],[10.4789,49.4074],[10.43083,49.42393],[10.46997,49.45072],[10.55923,49.45116],[10.54207,49.43732],[10.54481,49.42616],[10.52353,49.41633],[10.53589,49.40874],[10.54344,49.41544],[10.58739,49.41231],[10.58533,49.39221],[10.47752,49.39712]],[[10.72884,49.45474],[10.7103,49.465],[10.68214,49.46455],[10.68283,49.47214],[10.70343,49.47348],[10.71304,49.49445],[10.73364,49.48775],[10.74737,49.45607],[10.72884,49.45474]],[[10.97259,49.52276],[10.9853,49.52031],[10.98942,49.49723],[11.01242,49.49422],[11.01791,49.48084],[11.01173,49.4592],[11.02993,49.42962],[11.04555,49.42895],[11.05911,49.41354],[11.00538,49.41377],[10.97534,49.45518],[10.92899,49.44514],[10.90221,49.45853],[10.95612,49.47772],[10.95097,49.50492],[10.97259,49.52276]]],[[[10.99766,48.87014],[11.0368,48.89994],[11.03542,48.90986],[10.99594,48.92927],[10.9417,48.90625],[10.95474,48.88052],[10.93637,48.85715],[10.97671,48.85726],[10.97946,48.87172],[10.99766,48.87014]]],[[[10.07172,49.58779],[10.22346,49.58356],[10.20081,49.59336],[10.20218,49.60448],[10.17403,49.59825],[10.16235,49.62183],[10.18364,49.65207],[10.18707,49.67918],[10.20973,49.67918],[10.21591,49.69384],[10.23445,49.69517],[10.23926,49.71383],[10.21866,49.72492],[10.15892,49.72315],[10.12321,49.69562],[10.17883,49.68718],[10.14793,49.64896],[10.09712,49.65518],[10.06142,49.64674],[10.0676,49.62406],[10.08751,49.62539],[10.07172,49.60671],[10.07172,49.58779]]]]}},{"type":"Feature","properties":{"NAME":"County of Drenthe","SUBJECTO":"Holy Roman Empire","PARTOF":"Holy Roman Empire","ADMIN_LEVEL":5,"OHM_RELATION_ID":2831685,"START_DATE":"1046","END_DATE":"1536-08-05"},"geometry":{"type":"MultiPolygon","coordinates":[[[[6.95327,52.63887],[6.97606,52.64593],[7.04179,52.63269],[7.05572,52.64342],[7.07155,52.81044],[7.09266,52.83821],[7.0873,52.84996],[7.05872,52.86416],[7.03537,52.92174],[6.76964,53.10062],[6.75934,53.14883],[6.62201,53.22782],[6.59454,53.25618],[6.54922,53.25125],[6.53206,53.2122],[6.48056,53.2085],[6.41601,53.1797],[6.381,53.14965],[6.36246,53.09567],[6.31233,53.09155],[6.30478,53.08165],[6.35765,53.06556],[6.36383,53.02635],[6.43387,52.97594],[6.41258,52.94491],[6.33774,52.90766],[6.29173,52.93002],[6.24985,52.92422],[6.20659,52.89068],[6.11732,52.8513],[6.1805,52.80359],[6.21483,52.7982],[6.21277,52.77245],[6.1338,52.73421],[6.15234,52.68845],[6.33293,52.66056],[6.38168,52.61431],[6.52245,52.61764],[6.51695,52.64681],[6.60072,52.67222],[6.70775,52.64884],[6.70166,52.62765],[6.74181,52.64532],[6.79007,52.65238],[6.81697,52.64741],[6.87276,52.65361],[6.91422,52.64608],[6.91791,52.63965],[6.95327,52.63887]]]]}},{"type":"Feature","properties":{"NAME":"County of Horne","SUBJECTO":"Holy Roman Empire","PARTOF":"Holy Roman Empire","ADMIN_LEVEL":5,"OHM_RELATION_ID":2831137,"START_DATE":"0920","END_DATE":"1797-10-17"},"geometry":{"type":"MultiPolygon","coordinates":[[[[5.90635,51.30025],[5.90618,51.29381],[5.85829,51.3113],[5.84404,51.27792],[5.83426,51.27437],[5.84107,51.24983],[5.85855,51.24037],[5.89339,51.23994],[5.89335,51.21664],[5.87569,51.18179],[5.85752,51.18096],[5.87193,51.16842],[5.92322,51.17159],[5.9174,51.17389],[5.93431,51.18814],[5.97665,51.20186],[5.96798,51.22038],[6.00643,51.23097],[5.99862,51.24913],[6.00652,51.25499],[6.00866,51.27776],[5.92489,51.30851],[5.90635,51.30025]]]]}},{"type":"Feature","properties":{"NAME":"County of Leiningen","SUBJECTO":"Holy Roman Empire","PARTOF":"Holy Roman Empire","ADMIN_LEVEL":4,"OHM_RELATION_ID":2830777,"START_DATE":"1093","END_DATE":"1797-10-17"},"geometry":{"type":"MultiPolygon","coordinates":[[[[8.16246,50.40679],[8.17756,50.40909],[8.1763,50.41784],[8.16368,50.42082],[8.15014,50.41274],[8.16246,50.40679]]],[[[7.99592,50.52511],[8.04038,50.55254],[8.02617,50.57314],[7.99315,50.57539],[7.99084,50.59389],[7.97055,50.601],[7.92626,50.57606],[7.93297,50.56461],[7.95616,50.56251],[7.96899,50.55196],[7.96683,50.5355],[7.99592,50.52511]]],[[[8.04234,49.51875],[8.01075,49.50916],[8.00182,49.4989],[7.9565,49.48909],[7.94998,49.48374],[7.95719,49.46344],[7.94311,49.45273],[7.95891,49.44179],[7.97813,49.45094],[7.98157,49.44291],[7.99461,49.44201],[7.99564,49.44893],[8.00732,49.44759],[8.01693,49.45764],[8.02757,49.44558],[7.99496,49.43308],[8.02139,49.43286],[7.99496,49.42348],[8.01144,49.4179],[8.02483,49.42348],[8.01865,49.39198],[7.98809,49.39087],[8.02448,49.36605],[8.0492,49.37477],[8.0444,49.38908],[8.02448,49.39668],[8.0595,49.40248],[8.08662,49.43799],[8.13229,49.4525],[8.11512,49.46143],[8.13366,49.46656],[8.15872,49.46277],[8.16147,49.45451],[8.22052,49.46322],[8.2188,49.46835],[8.25142,49.4824],[8.25829,49.49534],[8.19477,49.4945],[8.18447,49.50052],[8.19237,49.50431],[8.18859,49.51797],[8.17417,49.5173],[8.16833,49.52599],[8.21588,49.52465],[8.20507,49.55606],[8.18962,49.55528],[8.18584,49.58067],[8.21022,49.58334],[8.21022,49.59358],[8.23391,49.60448],[8.21468,49.60159],[8.20473,49.61204],[8.23151,49.61783],[8.20747,49.65274],[8.19099,49.65163],[8.19374,49.63606],[8.18413,49.63495],[8.18825,49.6185],[8.1292,49.61182],[8.12096,49.62094],[8.08765,49.61116],[8.07838,49.58952],[8.08671,49.57571],[8.11516,49.58465],[8.12757,49.57427],[8.12396,49.56759],[8.09392,49.56314],[8.10113,49.55423],[8.08044,49.54526],[8.10207,49.53256],[8.13503,49.56219],[8.13606,49.55462],[8.14911,49.5535],[8.15632,49.54415],[8.08525,49.51295],[8.07495,49.51852],[8.08937,49.52432],[8.0801,49.53301],[8.04234,49.51875]]],[[[8.27579,49.42281],[8.283,49.39332],[8.29124,49.39399],[8.30772,49.43018],[8.27991,49.43375],[8.27579,49.42281]]],[[[7.83325,49.38707],[7.83136,49.37287],[7.84836,49.36684],[7.87582,49.37634],[7.88544,49.38841],[7.90501,49.39355],[7.91943,49.38751],[7.93934,49.40852],[7.93041,49.42058],[7.92114,49.41991],[7.89127,49.40159],[7.87994,49.40986],[7.83325,49.38707]]],[[[7.70142,49.49846],[7.73815,49.47348],[7.75429,49.47616],[7.75532,49.4911],[7.71618,49.50359],[7.70142,49.49846]]],[[[8.05126,49.25212],[8.07598,49.24383],[8.10894,49.24697],[8.0825,49.25638],[8.05126,49.25212]]],[[[7.90569,49.11849],[7.92054,49.12927],[7.89883,49.14882],[7.90981,49.16363],[7.90123,49.17463],[7.87469,49.15346],[7.86273,49.15603],[7.86458,49.14404],[7.84475,49.13439],[7.85377,49.13158],[7.85952,49.11658],[7.90569,49.11849]]],[[[7.88836,49.19057],[7.90552,49.18872],[7.91479,49.17811],[7.93788,49.17716],[7.9511,49.18619],[7.91771,49.2102],[7.88836,49.19057]]],[[[7.52357,49.3334],[7.52804,49.29893],[7.55628,49.2729],[7.56804,49.27643],[7.57473,49.29121],[7.56409,49.3108],[7.584,49.33452],[7.58194,49.34459],[7.55962,49.35666],[7.52357,49.3334]]],[[[8.40002,49.80347],[8.38457,49.81736],[8.3321,49.81096],[8.33004,49.82957],[8.27064,49.80454],[8.22395,49.82226],[8.21537,49.81938],[8.25871,49.78769],[8.3551,49.78348],[8.40002,49.80347]]],[[[8.23837,49.84064],[8.23528,49.8289],[8.26069,49.82337],[8.27854,49.83289],[8.27923,49.84197],[8.23837,49.84064]]],[[[8.21571,49.72981],[8.19683,49.72204],[8.20301,49.71338],[8.26961,49.72404],[8.33828,49.72426],[8.33828,49.73713],[8.2909,49.74356],[8.21571,49.72981]]],[[[8.04028,49.83953],[8.02929,49.83068],[8.03032,49.80941],[8.04989,49.80121],[8.06259,49.8165],[8.05813,49.83577],[8.04028,49.83953]]],[[[7.93754,49.58807],[7.97028,49.59514],[7.9771,49.60821],[7.94406,49.60609],[7.92912,49.59519],[7.93754,49.58807]]]]}},{"type":"Feature","properties":{"NAME":"County of Montbéliard","SUBJECTO":"Holy Roman Empire","PARTOF":"Holy Roman Empire","ADMIN_LEVEL":5,"OHM_RELATION_ID":2812115,"START_DATE":"1042","END_DATE":"1796-08-07"},"geometry":{"type":"MultiPolygon","coordinates":[[[[6.71385,47.47127],[6.72758,47.48102],[6.77359,47.47301],[6.77925,47.48241],[6.79865,47.48519],[6.83796,47.48241],[6.84311,47.47243],[6.88431,47.46675],[6.9116,47.47649],[6.90783,47.48856],[6.91486,47.49842],[6.93117,47.49853],[6.93666,47.48345],[6.95349,47.48044],[6.95435,47.51233],[6.91246,47.52508],[6.91795,47.53088],[6.90971,47.54571],[6.89083,47.55498],[6.83453,47.54386],[6.80191,47.54687],[6.78715,47.53297],[6.75453,47.54061],[6.73187,47.55985],[6.74801,47.58417],[6.72054,47.60663],[6.68587,47.61334],[6.67969,47.62607],[6.69239,47.63254],[6.68587,47.66053],[6.66372,47.66458],[6.6275,47.68665],[6.58905,47.67487],[6.61034,47.66192],[6.62613,47.6263],[6.65531,47.61658],[6.6687,47.59621],[6.65428,47.58741],[6.66355,47.57768],[6.65428,47.57027],[6.6687,47.55626],[6.65394,47.53957],[6.68587,47.51535],[6.67591,47.50723],[6.67849,47.48601],[6.66904,47.47127],[6.69273,47.46175],[6.71385,47.47127]]],[[[6.79384,47.45427],[6.78715,47.41943],[6.79341,47.41008],[6.81212,47.41671],[6.83298,47.43865],[6.82955,47.45328],[6.79384,47.45427]]],[[[6.65977,47.47846],[6.63866,47.49076],[6.61755,47.48438],[6.61531,47.47266],[6.63016,47.46309],[6.6469,47.4657],[6.65977,47.47846]]]]}},{"type":"Feature","properties":{"NAME":"County/Principality of Neuchâtel","SUBJECTO":"Holy Roman Empire","PARTOF":"Holy Roman Empire","ADMIN_LEVEL":5,"OHM_RELATION_ID":2748494,"START_DATE":"1011","END_DATE":"1648-10-24"},"geometry":{"type":"MultiPolygon","coordinates":[[[[6.43637,46.92132],[6.46455,46.89028],[6.46065,46.85509],[6.48382,46.84687],[6.62956,46.88929],[6.65428,46.91369],[6.72226,46.93432],[6.71883,46.90384],[6.74148,46.89492],[6.73805,46.87052],[6.75384,46.86958],[6.77925,46.85362],[7.00172,46.98775],[7.03812,46.98025],[7.02713,47.00601],[7.03468,47.01397],[7.03331,47.0327],[7.08841,47.05972],[7.07717,47.07644],[7.0885,47.08269],[7.07571,47.09631],[7.04095,47.10881],[7.02885,47.10431],[7.02395,47.11266],[7.04078,47.12434],[7.02782,47.12715],[6.93066,47.10822],[6.8692,47.08742],[6.88886,47.13112],[6.8615,47.16559],[6.8061,47.13077],[6.74055,47.10962],[6.74667,47.09936],[6.73924,47.09057],[6.70305,47.0823],[6.70651,47.0744],[6.69521,47.06251],[6.72303,47.04714],[6.71368,47.04357],[6.71179,47.02211],[6.68956,47.00859],[6.60879,46.98312],[6.50483,46.96566],[6.4965,46.97411],[6.43266,46.92868],[6.43637,46.92132]]]]}},{"type":"Feature","properties":{"NAME":"Duchy of Bavaria","SUBJECTO":"Holy Roman Empire","PARTOF":"Holy Roman Empire","ADMIN_LEVEL":4,"OHM_RELATION_ID":2805255,"START_DATE":"0962","END_DATE":"1100"},"geometry":{"type":"MultiPolygon","coordinates":[[[[12.49695,50.36649],[12.40082,50.36999],[12.32666,50.41552],[12.09457,50.38225],[12.10556,50.34809],[12.08496,50.27179],[12.03689,50.22525],[11.88309,50.11618],[11.82403,50.05714],[11.84601,49.99185],[11.80755,49.95564],[11.78696,49.86278],[11.75674,49.83001],[11.68259,49.7786],[11.59332,49.76974],[11.52191,49.75288],[11.44913,49.70228],[11.353,49.67385],[11.2651,49.6205],[11.25275,49.58623],[11.16898,49.58579],[11.16417,49.59514],[11.09001,49.61471],[11.01242,49.60226],[10.98289,49.54348],[10.99113,49.48642],[11.00418,49.42214],[11.07628,49.32781],[11.0804,49.24585],[11.05499,49.21042],[11.01311,49.18754],[11.03851,49.10894],[11.12915,49.02076],[11.11267,48.97842],[11.12503,48.89],[11.1058,48.81952],[11.01791,48.82179],[10.90393,48.81093],[10.82859,48.75482],[10.86685,48.73355],[10.93826,48.7263],[10.99594,48.73174],[10.96023,48.67917],[10.9108,48.5157],[10.90393,48.45562],[10.97397,48.42829],[10.98358,48.38088],[11.02478,48.3745],[11.09344,48.32521],[11.01654,48.02484],[11.0852,47.88872],[10.96847,47.815],[10.9259,47.75595],[10.91629,47.66169],[10.89569,47.61357],[10.91492,47.61357],[10.92728,47.56726],[10.85449,47.49958],[10.84213,47.45131],[10.75836,47.41322],[10.75287,47.36301],[10.70892,47.35278],[10.643,47.3109],[10.58258,47.30065],[10.46585,47.19905],[10.42877,47.22517],[10.2681,47.20651],[10.2475,47.17291],[10.21042,47.17851],[10.12115,47.13743],[10.10055,46.984],[10.15205,46.85268],[10.23239,46.87287],[10.23994,46.92964],[10.30655,46.92635],[10.34912,46.98962],[10.39204,46.99993],[10.42791,46.97405],[10.42431,46.9587],[10.48508,46.94276],[10.48611,46.91064],[10.45212,46.80946],[10.42328,46.77749],[10.41744,46.70832],[10.38448,46.68784],[10.40474,46.63423],[10.48782,46.62209],[10.49057,46.56264],[10.4528,46.53069],[10.47924,46.49414],[10.54584,46.49343],[10.59614,46.46908],[10.6212,46.44791],[10.76454,46.48658],[10.79887,46.44448],[10.86204,46.43407],[11.09379,46.53679],[11.19026,46.50666],[11.22013,46.46861],[11.20468,46.35025],[11.16734,46.29174],[11.24421,46.2321],[11.34029,46.29737],[11.45222,46.33555],[11.48449,46.35972],[11.55762,46.34882],[11.56277,46.38033],[11.60122,46.38696],[11.64482,46.4913],[11.71623,46.51163],[11.74782,46.50525],[11.82828,46.50889],[11.9442,46.52934],[11.94935,46.53974],[11.9902,46.54564],[11.99741,46.5343],[12.04737,46.58435],[12.04428,46.60729],[12.06367,46.62174],[12.075,46.64349],[12.06565,46.65433],[12.06977,46.67535],[12.14152,46.63641],[12.16118,46.63683],[12.18307,46.62062],[12.19414,46.62191],[12.19208,46.59851],[12.1988,46.59819],[12.26065,46.62966],[12.28439,46.61731],[12.30718,46.61903],[12.37009,46.6644],[12.36048,46.68996],[12.28083,46.72786],[12.27997,46.73457],[12.31052,46.75656],[12.31018,46.78408],[12.28598,46.78431],[12.30503,46.8346],[12.27653,46.88507],[12.24666,46.89094],[12.21886,46.87827],[12.19208,46.90478],[12.15019,46.91088],[12.16186,46.9587],[12.13165,47.02427],[12.19208,47.06825],[12.2525,47.08883],[12.28546,47.13649],[12.33215,47.12715],[12.39258,47.16358],[12.49969,47.16451],[12.60681,47.13649],[12.6329,47.11687],[12.72972,47.13556],[12.74414,47.10192],[12.93983,47.07994],[12.96249,47.04065],[13.06824,47.01772],[13.24745,47.05094],[13.24333,47.08742],[13.36761,47.10285],[13.40332,47.06451],[13.53515,47.02053],[13.74939,47.0018],[13.85445,46.92307],[13.90938,46.95167],[13.98216,46.9512],[14.0625,46.99056],[14.06731,47.03223],[14.21081,47.06919],[14.23279,47.10472],[14.20532,47.14023],[14.15588,47.16918],[14.10644,47.23542],[14.08035,47.29507],[14.03229,47.34627],[13.94028,47.41043],[13.74664,47.50607],[13.83316,47.58116],[13.96774,47.61079],[14.05701,47.65984],[14.16,47.65059],[14.33166,47.67001],[14.33441,47.79009],[14.28085,47.815],[14.2836,47.84358],[14.3605,47.86109],[14.38934,47.9145],[14.52804,47.88965],[14.65851,47.82791],[14.72854,47.82514],[14.75876,47.76979],[14.81026,47.76056],[14.85077,47.7721],[14.92355,47.75872],[14.9881,47.77256],[15.02655,47.77256],[15.07873,47.79471],[15.15221,47.78087],[15.26138,47.79378],[15.29709,47.84635],[15.39459,47.84312],[15.4406,47.82007],[15.49965,47.82653],[15.60033,47.79923],[15.65277,47.81777],[15.6308,47.87675],[15.65723,47.90438],[15.75858,47.93472],[15.81207,47.989],[15.88623,47.99727],[15.93017,48.03402],[15.89722,48.06799],[15.96451,48.1386],[15.95764,48.20546],[16.03042,48.26857],[16.12518,48.32247],[16.15951,48.36264],[16.25427,48.36446],[16.3298,48.32978],[16.34628,48.25028],[16.45752,48.1725],[16.65253,48.10835],[16.73492,48.1276],[16.79809,48.11293],[16.90658,48.13035],[16.97622,48.17213],[16.9107,48.31289],[16.84427,48.35944],[16.8568,48.46792],[16.94126,48.53889],[16.9471,48.61816],[16.85775,48.62996],[16.77852,48.68348],[16.76239,48.72041],[16.68239,48.72223],[16.5715,48.75144],[16.5176,48.75551],[16.45203,48.71974],[16.36242,48.7066],[16.27727,48.70818],[16.20071,48.72087],[16.14716,48.73853],[16.10184,48.74125],[15.96588,48.79556],[15.96039,48.82133],[15.78117,48.87589],[15.75989,48.85161],[15.71869,48.84213],[15.67749,48.8602],[15.61638,48.91844],[15.55527,48.91348],[15.49828,48.96399],[15.43716,48.95452],[15.39871,48.97211],[15.36095,48.96444],[15.35339,48.98608],[15.32318,48.97954],[15.29486,48.95576],[15.21503,48.94099],[15.19718,48.95317],[15.21469,48.96399],[15.20267,48.97481],[15.09384,48.98022],[15.06775,49.01356],[14.99634,49.0077],[14.97436,48.94415],[14.98913,48.90039],[14.94467,48.8935],[14.89197,48.91094],[14.87429,48.83987],[14.8106,48.7942],[14.73541,48.69912],[14.70468,48.58507],[14.6616,48.58365],[14.6125,48.63041],[14.55791,48.60749],[14.47758,48.64766],[14.45045,48.64267],[14.435,48.5891],[14.38728,48.595],[14.33304,48.55343],[14.26712,48.58433],[14.05151,48.6059],[14.01821,48.64493],[14.05254,48.65423],[14.06147,48.67487],[14.00207,48.70546],[13.94062,48.72472],[13.87195,48.7718],[13.80501,48.77452],[13.81565,48.79872],[13.73428,48.88459],[13.67695,48.87668],[13.62511,48.93716],[13.63163,48.94596],[13.52554,48.97571],[13.48846,48.93694],[13.40195,48.97571],[13.41843,49.00905],[13.34427,49.09365],[13.29895,49.12602],[13.22342,49.11883],[13.17123,49.1817],[13.06686,49.26781],[13.03322,49.26668],[13.03665,49.30722],[12.90996,49.34257],[12.79289,49.34392],[12.71667,49.42594],[12.67341,49.42728],[12.64595,49.47906],[12.65075,49.52164],[12.58758,49.72981],[12.49969,49.7156],[12.46399,49.8309],[12.47772,49.90348],[12.51892,49.99009],[12.4942,50.10825],[12.43652,50.1681],[12.55737,50.23842],[12.55737,50.30513],[12.49695,50.36649]]]]}},{"type":"Feature","properties":{"NAME":"Duchy of Bohemia","SUBJECTO":"Holy Roman Empire","PARTOF":"Holy Roman Empire","ADMIN_LEVEL":4,"OHM_RELATION_ID":2805282,"START_DATE":"1017","END_DATE":"1100"},"geometry":{"type":"MultiPolygon","coordinates":[[[[16.9471,48.61816],[16.9813,48.6826],[17.04323,48.7623],[17.08717,48.78153],[17.11807,48.82902],[17.20596,48.87556],[17.38106,48.81003],[17.46414,48.84032],[17.50122,48.81048],[17.71133,48.8611],[17.79236,48.92791],[17.88574,48.92972],[17.93106,49.02256],[18.08075,49.04237],[18.13431,49.23643],[18.18786,49.28662],[18.38081,49.32602],[18.41309,49.3712],[18.40553,49.39802],[18.43918,49.39533],[18.54569,49.46935],[18.46184,49.45474],[18.36639,49.56553],[18.36021,49.66607],[18.31833,49.68896],[18.28297,49.78769],[18.2764,49.8635],[18.32056,49.89425],[18.34476,49.9426],[18.26649,49.99075],[18.17551,49.99362],[18.12195,50.03068],[18.08212,50.12058],[18.04092,50.16019],[17.99972,50.24545],[17.9393,50.26389],[17.73193,50.1725],[17.66601,50.18306],[17.58224,50.20855],[17.48337,50.19361],[17.40921,50.2393],[17.35428,50.25335],[17.20459,50.22085],[17.01782,50.24721],[17.00512,50.25357],[17.0216,50.28254],[16.96941,50.31516],[16.94401,50.31511],[16.91002,50.38959],[16.87088,50.40852],[16.82625,50.39583],[16.48292,50.67862],[16.38336,50.6377],[16.33873,50.66513],[16.23161,50.67079],[16.21582,50.63466],[16.18149,50.62943],[16.09978,50.66252],[16.02579,50.59849],[15.98751,50.61309],[16.0124,50.63226],[15.98339,50.69575],[15.87318,50.67079],[15.81825,50.75427],[15.71594,50.73733],[15.43785,50.81331],[15.38694,50.77545],[15.35888,50.85451],[15.27855,50.89567],[14.8645,50.83543],[14.64752,50.87011],[14.6228,50.97054],[14.38934,50.974],[14.35913,50.91689],[14.19708,50.85624],[13.82492,50.77121],[13.63266,50.74862],[13.56399,50.68254],[13.53653,50.62159],[13.45001,50.6242],[13.39508,50.65381],[13.30719,50.6242],[13.14926,50.51255],[13.06412,50.54049],[13.02429,50.43739],[12.88147,50.44089],[12.79976,50.40983],[12.70363,50.40633],[12.65968,50.42514],[12.51137,50.39101],[12.49695,50.36649],[12.55737,50.30513],[12.55737,50.23842],[12.43652,50.1681],[12.4942,50.10825],[12.51892,49.99009],[12.47772,49.90348],[12.46399,49.8309],[12.49969,49.7156],[12.58758,49.72981],[12.65075,49.52164],[12.64595,49.47906],[12.67341,49.42728],[12.71667,49.42594],[12.79289,49.34392],[12.90996,49.34257],[13.03665,49.30722],[13.03322,49.26668],[13.06686,49.26781],[13.17123,49.1817],[13.22342,49.11883],[13.29895,49.12602],[13.34427,49.09365],[13.41843,49.00905],[13.40195,48.97571],[13.48846,48.93694],[13.52554,48.97571],[13.63163,48.94596],[13.62511,48.93716],[13.67695,48.87668],[13.73428,48.88459],[13.81565,48.79872],[13.80501,48.77452],[13.87195,48.7718],[13.94062,48.72472],[14.00207,48.70546],[14.06147,48.67487],[14.05254,48.65423],[14.01821,48.64493],[14.05151,48.6059],[14.26712,48.58433],[14.33304,48.55343],[14.38728,48.595],[14.435,48.5891],[14.45045,48.64267],[14.47758,48.64766],[14.55791,48.60749],[14.6125,48.63041],[14.6616,48.58365],[14.70468,48.58507],[14.73541,48.69912],[14.8106,48.7942],[14.87429,48.83987],[14.89197,48.91094],[14.94467,48.8935],[14.98913,48.90039],[14.97436,48.94415],[14.99634,49.0077],[15.06775,49.01356],[15.09384,48.98022],[15.20267,48.97481],[15.21469,48.96399],[15.19718,48.95317],[15.21503,48.94099],[15.29486,48.95576],[15.32318,48.97954],[15.35339,48.98608],[15.36095,48.96444],[15.39871,48.97211],[15.43716,48.95452],[15.49828,48.96399],[15.55527,48.91348],[15.61638,48.91844],[15.67749,48.8602],[15.71869,48.84213],[15.75989,48.85161],[15.78117,48.87589],[15.96039,48.82133],[15.96588,48.79556],[16.10184,48.74125],[16.14716,48.73853],[16.20071,48.72087],[16.27727,48.70818],[16.36242,48.7066],[16.45203,48.71974],[16.5176,48.75551],[16.5715,48.75144],[16.68239,48.72223],[16.76239,48.72041],[16.77852,48.68348],[16.85775,48.62996],[16.9471,48.61816]]]]}},{"type":"Feature","properties":{"NAME":"Duchy of Franconia","SUBJECTO":"Holy Roman Empire","PARTOF":"Holy Roman Empire","ADMIN_LEVEL":4,"OHM_RELATION_ID":2890059,"START_DATE":"0939-10-02","END_DATE":"1168"},"geometry":{"type":"MultiPolygon","coordinates":[[[[7.85797,50.93507],[7.84012,50.85364],[7.81265,50.82502],[7.7948,50.7521],[7.91427,50.73733],[7.95273,50.69646],[7.94449,50.66078],[7.88544,50.65817],[7.83874,50.60503],[7.77008,50.59719],[7.69455,50.66513],[7.64648,50.67993],[7.53937,50.66861],[7.45697,50.57539],[7.39892,50.44283],[7.52289,50.41552],[7.57782,50.34721],[7.63275,50.15403],[7.32513,50.02539],[7.22076,49.91675],[7.23175,49.84861],[7.20154,49.80609],[7.14661,49.7786],[7.09167,49.76441],[7.14386,49.71294],[7.23312,49.6934],[7.27707,49.65163],[7.27364,49.62406],[7.24308,49.59536],[7.26952,49.56041],[7.25647,49.54883],[7.25578,49.53412],[7.20978,49.54615],[7.17956,49.54259],[7.1878,49.50782],[7.21527,49.4882],[7.22694,49.46857],[7.29217,49.46946],[7.32239,49.4467],[7.39311,49.44893],[7.4453,49.41142],[7.44942,49.39712],[7.48718,49.39221],[7.50641,49.37299],[7.50709,49.34928],[7.53662,49.35018],[7.57233,49.31886],[7.60254,49.3117],[7.62588,49.27856],[7.65884,49.27497],[7.71103,49.23284],[7.69523,49.13433],[7.72785,49.12804],[7.77695,49.10355],[7.82089,49.09545],[7.8772,49.06397],[7.87582,49.04327],[7.90192,49.01085],[7.97058,48.99824],[8.03238,48.96309],[8.19443,48.96399],[8.20267,48.94054],[8.13263,48.82947],[8.18207,48.80415],[8.26721,48.79239],[8.35647,48.66376],[8.40729,48.65287],[8.44711,48.67555],[8.48007,48.67011],[8.51852,48.68552],[8.535,48.75076],[8.6737,48.75981],[8.80279,48.72041],[8.84674,48.76434],[8.9154,48.79058],[8.95111,48.77339],[8.99505,48.80506],[9.11865,48.81862],[9.13238,48.87826],[9.3631,48.88188],[9.36859,48.89903],[9.43863,48.89181],[9.47571,48.91799],[9.59656,48.91979],[9.63776,48.96039],[9.7586,48.97661],[9.84924,49.00365],[9.96597,49.00905],[10.02228,49.04327],[10.10193,49.02706],[10.15961,49.05137],[10.17746,49.09815],[10.21591,49.11343],[10.23239,49.14848],[10.19531,49.17362],[10.16373,49.23912],[10.23376,49.25705],[10.34912,49.25974],[10.40405,49.14668],[10.45486,49.12692],[10.47546,49.08286],[10.55099,49.06577],[10.60112,49.02121],[10.62378,48.98833],[10.61485,48.92476],[10.66429,48.88233],[10.66429,48.82088],[10.74394,48.77746],[10.82859,48.75482],[10.90393,48.81093],[11.01791,48.82179],[11.1058,48.81952],[11.12503,48.89],[11.11267,48.97842],[11.12915,49.02076],[11.03851,49.10894],[11.01311,49.18754],[11.05499,49.21042],[11.0804,49.24585],[11.07628,49.32781],[11.00418,49.42214],[10.99113,49.48642],[10.98289,49.54348],[11.01242,49.60226],[11.09001,49.61471],[11.16417,49.59514],[11.16898,49.58579],[11.25275,49.58623],[11.2651,49.6205],[11.353,49.67385],[11.44913,49.70228],[11.52191,49.75288],[11.59332,49.76974],[11.68259,49.7786],[11.75674,49.83001],[11.78696,49.86278],[11.80755,49.95564],[11.84601,49.99185],[11.82403,50.05714],[11.88309,50.11618],[12.03689,50.22525],[12.08496,50.27179],[12.10556,50.34809],[12.09457,50.38225],[11.97922,50.45488],[11.74576,50.45313],[11.651,50.43389],[11.54251,50.43389],[11.4711,50.46013],[11.37771,50.46712],[11.27472,50.49596],[11.04538,50.4881],[10.96847,50.51517],[10.9314,50.55271],[10.94238,50.58847],[10.96985,50.61462],[10.92316,50.65381],[10.68283,50.71124],[10.51117,50.77034],[10.46722,50.82936],[10.4125,50.84994],[10.36697,50.82502],[10.34637,50.7351],[10.28397,50.74363],[10.16922,50.73124],[10.04562,50.74949],[9.96185,50.8068],[9.95499,50.85538],[9.89044,50.93766],[9.89593,51.00684],[9.84238,51.05262],[9.79431,51.07333],[9.77234,51.18795],[9.79019,51.21893],[9.76959,51.28941],[9.71329,51.32117],[9.68994,51.39835],[9.73389,51.40178],[9.72565,51.42148],[9.65698,51.44459],[9.55124,51.42062],[9.5018,51.42918],[9.47433,51.45401],[9.22714,51.44973],[9.02527,51.33919],[9.01703,51.28597],[8.8948,51.2791],[8.65585,51.09059],[8.60367,51.09921],[8.52676,51.0742],[8.46771,51.08714],[8.46084,51.138],[8.34137,51.13111],[8.30978,51.09662],[8.23425,51.08369],[8.20129,51.09576],[8.17657,51.02585],[7.9438,51.02023],[7.93899,50.97443],[7.95135,50.95151],[7.93281,50.92728],[7.85797,50.93507]]]]}},{"type":"Feature","properties":{"NAME":"Duchy of Lower Lotharingia","SUBJECTO":"Holy Roman Empire","PARTOF":"Holy Roman Empire","ADMIN_LEVEL":4,"OHM_RELATION_ID":2805253,"START_DATE":"0959","END_DATE":"1190"},"geometry":{"type":"MultiPolygon","coordinates":[[[[3.09128,50.12102],[3.10295,50.08226],[3.13642,50.05758],[3.26088,50.05185],[3.36182,50.02848],[3.46824,50.05097],[3.53142,50.03906],[3.64753,50.04648],[3.18612,50.18978],[3.13076,50.18108],[3.09128,50.12102]]],[[[3.46619,50.77077],[4.10039,51.03756],[4.067,51.04873],[4.00864,51.00641],[3.91972,51.01678],[3.81637,50.99129],[3.76934,51.04852],[3.73844,51.04701],[3.72196,51.00015],[3.6866,50.95756],[3.64986,50.95475],[3.65879,50.92035],[3.68797,50.9078],[3.67836,50.89004],[3.63132,50.88073],[3.62411,50.85364],[3.57639,50.82177],[3.55476,50.81939],[3.46619,50.77077]]],[[[3.64753,50.04648],[3.79783,49.9998],[3.6557,50.047],[3.64753,50.04648]]],[[[4.14324,51.05559],[4.17343,51.03146],[4.19266,51.03492],[4.19746,51.05693],[4.18583,51.0735],[4.14324,51.05559]]],[[[4.17686,51.08627],[4.18583,51.0735],[4.32175,51.13068],[4.2572,51.1143],[4.216,51.12033],[4.18236,51.10007],[4.17686,51.08627]]],[[[4.24205,51.35392],[4.2675,51.33576],[4.84771,49.79545],[5.75683,49.83267],[6.01501,49.85038],[6.15509,49.89464],[6.27319,49.97949],[6.24847,50.0924],[6.2622,50.23315],[6.37481,50.30162],[6.56707,50.29811],[6.63299,50.19624],[6.7868,50.20855],[6.95709,50.26301],[7.07245,50.43652],[7.229,50.48023],[7.39892,50.44283],[7.45697,50.57539],[7.53937,50.66861],[7.64648,50.67993],[7.69455,50.66513],[7.77008,50.59719],[7.83874,50.60503],[7.88544,50.65817],[7.94449,50.66078],[7.95273,50.69646],[7.91427,50.73733],[7.7948,50.7521],[7.81265,50.82502],[7.84012,50.85364],[7.85797,50.93507],[7.72613,51.00079],[7.71652,51.05693],[7.68219,51.0811],[7.61078,51.0811],[7.48718,51.12594],[7.42126,51.21549],[7.23381,51.25289],[7.13287,51.29628],[6.93237,51.43775],[6.73874,51.51302],[6.70647,51.61802],[6.79916,51.64018],[6.94645,51.66084],[6.96327,51.67128],[6.9334,51.70108],[6.75213,51.76019],[6.63231,51.73596],[6.49017,51.82241],[6.41876,51.7519],[6.35353,51.75445],[6.33499,51.76168],[6.30547,51.80522],[6.25053,51.82644],[6.11252,51.84596],[6.01227,51.88285],[5.97107,51.85402],[5.91682,51.87564],[5.86464,51.85105],[5.70121,51.89472],[5.60028,51.89514],[5.4657,51.92395],[5.42106,51.91802],[5.4911,51.82968],[5.53951,51.81753],[5.55187,51.82729],[5.59414,51.82878],[5.6432,51.8188],[5.66311,51.7946],[5.73555,51.76975],[5.75958,51.75233],[5.55359,51.6964],[5.28305,51.64444],[5.21645,51.65254],[4.98367,51.64231],[4.85269,51.6684],[4.64035,51.62654],[4.48791,51.6129],[4.49341,51.49934],[4.47281,51.47454],[4.49066,51.39492],[4.43573,51.35978],[4.24205,51.35392]]]]}},{"type":"Feature","properties":{"NAME":"Duchy of Saxony","SUBJECTO":"Holy Roman Empire","PARTOF":"Holy Roman Empire","ADMIN_LEVEL":4,"OHM_RELATION_ID":2805386,"START_DATE":"0804","END_DATE":"1180"},"geometry":{"type":"MultiPolygon","coordinates":[[[[8.51955,54.02355],[8.52269,54.0117],[8.38604,54.02513],[8.32993,54.02179],[8.28091,53.99566],[8.26398,53.9585],[8.26826,53.93855],[8.28775,53.91134],[8.58169,53.80633],[8.60504,53.54888],[8.4993,53.49295],[8.48694,53.37268],[8.30017,53.36449],[8.26309,53.34153],[8.20404,53.33989],[8.2164,53.35465],[8.17108,53.38742],[8.12302,53.37678],[8.09143,53.35547],[8.02551,53.3653],[7.94311,53.33251],[7.79205,53.21919],[7.76871,53.18217],[7.67807,53.169],[7.62176,53.14512],[7.62314,53.11216],[7.61215,53.07712],[7.53662,53.05566],[7.44461,53.08908],[7.20277,53.1134],[7.03606,53.0965],[6.99554,53.13235],[6.93924,53.12535],[6.91315,53.08248],[6.84173,53.07918],[6.82251,53.03956],[6.85821,52.94864],[7.00927,52.88239],[7.05597,52.8177],[7.03537,52.62931],[7.08687,52.5847],[7.08755,52.55131],[6.9928,52.51455],[7.04773,52.23789],[7.02026,52.20593],[6.8692,52.17562],[6.83075,52.11325],[6.73462,52.11157],[6.53686,52.17393],[6.33018,52.08626],[6.23749,51.98657],[6.27594,51.89853],[6.49017,51.82241],[6.63231,51.73596],[6.75213,51.76019],[6.9334,51.70108],[6.96327,51.67128],[6.94645,51.66084],[6.79916,51.64018],[6.70647,51.61802],[6.73874,51.51302],[6.93237,51.43775],[7.13287,51.29628],[7.23381,51.25289],[7.42126,51.21549],[7.48718,51.12594],[7.61078,51.0811],[7.68219,51.0811],[7.71652,51.05693],[7.72613,51.00079],[7.85797,50.93507],[7.93281,50.92728],[7.95135,50.95151],[7.93899,50.97443],[7.9438,51.02023],[8.17657,51.02585],[8.20129,51.09576],[8.23425,51.08369],[8.30978,51.09662],[8.34137,51.13111],[8.46084,51.138],[8.46771,51.08714],[8.52676,51.0742],[8.60367,51.09921],[8.65585,51.09059],[8.8948,51.2791],[9.01703,51.28597],[9.02527,51.33919],[9.22714,51.44973],[9.47433,51.45401],[9.5018,51.42918],[9.55124,51.42062],[9.65698,51.44459],[9.72565,51.42148],[9.73389,51.40178],[9.8616,51.33833],[10.01816,51.44459],[10.27908,51.48566],[10.38483,51.55146],[10.43461,51.56555],[10.52868,51.56533],[10.54001,51.58475],[10.5304,51.61034],[10.53657,51.64274],[10.6073,51.71512],[10.71716,51.69299],[10.85998,51.63592],[11.19369,51.61802],[11.30768,51.58048],[11.42578,51.52754],[11.46801,51.4615],[11.34064,51.41805],[11.33377,51.3379],[11.44981,51.27996],[11.53702,51.26879],[11.57719,51.29757],[11.64894,51.28361],[11.63521,51.24859],[11.67297,51.25117],[11.67847,51.22882],[11.73717,51.20796],[11.76086,51.21119],[11.80269,51.17629],[11.82936,51.17192],[11.83022,51.15749],[11.85253,51.15394],[11.86729,51.16255],[11.86129,51.18655],[11.90334,51.18655],[11.92617,51.20269],[11.97372,51.20581],[12.02248,51.23849],[12.06161,51.29155],[12.03466,51.33072],[12.01527,51.34209],[11.92154,51.44481],[11.9596,51.47892],[11.94317,51.52092],[11.89167,51.53609],[11.82816,51.53096],[11.82987,51.5728],[11.76224,51.58731],[11.75331,51.65573],[11.66714,51.71831],[11.71177,51.74149],[11.70319,51.78462],[11.78146,51.80373],[11.76567,51.86208],[11.79932,51.91336],[11.92137,51.94523],[11.88,51.98403],[11.89133,52.00623],[11.87897,52.02609],[11.85631,52.02483],[11.84086,52.00834],[11.71452,52.04278],[11.64525,52.12284],[11.67521,52.15598],[11.71692,52.26312],[11.78009,52.33198],[11.86249,52.35128],[11.94076,52.39572],[12.00119,52.44597],[11.9957,52.49031],[11.97235,52.5346],[11.99982,52.56884],[12.02865,52.62473],[12.05337,52.74793],[12.01355,52.86499],[11.92154,52.89731],[11.88034,52.89565],[11.86798,52.93291],[11.84051,52.96022],[11.65375,52.99578],[11.60019,53.03791],[11.51058,53.04761],[11.44775,53.07938],[11.33995,53.05442],[11.24677,53.1361],[11.21782,53.14462],[11.1864,53.13522],[11.1718,53.15665],[11.14949,53.16823],[11.13147,53.16669],[11.09224,53.13761],[10.99731,53.17518],[10.8926,53.24139],[10.80643,53.25946],[10.72884,53.3036],[10.74257,53.32893],[10.72999,53.35227],[10.69952,53.36907],[10.59489,53.36364],[10.62241,53.38169],[10.64918,53.44676],[10.69107,53.50275],[10.68695,53.5501],[10.61005,53.57212],[10.56885,53.61125],[10.5455,53.69264],[10.55237,53.77956],[10.47134,53.88815],[10.4892,53.96417],[10.47409,54.03762],[10.36972,54.08598],[10.3759,54.11255],[10.32715,54.11658],[10.31616,54.15841],[10.40268,54.16806],[10.39718,54.23393],[10.31616,54.24758],[10.26123,54.32533],[10.21728,54.35496],[10.17265,54.29128],[10.13763,54.28206],[10.08751,54.20503],[10.03189,54.21426],[10.05661,54.28687],[10.03464,54.31252],[9.96322,54.30691],[9.92065,54.32233],[9.92306,54.36976],[9.79225,54.36256],[9.71054,54.31652],[9.65149,54.3009],[9.59724,54.22149],[9.54695,54.19539],[9.44103,54.17389],[9.44412,54.25119],[9.37614,54.28968],[9.28825,54.27004],[9.25735,54.32974],[9.13479,54.32213],[9.09153,54.36516],[9.00639,54.37626],[8.89687,54.26322],[8.79438,54.26923],[8.73362,54.24988],[8.53125,54.22109],[8.52928,54.19342],[8.54182,54.16901],[8.52865,54.15243],[8.52655,54.12393],[8.51157,54.09715],[8.52113,54.06056],[8.51955,54.02355]]]]}},{"type":"Feature","properties":{"NAME":"Duchy of Swabia","SUBJECTO":"Holy Roman Empire","PARTOF":"Holy Roman Empire","ADMIN_LEVEL":4,"OHM_RELATION_ID":2805256,"START_DATE":"0922","END_DATE":"1268-10-28"},"geometry":{"type":"MultiPolygon","coordinates":[[[[7.69523,49.13433],[7.59155,49.06577],[7.59018,49.04327],[7.5325,49.01896],[7.49679,49.01896],[7.33886,48.94235],[7.32651,48.91799],[7.33406,48.90129],[7.35809,48.89271],[7.34985,48.86291],[7.21527,48.81229],[7.1933,48.77701],[7.22763,48.74623],[7.17956,48.71996],[7.18506,48.65559],[7.24136,48.61385],[7.22763,48.54752],[7.18506,48.51661],[7.17132,48.46655],[7.13425,48.46017],[7.10953,48.38179],[7.17132,48.35716],[7.19879,48.30786],[7.12051,48.24068],[7.12188,48.17479],[7.09236,48.14868],[7.07794,48.10239],[7.02438,48.04137],[6.96121,48.02208],[6.96945,47.93475],[6.89314,47.83616],[6.82295,47.81376],[6.74148,47.7541],[6.76071,47.6996],[6.71608,47.67094],[6.78955,47.59783],[6.83899,47.61218],[6.89392,47.65336],[7.18918,47.52277],[7.16171,47.48473],[7.33475,47.44667],[7.4295,47.46245],[7.53525,47.54316],[7.57233,47.61172],[7.61764,47.61913],[7.69317,47.57838],[7.80304,47.59783],[7.85385,47.62005],[7.92938,47.61264],[7.96509,47.59135],[8.18344,47.65706],[8.25485,47.59042],[8.27545,47.46431],[8.36059,47.41601],[8.42926,47.28296],[8.44299,47.20278],[8.38806,47.1421],[8.35235,47.04393],[8.36609,46.81886],[8.4526,46.77467],[8.4581,46.70691],[8.42789,46.66358],[8.42518,46.55763],[8.46436,46.53645],[8.63251,46.60511],[8.74649,46.63152],[8.83575,46.6136],[8.89343,46.42271],[8.86322,46.38483],[8.93051,46.28812],[8.94562,46.17983],[8.92776,46.13036],[9.00879,46.14844],[9.10766,46.14654],[9.24774,46.253],[9.45373,46.26914],[9.55261,46.32797],[9.6817,46.34219],[9.75586,46.40662],[9.86023,46.42555],[9.93988,46.48043],[10.00854,46.49178],[10.10673,46.60511],[10.23994,46.63247],[10.33333,46.54658],[10.4528,46.53069],[10.49057,46.56264],[10.48782,46.62209],[10.40474,46.63423],[10.38448,46.68784],[10.41744,46.70832],[10.42328,46.77749],[10.45212,46.80946],[10.48611,46.91064],[10.48508,46.94276],[10.42431,46.9587],[10.42791,46.97405],[10.39204,46.99993],[10.34912,46.98962],[10.30655,46.92635],[10.23994,46.92964],[10.23239,46.87287],[10.15205,46.85268],[10.10055,46.984],[10.12115,47.13743],[10.21042,47.17851],[10.2475,47.17291],[10.2681,47.20651],[10.42877,47.22517],[10.46585,47.19905],[10.58258,47.30065],[10.643,47.3109],[10.70892,47.35278],[10.75287,47.36301],[10.75836,47.41322],[10.84213,47.45131],[10.85449,47.49958],[10.92728,47.56726],[10.91492,47.61357],[10.89569,47.61357],[10.91629,47.66169],[10.9259,47.75595],[10.96847,47.815],[11.0852,47.88872],[11.01654,48.02484],[11.09344,48.32521],[11.02478,48.3745],[10.98358,48.38088],[10.97397,48.42829],[10.90393,48.45562],[10.9108,48.5157],[10.96023,48.67917],[10.99594,48.73174],[10.93826,48.7263],[10.86685,48.73355],[10.82859,48.75482],[10.74394,48.77746],[10.66429,48.82088],[10.66429,48.88233],[10.61485,48.92476],[10.62378,48.98833],[10.60112,49.02121],[10.55099,49.06577],[10.47546,49.08286],[10.45486,49.12692],[10.40405,49.14668],[10.34912,49.25974],[10.23376,49.25705],[10.16373,49.23912],[10.19531,49.17362],[10.23239,49.14848],[10.21591,49.11343],[10.17746,49.09815],[10.15961,49.05137],[10.10193,49.02706],[10.02228,49.04327],[9.96597,49.00905],[9.84924,49.00365],[9.7586,48.97661],[9.63776,48.96039],[9.59656,48.91979],[9.47571,48.91799],[9.43863,48.89181],[9.36859,48.89903],[9.3631,48.88188],[9.13238,48.87826],[9.11865,48.81862],[8.99505,48.80506],[8.95111,48.77339],[8.9154,48.79058],[8.84674,48.76434],[8.80279,48.72041],[8.6737,48.75981],[8.535,48.75076],[8.51852,48.68552],[8.48007,48.67011],[8.44711,48.67555],[8.40729,48.65287],[8.35647,48.66376],[8.26721,48.79239],[8.18207,48.80415],[8.13263,48.82947],[8.20267,48.94054],[8.19443,48.96399],[8.03238,48.96309],[7.97058,48.99824],[7.90192,49.01085],[7.87582,49.04327],[7.8772,49.06397],[7.82089,49.09545],[7.77695,49.10355],[7.72785,49.12804],[7.69523,49.13433]]]]}},{"type":"Feature","properties":{"NAME":"Duchy of Thuringia","SUBJECTO":"Holy Roman Empire","PARTOF":"Holy Roman Empire","ADMIN_LEVEL":4,"OHM_RELATION_ID":2805287,"START_DATE":"0962","END_DATE":"1100"},"geometry":{"type":"MultiPolygon","coordinates":[[[[11.50422,50.44796],[11.49685,50.48416],[11.53633,50.51452],[11.57719,50.53809],[11.67073,50.56858],[11.6407,50.5998],[11.65375,50.63618],[11.69151,50.66121],[11.77872,50.65991],[11.88309,50.69602],[11.97029,50.76817],[11.98471,50.81288],[11.88652,50.8324],[11.55624,50.78076],[11.61667,50.84671],[11.58131,50.91516],[11.66817,50.98869],[11.69392,51.02455],[11.67744,51.04442],[11.70954,51.05154],[11.66697,51.10913],[11.70919,51.1115],[11.71966,51.14446],[11.77442,51.15685],[11.80269,51.17629],[11.76086,51.21119],[11.73717,51.20796],[11.67847,51.22882],[11.67297,51.25117],[11.63521,51.24859],[11.64894,51.28361],[11.57719,51.29757],[11.53702,51.26879],[11.44981,51.27996],[11.33377,51.3379],[11.34064,51.41805],[11.46801,51.4615],[11.42578,51.52754],[11.30768,51.58048],[11.19369,51.61802],[10.85998,51.63592],[10.71716,51.69299],[10.6073,51.71512],[10.53657,51.64274],[10.5304,51.61034],[10.54001,51.58475],[10.52868,51.56533],[10.43461,51.56555],[10.38483,51.55146],[10.27908,51.48566],[10.01816,51.44459],[9.8616,51.33833],[9.73389,51.40178],[9.68994,51.39835],[9.71329,51.32117],[9.76959,51.28941],[9.79019,51.21893],[9.77234,51.18795],[9.79431,51.07333],[9.84238,51.05262],[9.89593,51.00684],[9.89044,50.93766],[9.95499,50.85538],[9.96185,50.8068],[10.04562,50.74949],[10.16922,50.73124],[10.28397,50.74363],[10.34637,50.7351],[10.36697,50.82502],[10.4125,50.84994],[10.46722,50.82936],[10.51117,50.77034],[10.68283,50.71124],[10.92316,50.65381],[10.96985,50.61462],[10.94238,50.58847],[10.9314,50.55271],[10.96847,50.51517],[11.04538,50.4881],[11.27472,50.49596],[11.37771,50.46712],[11.4711,50.46013],[11.50422,50.44796]]]]}},{"type":"Feature","properties":{"NAME":"Duchy of Upper Lotharingia","SUBJECTO":"Holy Roman Empire","PARTOF":"Holy Roman Empire","ADMIN_LEVEL":4,"OHM_RELATION_ID":2805254,"START_DATE":"0959","END_DATE":"1100"},"geometry":{"type":"MultiPolygon","coordinates":[[[[7.39892,50.44283],[7.229,50.48023],[7.07245,50.43652],[6.95709,50.26301],[6.7868,50.20855],[6.63299,50.19624],[6.56707,50.29811],[6.37481,50.30162],[6.2622,50.23315],[6.24847,50.0924],[6.27319,49.97949],[6.15509,49.89464],[6.01501,49.85038],[5.75683,49.83267],[4.68155,49.78925],[4.61837,49.72714],[4.68429,49.65252],[4.81613,49.56531],[4.82986,49.45831],[4.79004,49.35376],[4.79141,49.28393],[4.73236,49.20055],[4.82162,49.16554],[4.9411,49.14758],[5.0235,49.12602],[5.04959,49.05227],[4.98093,48.98563],[4.92737,48.91709],[4.94385,48.85749],[5.01114,48.85297],[5.05096,48.83987],[5.10864,48.74895],[5.10727,48.6819],[5.15945,48.63472],[5.23636,48.61748],[5.25558,48.58478],[5.25421,48.35625],[5.3421,48.33526],[5.36545,48.30329],[5.42175,48.28959],[5.47394,48.22559],[5.46089,48.17799],[5.47119,48.13585],[5.55084,48.12852],[5.62225,48.09184],[5.62672,48.06133],[5.67718,48.06179],[5.72662,48.08358],[5.92163,48.08542],[6.01501,48.01106],[6.0878,48.02392],[6.08368,48.04963],[6.02737,48.11477],[6.00815,48.17799],[6.13037,48.17799],[6.22513,48.09734],[6.38031,48.08634],[6.42837,47.98625],[6.47507,47.97338],[6.51146,47.98579],[6.56296,47.9697],[6.65909,47.88228],[6.82295,47.81376],[6.89314,47.83616],[6.96945,47.93475],[6.96121,48.02208],[7.02438,48.04137],[7.07794,48.10239],[7.09236,48.14868],[7.12188,48.17479],[7.12051,48.24068],[7.19879,48.30786],[7.17132,48.35716],[7.10953,48.38179],[7.13425,48.46017],[7.17132,48.46655],[7.18506,48.51661],[7.22763,48.54752],[7.24136,48.61385],[7.18506,48.65559],[7.17956,48.71996],[7.22763,48.74623],[7.1933,48.77701],[7.21527,48.81229],[7.34985,48.86291],[7.35809,48.89271],[7.33406,48.90129],[7.32651,48.91799],[7.33886,48.94235],[7.49679,49.01896],[7.5325,49.01896],[7.59018,49.04327],[7.59155,49.06577],[7.69523,49.13433],[7.71103,49.23284],[7.65884,49.27497],[7.62588,49.27856],[7.60254,49.3117],[7.57233,49.31886],[7.53662,49.35018],[7.50709,49.34928],[7.50641,49.37299],[7.48718,49.39221],[7.44942,49.39712],[7.4453,49.41142],[7.39311,49.44893],[7.32239,49.4467],[7.29217,49.46946],[7.22694,49.46857],[7.21527,49.4882],[7.1878,49.50782],[7.17956,49.54259],[7.20978,49.54615],[7.25578,49.53412],[7.25647,49.54883],[7.26952,49.56041],[7.24308,49.59536],[7.27364,49.62406],[7.27707,49.65163],[7.23312,49.6934],[7.14386,49.71294],[7.09167,49.76441],[7.14661,49.7786],[7.20154,49.80609],[7.23175,49.84861],[7.22076,49.91675],[7.32513,50.02539],[7.63275,50.15403],[7.57782,50.34721],[7.52289,50.41552],[7.39892,50.44283]]]]}},{"type":"Feature","properties":{"NAME":"Erfurt Territory","SUBJECTO":"Holy Roman Empire","PARTOF":"Holy Roman Empire","ADMIN_LEVEL":5,"OHM_RELATION_ID":2831882,"START_DATE":"1000","END_DATE":"1803-04-27"},"geometry":{"type":"MultiPolygon","coordinates":[[[[10.82076,50.921],[10.81857,50.88972],[10.8037,50.88681],[10.77074,50.8588],[10.78705,50.84298],[10.84519,50.83862],[10.86228,50.85126],[10.87432,50.87759],[10.86179,50.87954],[10.8599,50.91633],[10.82076,50.921]]],[[[11.02255,50.92944],[10.97032,50.92197],[10.98036,50.90433],[11.05538,50.90953],[11.05508,50.89619],[11.00718,50.89451],[10.995,50.87369],[11.00513,50.86367],[11.02444,50.85901],[11.03559,50.88024],[11.1134,50.89261],[11.12666,50.90248],[11.15209,50.87696],[11.17777,50.8669],[11.18823,50.87247],[11.17172,50.87504],[11.18073,50.87856],[11.20633,50.86473],[11.20829,50.88224],[11.24622,50.87515],[11.25343,50.88874],[11.22082,50.93052],[11.23215,50.94588],[11.22116,50.94999],[11.26682,50.97075],[11.26648,50.98545],[11.24073,50.98469],[11.2258,50.99658],[11.23661,51.00717],[11.21361,51.00609],[11.19524,51.02131],[11.20623,51.036],[11.17653,51.07031],[11.15868,51.05715],[11.14735,51.06556],[11.12589,51.05995],[11.12761,51.08207],[11.08538,51.06459],[11.08126,51.07419],[11.0435,51.07959],[11.04109,51.06513],[11.02306,51.06637],[11.02004,51.06046],[11.02761,51.05898],[11.0253,51.03082],[10.98768,51.03575],[10.96393,51.08649],[10.98092,51.09749],[10.96993,51.12378],[10.95097,51.12486],[10.95732,51.1185],[10.9477,51.11575],[10.94976,51.10083],[10.9102,51.08854],[10.88402,51.0839],[10.88011,51.09811],[10.83801,51.09506],[10.8308,51.0729],[10.86925,51.05769],[10.8699,51.02774],[10.91105,51.02091],[10.91526,51.0036],[10.88874,50.99496],[10.83561,51.00738],[10.78128,50.9855],[10.81368,50.9798],[10.83183,50.99048],[10.82698,50.95134],[10.8523,50.95232],[10.85535,50.96327],[10.89427,50.96051],[10.89691,50.94527],[10.86848,50.94183],[10.87638,50.92744],[10.90479,50.92251],[10.91612,50.93028],[10.91219,50.94115],[10.93869,50.94707],[10.95298,50.93791],[10.9998,50.94832],[11.00238,50.93853],[11.0259,50.93758],[11.02255,50.92944]],[[11.15301,50.91938],[11.19078,50.90953],[11.18975,50.90347],[11.17601,50.8961],[11.14717,50.9079],[11.13396,50.90509],[11.11954,50.91829],[11.15301,50.91938]],[[11.17043,50.93961],[11.17207,50.95626],[11.18846,50.94799],[11.18803,50.93788],[11.17043,50.93961]],[[11.10752,51.0347],[11.15507,51.0374],[11.1882,51.02207],[11.15078,51.00447],[11.14374,51.00943],[11.14666,51.01678],[11.12417,51.02088],[11.10752,51.0347]]],[[[11.30733,50.80449],[11.33506,50.81891],[11.35842,50.81517],[11.36373,50.83158],[11.40501,50.8331],[11.40947,50.85733],[11.37875,50.86469],[11.39943,50.89047],[11.41806,50.89778],[11.39471,50.90238],[11.38098,50.92533],[11.33823,50.92414],[11.3572,50.91088],[11.35283,50.89491],[11.32038,50.87293],[11.28931,50.86713],[11.30733,50.80449]]],[[[11.09327,51.1122],[11.13842,51.09199],[11.17481,51.10568],[11.17413,51.12766],[11.15705,51.16327],[11.12209,51.1719],[11.12765,51.18037],[11.11535,51.18497],[11.11535,51.17418],[11.08523,51.16866],[11.08604,51.15084],[11.06143,51.15033],[11.064,51.12907],[11.09714,51.12754],[11.10194,51.11813],[11.09327,51.1122]]],[[[11.22597,51.07053],[11.22854,51.04938],[11.27438,51.02553],[11.29575,51.03152],[11.31214,51.05353],[11.27983,51.06241],[11.273,51.05181],[11.26262,51.05192],[11.25695,51.05461],[11.27197,51.06093],[11.26596,51.07301],[11.22597,51.07053]]],[[[11.28678,51.12743],[11.25642,51.1308],[11.25481,51.10266],[11.28227,51.1018],[11.29429,51.12594],[11.28678,51.12743]]]]}},{"type":"Feature","properties":{"NAME":"Imperial Abbey of Hersfeld","SUBJECTO":"Holy Roman Empire","PARTOF":"Holy Roman Empire","ADMIN_LEVEL":4,"OHM_RELATION_ID":2830973,"START_DATE":"0775","END_DATE":"1648-10-24"},"geometry":{"type":"MultiPolygon","coordinates":[[[[10.0614,50.87639],[10.04447,50.87623],[9.98202,50.84958],[9.9337,50.86377],[9.81302,50.85704],[9.73028,50.88603],[9.74848,50.89903],[9.75534,50.89632],[9.75303,50.90872],[9.71191,50.90991],[9.69209,50.92576],[9.61555,50.92243],[9.59657,50.93025],[9.56098,50.91348],[9.5472,50.89529],[9.4945,50.87493],[9.51759,50.83934],[9.50661,50.83381],[9.51056,50.82822],[9.50111,50.81011],[9.55261,50.7838],[9.55977,50.76294],[9.60217,50.75856],[9.62892,50.77984],[9.69473,50.79975],[9.69981,50.81263],[9.72878,50.8202],[9.74041,50.8074],[9.79058,50.81987],[9.80689,50.81391],[9.79929,50.80645],[9.81212,50.79438],[9.88087,50.79593],[9.89563,50.79005],[9.8922,50.81082],[9.8992,50.81659],[9.95224,50.82147],[9.95657,50.8096],[9.94404,50.79392],[9.95469,50.786],[9.94355,50.77134],[9.96913,50.78267],[9.98803,50.76559],[10.04004,50.75764],[10.04811,50.748],[10.04344,50.73358],[10.07867,50.70691],[10.07569,50.71965],[10.09721,50.7402],[10.0597,50.75981],[10.06884,50.76116],[10.07493,50.78277],[10.08584,50.7838],[10.07811,50.7895],[10.07863,50.80996],[10.05708,50.82098],[10.04099,50.84091],[10.05421,50.85085],[10.05047,50.85657],[10.0614,50.87639]],[[9.93664,50.8368],[9.89943,50.84058],[9.90512,50.86039],[9.94374,50.84516],[9.93664,50.8368]]],[[[10.07442,50.87853],[10.07579,50.87206],[10.09219,50.87407],[10.10021,50.86556],[10.11433,50.86862],[10.14278,50.85687],[10.18875,50.85256],[10.21008,50.86253],[10.18518,50.86553],[10.19033,50.87277],[10.2202,50.88771],[10.21085,50.89416],[10.19797,50.87954],[10.17909,50.88268],[10.16991,50.90244],[10.14261,50.89416],[10.13729,50.9072],[10.11146,50.89313],[10.09386,50.89296],[10.07442,50.87853]]]]}},{"type":"Feature","properties":{"NAME":"Imperial Abbey of Werden","SUBJECTO":"Holy Roman Empire","PARTOF":"Holy Roman Empire","ADMIN_LEVEL":4,"OHM_RELATION_ID":2831007,"START_DATE":"0877-05-22","END_DATE":"1803-04-27"},"geometry":{"type":"MultiPolygon","coordinates":[[[[6.92619,51.42918],[6.92482,51.40611],[6.89701,51.38882],[6.95151,51.34863],[6.96696,51.34734],[6.99117,51.35876],[7.03597,51.34713],[7.1173,51.38078],[7.1186,51.39234],[7.09597,51.41041],[7.0797,51.44299],[7.06318,51.43903],[7.04567,51.41869],[7.01614,51.41912],[6.98559,51.43346],[6.95812,51.43175],[6.94611,51.43989],[6.92619,51.42918]]]]}},{"type":"Feature","properties":{"NAME":"March of Cham","SUBJECTO":"Holy Roman Empire","PARTOF":"Holy Roman Empire","ADMIN_LEVEL":4,"OHM_RELATION_ID":2809509,"START_DATE":"1055","END_DATE":"1204"},"geometry":{"type":"MultiPolygon","coordinates":[[[[12.77916,49.32557],[12.7256,49.3146],[12.71255,49.29222],[12.68921,49.31662],[12.66518,49.32221],[12.65247,49.3466],[12.62363,49.3372],[12.6226,49.3155],[12.61059,49.31169],[12.61471,49.28774],[12.58896,49.2454],[12.60029,49.24405],[12.60063,49.22388],[12.61093,49.21356],[12.6305,49.20706],[12.60269,49.20369],[12.59651,49.16756],[12.57969,49.16532],[12.58278,49.12107],[12.59617,49.11456],[12.60166,49.09298],[12.62089,49.09365],[12.63943,49.08331],[12.65041,49.09995],[12.71324,49.10714],[12.70981,49.12489],[12.72217,49.16352],[12.74071,49.16734],[12.74689,49.19965],[12.77985,49.19382],[12.79461,49.20863],[12.81692,49.21065],[12.79221,49.25772],[12.79839,49.26601],[12.81727,49.26288],[12.84782,49.27497],[12.83203,49.29602],[12.80697,49.29535],[12.80491,49.30744],[12.77916,49.32557]]]]}},{"type":"Feature","properties":{"NAME":"March of Verona","SUBJECTO":"Holy Roman Empire","PARTOF":"Holy Roman Empire","ADMIN_LEVEL":4,"OHM_RELATION_ID":2805258,"START_DATE":"0888","END_DATE":"1151"},"geometry":{"type":"MultiPolygon","coordinates":[[[[10.84145,45.29808],[10.88539,45.2744],[10.9156,45.19897],[10.96916,45.15347],[11.04126,45.13701],[11.07731,45.11206],[11.06598,45.04272],[11.12503,45.06212],[11.16348,45.04466],[11.1961,45.05582],[11.23936,45.04442],[11.26648,45.05533],[11.26825,45.09075],[11.31514,45.08964],[11.3669,45.06249],[11.48895,45.14912],[11.54526,45.16606],[11.77528,45.13604],[11.92154,45.15057],[12.10419,45.12732],[12.14986,45.10117],[12.15912,45.12538],[12.15294,45.2367],[12.17285,45.31691],[12.16822,45.45748],[12.26555,45.55589],[12.35533,45.58533],[12.43927,45.58858],[12.7668,45.64921],[12.78053,45.63133],[12.82585,45.62364],[12.89239,45.55929],[12.96717,45.58738],[13.12062,45.60485],[13.14304,45.62123],[13.15352,45.64553],[13.20442,45.67696],[13.28124,45.67373],[13.36956,45.64184],[13.45759,45.64631],[13.49742,45.67087],[13.57893,45.69451],[13.59927,45.71204],[13.60488,45.73023],[13.64064,45.71256],[13.74836,45.76848],[14.01031,45.98361],[13.99761,46.13703],[13.93066,46.17222],[13.78921,46.29192],[13.83865,46.33555],[13.77273,46.41325],[13.61481,46.41419],[13.51691,46.38297],[13.50052,46.40913],[13.43391,46.43577],[13.4392,46.45315],[13.46261,46.46479],[13.45581,46.47472],[13.352,46.47659],[13.28838,46.51812],[13.21086,46.52735],[13.20228,46.54591],[13.14762,46.57758],[13.0215,46.60221],[12.91008,46.60965],[12.84774,46.60542],[12.83364,46.61022],[12.83719,46.62747],[12.81904,46.62817],[12.78432,46.64499],[12.76253,46.64795],[12.73495,46.63569],[12.69064,46.65695],[12.64122,46.65221],[12.61907,46.66183],[12.56903,46.6514],[12.50544,46.67947],[12.43417,46.66835],[12.40554,46.64253],[12.38166,46.64365],[12.37841,46.63643],[12.38995,46.62743],[12.38309,46.62292],[12.35966,46.61936],[12.34219,46.63104],[12.31522,46.63044],[12.30718,46.61903],[12.28439,46.61731],[12.26065,46.62966],[12.24365,46.62438],[12.2416,46.6163],[12.21125,46.61002],[12.19238,46.59427],[12.19414,46.62191],[12.18307,46.62062],[12.16118,46.63683],[12.14436,46.63353],[12.06977,46.67535],[12.06565,46.65433],[12.075,46.64349],[12.06367,46.62174],[12.04428,46.60729],[12.04737,46.58435],[11.99741,46.5343],[11.9902,46.54564],[11.94935,46.53974],[11.9442,46.52934],[11.82828,46.50889],[11.74782,46.50525],[11.71623,46.51163],[11.64482,46.4913],[11.60122,46.38696],[11.56277,46.38033],[11.55762,46.34882],[11.48449,46.35972],[11.45222,46.33555],[11.34029,46.29737],[11.24421,46.2321],[11.16734,46.29174],[11.20468,46.35025],[11.22013,46.46861],[11.19026,46.50666],[11.09379,46.53679],[10.86204,46.43407],[10.79887,46.44448],[10.76454,46.48658],[10.6212,46.44791],[10.53005,46.47121],[10.51306,46.29542],[10.43152,46.25205],[10.43014,46.20455],[10.41435,46.14036],[10.47546,46.08228],[10.44765,45.97979],[10.44113,45.91581],[10.39856,45.83741],[10.34981,45.82306],[10.33195,45.76082],[10.33058,45.66205],[10.36148,45.58137],[10.45692,45.52319],[10.494,45.47361],[10.57846,45.43701],[10.66176,45.41903],[10.75905,45.35794],[10.79269,45.3157],[10.84145,45.29808]]]]}},{"type":"Feature","properties":{"NAME":"Prince-Bishopric of Basel","SUBJECTO":"Holy Roman Empire","PARTOF":"Holy Roman Empire","ADMIN_LEVEL":4,"OHM_RELATION_ID":2852254,"START_DATE":"1032","END_DATE":"1797-10-17"},"geometry":{"type":"MultiPolygon","coordinates":[[[[7.51949,47.6735],[7.54167,47.64622],[7.54933,47.66148],[7.56168,47.66529],[7.54883,47.68101],[7.51949,47.6735]]],[[[7.58039,47.73465],[7.62799,47.72474],[7.63007,47.7366],[7.61642,47.75461],[7.61417,47.77489],[7.57356,47.77555],[7.5509,47.74401],[7.58039,47.73465]]],[[[6.99587,47.44964],[6.94188,47.43391],[6.93841,47.40609],[6.9132,47.4046],[6.91017,47.38504],[6.88361,47.37286],[6.8793,47.35624],[6.97556,47.36097],[7.01423,47.37181],[7.04577,47.36321],[7.06237,47.34403],[7.04561,47.32648],[6.96713,47.32492],[6.97125,47.31817],[7.01538,47.31691],[7.00979,47.29704],[7.00301,47.28855],[6.95639,47.29222],[6.92842,47.2808],[6.9243,47.27463],[6.93503,47.27049],[6.93023,47.25756],[6.95492,47.24265],[6.8804,47.20045],[6.874,47.18545],[6.8424,47.17207],[6.88886,47.13112],[6.8692,47.08742],[6.93066,47.10822],[7.02782,47.12715],[7.04078,47.12434],[7.02395,47.11266],[7.02885,47.10431],[7.04095,47.10881],[7.07571,47.09631],[7.0885,47.08269],[7.07717,47.07644],[7.08841,47.05972],[7.13493,47.08386],[7.12772,47.08906],[7.14214,47.09829],[7.13716,47.10682],[7.19982,47.13392],[7.24147,47.12756],[7.29424,47.16124],[7.32634,47.16194],[7.34367,47.1526],[7.36959,47.15856],[7.37354,47.14898],[7.36565,47.14385],[7.37612,47.14093],[7.3859,47.14805],[7.38934,47.15832],[7.36058,47.17075],[7.35655,47.18388],[7.33938,47.1952],[7.34591,47.20733],[7.34058,47.21718],[7.42195,47.24195],[7.41646,47.25314],[7.47139,47.26618],[7.4865,47.28389],[7.53181,47.2946],[7.57164,47.32626],[7.52426,47.37092],[7.4604,47.37046],[7.43671,47.37883],[7.44358,47.40137],[7.47826,47.40184],[7.48032,47.38836],[7.51877,47.38766],[7.53044,47.41415],[7.57164,47.4174],[7.57473,47.43831],[7.5816,47.42948],[7.61352,47.43552],[7.62657,47.46338],[7.60529,47.46988],[7.61353,47.52114],[7.59443,47.51932],[7.58142,47.54386],[7.55585,47.54444],[7.56469,47.5573],[7.55466,47.56437],[7.50015,47.54015],[7.50101,47.52905],[7.53048,47.52976],[7.52346,47.51867],[7.53589,47.51387],[7.52958,47.46175],[7.45551,47.44939],[7.44302,47.46137],[7.43003,47.45949],[7.4209,47.44594],[7.438,47.44626],[7.4556,47.42826],[7.44864,47.41514],[7.43792,47.41287],[7.37599,47.41415],[7.37576,47.43338],[7.33296,47.44097],[7.28183,47.43478],[7.2494,47.42141],[7.23087,47.4394],[7.1999,47.43513],[7.17022,47.44298],[7.1869,47.48251],[7.20296,47.49139],[7.16227,47.49002],[7.13023,47.50292],[7.07485,47.48818],[7.03693,47.49751],[7.01129,47.48409],[7.00194,47.46851],[7.0058,47.45778],[6.99587,47.44964]]]]}},{"type":"Feature","properties":{"NAME":"Prince-Bishopric of Passau","SUBJECTO":"Holy Roman Empire","PARTOF":"Holy Roman Empire","ADMIN_LEVEL":4,"OHM_RELATION_ID":2809505,"START_DATE":"999","END_DATE":"1803-04-27"},"geometry":{"type":"MultiPolygon","coordinates":[[[[13.23441,48.67147],[13.24162,48.65469],[13.26599,48.64403],[13.26668,48.60811],[13.3847,48.59529],[13.4077,48.57797],[13.44967,48.57576],[13.43782,48.56559],[13.40075,48.56741],[13.38959,48.54161],[13.36246,48.5307],[13.36178,48.48817],[13.38306,48.48703],[13.38667,48.47349],[13.40967,48.47645],[13.43473,48.49704],[13.44745,48.49436],[13.45722,48.51149],[13.43645,48.55264],[13.44996,48.56393],[13.47542,48.55616],[13.4746,48.56228],[13.50413,48.57243],[13.50459,48.5867],[13.51557,48.59083],[13.57262,48.56051],[13.5973,48.56957],[13.65414,48.54865],[13.65734,48.54429],[13.6385,48.54389],[13.64313,48.539],[13.63678,48.52843],[13.65377,48.50353],[13.67952,48.49067],[13.67661,48.48441],[13.69553,48.47218],[13.70424,48.47554],[13.70004,48.47884],[13.72021,48.5062],[13.71456,48.51211],[13.72709,48.51302],[13.74909,48.53222],[13.74398,48.54234],[13.7549,48.5643],[13.76832,48.5535],[13.80209,48.57445],[13.80226,48.59478],[13.82441,48.61839],[13.82629,48.63041],[13.81428,48.65038],[13.81908,48.67215],[13.81338,48.69235],[13.83342,48.69187],[13.83739,48.70011],[13.81232,48.70222],[13.79858,48.71231],[13.82011,48.73253],[13.82132,48.75483],[13.83955,48.77162],[13.80387,48.7809],[13.81524,48.79709],[13.79558,48.81485],[13.79253,48.82877],[13.76781,48.83263],[13.73259,48.88698],[13.71947,48.87899],[13.67594,48.87873],[13.62398,48.93742],[13.62545,48.94883],[13.60575,48.94119],[13.58008,48.97074],[13.51154,48.96896],[13.50586,48.95991],[13.51481,48.93699],[13.507,48.92318],[13.52348,48.89768],[13.52245,48.87939],[13.50735,48.86268],[13.45345,48.85636],[13.44898,48.84823],[13.47027,48.84303],[13.46065,48.8315],[13.44692,48.83128],[13.44864,48.81772],[13.44006,48.81026],[13.44933,48.79035],[13.42461,48.75562],[13.45499,48.71792],[13.45053,48.6879],[13.43697,48.67691],[13.39027,48.68235],[13.38135,48.67033],[13.37208,48.67033],[13.36727,48.68824],[13.34839,48.68915],[13.34187,48.67577],[13.30753,48.67963],[13.27148,48.69436],[13.23784,48.68597],[13.23441,48.67147]],[[13.43697,48.63688],[13.53584,48.63019],[13.53207,48.60601],[13.5022,48.60942],[13.48314,48.60023],[13.49061,48.57417],[13.43697,48.63688]]],[[[13.28796,48.33845],[13.31989,48.31859],[13.37628,48.35732],[13.35714,48.36885],[13.28796,48.33845]]]]}},{"type":"Feature","properties":{"NAME":"Prince-Bishopric of Worms","SUBJECTO":"Holy Roman Empire","PARTOF":"Holy Roman Empire","ADMIN_LEVEL":4,"OHM_RELATION_ID":2830736,"START_DATE":"0861","END_DATE":"1797-10-10"},"geometry":{"type":"MultiPolygon","coordinates":[[[[8.08044,49.54526],[8.04199,49.52298],[8.0801,49.53301],[8.08937,49.52432],[8.07495,49.51852],[8.08525,49.51295],[8.15357,49.54058],[8.14911,49.5535],[8.13606,49.55462],[8.13503,49.56219],[8.09418,49.53368],[8.08044,49.54526]]],[[[8.42334,49.54107],[8.41417,49.55912],[8.4225,49.58375],[8.46412,49.58959],[8.49502,49.57312],[8.51346,49.58687],[8.55449,49.58582],[8.58985,49.59227],[8.59092,49.60048],[8.56187,49.60359],[8.57277,49.63362],[8.53243,49.61861],[8.51629,49.62261],[8.48694,49.6136],[8.44299,49.61293],[8.41827,49.62761],[8.39012,49.62761],[8.37398,49.61649],[8.27751,49.61583],[8.27511,49.60915],[8.28335,49.60826],[8.29039,49.59091],[8.33798,49.60117],[8.34369,49.59554],[8.3248,49.58189],[8.31682,49.56753],[8.32455,49.56085],[8.31116,49.55528],[8.31665,49.54994],[8.35922,49.55796],[8.35304,49.55194],[8.37227,49.54727],[8.3757,49.53969],[8.39424,49.54994],[8.42334,49.54107]]],[[[8.23287,49.5879],[8.21194,49.58735],[8.22155,49.56041],[8.21297,49.55551],[8.21983,49.54638],[8.23254,49.54816],[8.24043,49.53724],[8.27494,49.53925],[8.28087,49.58671],[8.23287,49.5879]]]]}},{"type":"Feature","properties":{"NAME":"Saxon Eastern March","SUBJECTO":"Holy Roman Empire","PARTOF":"Holy Roman Empire","ADMIN_LEVEL":4,"OHM_RELATION_ID":2805286,"START_DATE":"0965","END_DATE":"1128"},"geometry":{"type":"MultiPolygon","coordinates":[[[[13.28796,52.33702],[13.10669,52.35631],[13.02566,52.33282],[12.92129,52.25135],[12.73315,52.22864],[12.68509,52.27152],[12.6178,52.27152],[12.50931,52.24967],[12.5148,52.21939],[12.56836,52.20256],[12.54913,52.16888],[12.41455,52.16214],[12.155,52.08457],[11.87897,52.02609],[11.89133,52.00623],[11.88,51.98403],[11.92137,51.94523],[11.79932,51.91336],[11.76567,51.86208],[11.78146,51.80373],[11.70319,51.78462],[11.71177,51.74149],[11.66714,51.71831],[11.75331,51.65573],[11.76224,51.58731],[11.82987,51.5728],[11.82816,51.53096],[11.89167,51.53609],[11.94317,51.52092],[11.9596,51.47892],[11.92154,51.44481],[12.01527,51.34209],[12.13714,51.37693],[12.16461,51.35806],[12.35412,51.38721],[12.54089,51.38721],[12.63427,51.49165],[12.6947,51.49507],[12.76886,51.43689],[12.79083,51.36321],[12.9364,51.37178],[13.07922,51.44031],[13.13965,51.40092],[13.23578,51.40092],[13.30169,51.44203],[13.42804,51.4523],[13.47198,51.47283],[13.57086,51.43347],[13.68622,51.43175],[13.82629,51.45743],[13.91418,51.45059],[13.95538,51.49336],[14.05975,51.46428],[14.08996,51.50533],[14.16961,51.519],[14.18609,51.54121],[14.50401,51.53908],[14.515,51.58475],[14.53697,51.59243],[14.56512,51.58433],[14.59259,51.54676],[14.62623,51.54804],[14.63173,51.56982],[14.7567,51.56982],[14.75326,51.54676],[14.7718,51.52327],[14.80064,51.52327],[14.87892,51.48438],[14.93111,51.48224],[14.96269,51.43775],[14.95308,51.39278],[15.05196,51.37992],[15.12886,51.38335],[15.13641,51.39535],[15.41289,51.39391],[15.38944,51.46342],[15.37028,51.48019],[15.368,51.49146],[15.37907,51.51655],[15.37255,51.53128],[15.39473,51.55122],[15.3895,51.57144],[15.3947,51.57541],[15.37087,51.57964],[15.33234,51.60912],[15.31695,51.60672],[15.23529,51.80692],[15.10251,51.95839],[15.10594,51.98504],[15.1232,51.99413],[15.11006,51.99783],[15.08165,51.98393],[15.05917,51.9908],[15.0499,52.00237],[15.08105,52.04452],[15.04788,52.06477],[15.01197,52.06794],[14.97923,52.05127],[14.96281,52.05537],[14.94247,52.04627],[14.91183,52.0456],[14.84251,52.07696],[14.78949,52.07063],[14.77457,52.08129],[14.75612,52.0701],[14.73709,52.08764],[14.69509,52.10156],[14.68243,52.11433],[14.68013,52.14484],[14.7049,52.17428],[14.686,52.19236],[14.7077,52.2111],[14.71581,52.23406],[14.69452,52.25476],[14.59714,52.27279],[14.57917,52.28664],[14.58205,52.24875],[14.55301,52.24021],[14.52652,52.23625],[14.41749,52.25236],[14.28211,52.29583],[14.20806,52.30486],[14.14405,52.34746],[13.99872,52.3669],[13.99847,52.37266],[13.93423,52.39315],[13.92182,52.38951],[13.91479,52.39972],[13.89249,52.38991],[13.88466,52.4008],[13.90114,52.42755],[13.92679,52.44225],[13.67386,52.45852],[13.46237,52.44262],[13.38409,52.36051],[13.28796,52.33702]]]]}}],"metadata":{"source":"OpenHistoricalMap","sourceUrl":"https://www.openhistoricalmap.org/","license":"CC0-1.0","year":1100,"featureCount":23,"missingWays":{},"unclosedRings":{"2805253":3},"droppedInnerRings":{},"relationsWithoutGeometry":[],"borderPrecision":"史料に基づく復元（概略。測量された境界ではない）"}}