{"type":"FeatureCollection","features":[{"type":"Feature","properties":{"NAME":"Duchy of Spoleto","OHM_NAME":"Duchy of Spoleto","ADMIN_LEVEL":4,"OHM_RELATION_ID":2805388,"START_DATE":"0831","END_DATE":"1201"},"geometry":{"type":"MultiPolygon","coordinates":[[[[14.187,42.553],[14.105,42.637],[14.004,42.789],[13.965,42.91],[13.921,42.997],[13.89,43.113],[13.793,43.302],[13.744,43.292],[13.497,43.286],[13.449,43.302],[13.417,43.352],[13.343,43.332],[13.2,43.345],[13.144,43.423],[13.119,43.433],[13.035,43.39],[12.949,43.428],[12.842,43.395],[12.643,43.287],[12.577,43.234],[12.559,43.188],[12.487,43.159],[12.424,43.087],[12.426,42.947],[12.467,42.898],[12.57,42.891],[12.596,42.828],[12.552,42.762],[12.608,42.719],[12.575,42.56],[12.502,42.539],[12.437,42.462],[12.455,42.398],[12.512,42.382],[12.606,42.423],[12.743,42.389],[12.883,42.298],[12.884,42.144],[12.965,42.135],[13.049,42.175],[13.104,42.148],[13.079,42.118],[13.142,42.012],[13.326,41.919],[13.432,41.824],[13.576,41.744],[13.626,41.654],[13.666,41.71],[13.704,41.881],[13.863,41.905],[13.944,41.846],[13.994,41.682],[14.137,41.657],[14.214,41.706],[14.326,41.754],[14.487,41.795],[14.63,41.801],[14.775,41.872],[14.88,41.847],[14.845,41.937],[14.991,42.043],[14.886,42.066],[14.774,42.114],[14.763,42.186],[14.741,42.208],[14.645,42.232],[14.554,42.274],[14.537,42.299],[14.473,42.342],[14.469,42.367],[14.458,42.379],[14.295,42.467],[14.187,42.553]]]]}},{"type":"Feature","properties":{"NAME":"March of Montferrat","OHM_NAME":"March of Montferrat","ADMIN_LEVEL":6,"OHM_RELATION_ID":2800678,"START_DATE":"1000","END_DATE":"1708"},"geometry":{"type":"MultiPolygon","coordinates":[[[[8.358,44.465],[8.394,44.479],[8.399,44.501],[8.417,44.513],[8.447,44.499],[8.469,44.522],[8.48,44.511],[8.576,44.507],[8.601,44.546],[8.599,44.566],[8.607,44.583],[8.621,44.589],[8.577,44.723],[8.562,44.846],[8.563,44.933],[8.641,45.044],[8.638,45.049],[8.647,45.055],[8.637,45.067],[8.646,45.075],[8.608,45.108],[8.614,45.127],[8.592,45.131],[8.58,45.153],[8.555,45.157],[8.527,45.244],[8.128,45.257],[8.094,45.249],[8.07,45.2],[7.951,45.196],[8.03,45.131],[8.058,45.072],[8.28,45.015],[8.332,44.995],[8.356,44.944],[8.307,44.833],[8.2,44.785],[8.028,44.799],[8.008,44.733],[7.918,44.706],[7.879,44.639],[7.913,44.555],[7.914,44.458],[7.969,44.423],[8.043,44.397],[8.113,44.491],[8.262,44.519],[8.272,44.506],[8.303,44.503],[8.324,44.488],[8.35,44.485],[8.358,44.465]]]]}},{"type":"Feature","properties":{"NAME":"March of Tuscany","OHM_NAME":"March of Tuscany","ADMIN_LEVEL":4,"OHM_RELATION_ID":2805420,"START_DATE":"0988","END_DATE":"1115-07-27"},"geometry":{"type":"MultiPolygon","coordinates":[[[[9.528,45.32],[9.573,45.275],[9.618,45.297],[9.636,45.286],[9.622,45.262],[9.641,45.25],[9.661,45.262],[9.694,45.257],[9.706,45.225],[9.759,45.272],[9.767,45.322],[9.75,45.404],[9.706,45.398],[9.653,45.439],[9.59,45.389],[9.544,45.386],[9.528,45.32]]],[[[9.744,44.391],[9.899,44.03],[9.945,44.004],[10.002,44.004],[10.052,43.989],[10.13,43.931],[10.184,43.871],[10.214,43.796],[10.226,43.739],[10.23,43.7],[10.22,43.678],[10.236,43.639],[10.247,43.577],[10.241,43.553],[10.255,43.517],[10.27,43.5],[10.286,43.457],[10.314,43.435],[10.338,43.427],[10.365,43.378],[10.387,43.367],[10.414,43.308],[10.46,43.27],[10.478,43.228],[10.49,43.144],[10.483,43.06],[10.476,43.038],[10.44,43.006],[10.434,42.991],[10.438,42.946],[10.454,42.913],[10.498,42.89],[10.53,42.884],[10.572,42.891],[10.597,42.916],[10.62,42.918],[10.675,42.912],[10.723,42.893],[10.724,42.844],[10.687,42.82],[10.682,42.794],[10.688,42.783],[10.756,42.745],[10.85,42.73],[10.926,42.705],[10.943,42.689],[10.971,42.638],[11.033,42.609],[11.04,42.594],[11.166,42.648],[11.211,42.73],[11.238,42.732],[11.243,42.746],[11.328,42.743],[11.38,42.771],[11.427,42.834],[11.472,42.853],[11.547,42.869],[11.582,42.922],[11.72,42.939],[11.735,42.928],[11.693,42.881],[11.742,42.834],[11.771,42.826],[11.798,42.845],[11.82,42.876],[11.863,42.889],[11.916,42.892],[11.928,42.905],[11.93,42.922],[11.949,42.934],[11.99,42.936],[12.026,42.921],[12.045,42.931],[12.086,42.906],[12.187,42.95],[12.24,42.948],[12.309,42.912],[12.391,42.913],[12.423,42.943],[12.42,42.972],[12.425,42.978],[12.424,43.087],[12.487,43.159],[12.559,43.188],[12.559,43.189],[12.569,43.228],[12.587,43.249],[12.57,43.271],[12.537,43.267],[12.472,43.306],[12.425,43.271],[12.408,43.311],[12.363,43.332],[12.329,43.36],[12.449,43.446],[12.329,43.504],[12.334,43.568],[12.313,43.592],[12.283,43.597],[12.237,43.58],[12.229,43.602],[12.119,43.665],[12.104,43.71],[12.16,43.788],[12.159,43.843],[12.124,43.864],[12.059,43.864],[11.993,43.845],[11.906,43.862],[11.853,43.899],[11.795,43.899],[11.763,43.934],[11.711,43.962],[11.544,43.968],[11.484,43.987],[11.4,44.05],[11.352,44.061],[11.237,44.059],[11.212,44.121],[11.142,44.118],[11.077,44.079],[11.036,44.079],[11.034,44.104],[11.051,44.136],[11.043,44.155],[10.995,44.16],[10.914,44.1],[10.888,44.102],[10.865,44.133],[10.827,44.132],[10.789,44.143],[10.881,44.252],[10.915,44.255],[10.946,44.214],[11.038,44.329],[11.037,44.39],[11.01,44.401],[11.041,44.468],[11.07,44.473],[11.068,44.519],[11.096,44.575],[11.081,44.608],[11.113,44.628],[11.147,44.605],[11.171,44.605],[11.197,44.659],[11.189,44.801],[11.201,44.813],[11.246,44.812],[11.266,44.831],[11.309,44.847],[11.295,44.865],[11.312,44.869],[11.327,44.853],[11.419,44.823],[11.467,44.792],[11.501,44.743],[11.546,44.732],[11.586,44.704],[11.604,44.703],[11.622,44.681],[11.643,44.683],[11.676,44.656],[11.797,44.637],[11.808,44.72],[11.911,44.775],[11.911,44.881],[11.93,44.914],[11.898,44.932],[11.816,44.935],[11.809,44.969],[11.772,44.983],[11.727,44.976],[11.632,45.005],[11.51,45.015],[11.51,45.045],[11.448,45.047],[11.426,45.059],[11.367,45.062],[11.315,45.09],[11.268,45.091],[11.266,45.055],[11.239,45.044],[11.196,45.056],[11.163,45.045],[11.125,45.062],[11.066,45.043],[11.077,45.112],[11.041,45.137],[10.969,45.153],[10.916,45.199],[10.885,45.274],[10.841,45.298],[10.769,45.301],[10.705,45.321],[10.64,45.375],[10.591,45.369],[10.534,45.311],[10.478,45.315],[10.472,45.272],[10.502,45.247],[10.508,45.219],[10.465,45.218],[10.429,45.195],[10.449,45.135],[10.495,45.137],[10.538,45.111],[10.575,45.11],[10.602,45.09],[10.611,45.054],[10.643,45.036],[10.679,45.046],[10.701,45.033],[10.675,45.013],[10.674,44.971],[10.651,44.961],[10.66,44.908],[10.585,44.875],[10.543,44.88],[10.521,44.899],[10.461,44.868],[10.462,44.839],[10.442,44.823],[10.442,44.772],[10.392,44.764],[10.393,44.647],[10.366,44.592],[10.341,44.56],[10.331,44.526],[10.444,44.517],[10.489,44.482],[10.567,44.444],[10.588,44.417],[10.491,44.33],[10.46,44.261],[10.431,44.292],[10.39,44.295],[10.287,44.258],[10.264,44.263],[10.18,44.249],[10.135,44.265],[10.182,44.333],[10.153,44.365],[10.09,44.364],[9.956,44.493],[9.917,44.465],[9.871,44.459],[9.831,44.424],[9.744,44.391]]],[[[9.908,44.816],[9.947,44.782],[10.011,44.776],[10.089,44.747],[10.09,44.772],[10.149,44.846],[10.105,44.895],[10.109,44.959],[10.077,44.976],[9.971,44.96],[9.923,44.912],[9.93,44.869],[9.912,44.845],[9.908,44.816]]]]}}],"metadata":{"generatedBy":"scripts/build-fief-flat.ts","input":"data/italy_fiefs_1000.geojson","year":1000,"cutPolicy":"keep-smaller","containmentCoverageThreshold":0.9,"minOverlapAreaM2":1000,"sliverAreaLimitM2":1000000000,"resolutions":[{"kind":"sliver","cutName":"March of Tuscany","keptName":"Duchy of Spoleto","overlapKm2":140.55,"coverageOfSmaller":0.0063}],"source":"OpenHistoricalMap","sourceUrl":"https://www.openhistoricalmap.org/","license":"CC0-1.0","borderPrecision":"史料に基づく復元（概略。測量された境界ではない）"}}