{"type":"FeatureCollection","features":[{"type":"Feature","properties":{"NAME":"County of Asti","OHM_NAME":"County of Asti","ADMIN_LEVEL":4,"OHM_RELATION_ID":2800677,"START_DATE":"1095","END_DATE":"1531"},"geometry":{"type":"MultiPolygon","coordinates":[[[[8.02826,44.79938],[8.19992,44.78476],[8.30704,44.8325],[8.35579,44.94439],[8.33244,44.99491],[8.28026,45.0153],[8.05847,45.07207],[7.98294,45.02355],[7.93213,44.92349],[7.93487,44.86998],[8.02826,44.79938]]]]}},{"type":"Feature","properties":{"NAME":"Duchy of Spoleto","OHM_NAME":"Duchy of Spoleto","ADMIN_LEVEL":4,"OHM_RELATION_ID":2805388,"START_DATE":"0831","END_DATE":"1201"},"geometry":{"type":"MultiPolygon","coordinates":[[[[14.18711,42.55262],[14.10478,42.63698],[14.00437,42.78881],[13.96475,42.90991],[13.92117,42.99692],[13.89023,43.11262],[13.79273,43.30199],[13.74417,43.29206],[13.4967,43.2862],[13.44864,43.3022],[13.41705,43.35215],[13.34289,43.33217],[13.20007,43.34516],[13.14377,43.423],[13.11905,43.43298],[13.03528,43.39008],[12.94876,43.42799],[12.84164,43.39507],[12.64252,43.2872],[12.5766,43.2342],[12.55875,43.18816],[12.48733,43.15911],[12.42416,43.08694],[12.42554,42.94738],[12.46673,42.8981],[12.56973,42.89106],[12.59582,42.82764],[12.55188,42.76214],[12.60784,42.71927],[12.57523,42.56016],[12.50244,42.53892],[12.43652,42.46197],[12.45506,42.39811],[12.51205,42.38188],[12.60612,42.42295],[12.74277,42.38898],[12.88284,42.29763],[12.88421,42.14406],[12.96524,42.1349],[13.04901,42.1746],[13.10394,42.14813],[13.07922,42.11758],[13.14239,42.01155],[13.32641,41.91863],[13.43216,41.82353],[13.57635,41.74365],[13.62579,41.65445],[13.66562,41.70983],[13.70407,41.88081],[13.86337,41.90534],[13.9444,41.84604],[13.99383,41.68163],[14.13734,41.6565],[14.21356,41.70573],[14.32617,41.7539],[14.48685,41.79487],[14.62967,41.80101],[14.77524,41.87161],[14.87961,41.84706],[14.84527,41.93702],[14.99079,42.04291],[14.8862,42.06584],[14.77421,42.11438],[14.76281,42.18611],[14.74073,42.20755],[14.64547,42.23167],[14.55391,42.27364],[14.53672,42.29894],[14.47345,42.34204],[14.46928,42.36674],[14.4579,42.37875],[14.2953,42.46703],[14.18711,42.55262]]]]}},{"type":"Feature","properties":{"NAME":"March of Montferrat","OHM_NAME":"March of Montferrat","ADMIN_LEVEL":6,"OHM_RELATION_ID":2800678,"START_DATE":"1000","END_DATE":"1708"},"geometry":{"type":"MultiPolygon","coordinates":[[[[8.35849,44.46494],[8.39407,44.47909],[8.39915,44.50095],[8.41743,44.51283],[8.44653,44.49877],[8.46926,44.52172],[8.47966,44.51058],[8.57598,44.50721],[8.60105,44.54586],[8.59857,44.5655],[8.60716,44.58258],[8.62111,44.58855],[8.57689,44.72283],[8.56247,44.84565],[8.56316,44.93272],[8.64131,45.04405],[8.63811,45.04931],[8.64697,45.05465],[8.63691,45.06652],[8.6459,45.07489],[8.60848,45.10838],[8.61367,45.12699],[8.5917,45.13134],[8.58008,45.15269],[8.55534,45.15727],[8.52745,45.24395],[8.12782,45.25652],[8.09383,45.24855],[8.0698,45.1997],[7.95135,45.19559],[8.02963,45.13071],[8.05847,45.07207],[8.28026,45.0153],[8.33244,44.99491],[8.35579,44.94439],[8.30704,44.8325],[8.19992,44.78476],[8.02826,44.79938],[8.00766,44.73308],[7.91839,44.70576],[7.87857,44.63935],[7.9129,44.55525],[7.91427,44.45829],[7.96921,44.42299],[8.04336,44.39749],[8.1134,44.49063],[8.26157,44.51944],[8.27188,44.50644],[8.30255,44.50326],[8.32399,44.48764],[8.35005,44.48481],[8.35849,44.46494]]]]}},{"type":"Feature","properties":{"NAME":"March of Tuscany","OHM_NAME":"March of Tuscany","ADMIN_LEVEL":4,"OHM_RELATION_ID":2805420,"START_DATE":"0988","END_DATE":"1115-07-27"},"geometry":{"type":"MultiPolygon","coordinates":[[[[9.89864,44.03037],[9.94451,44.00427],[10.00231,44.00445],[10.05225,43.989],[10.12988,43.93142],[10.18357,43.87085],[10.2136,43.79615],[10.22641,43.73933],[10.22982,43.69992],[10.21964,43.67804],[10.23574,43.63868],[10.24666,43.57732],[10.24119,43.55283],[10.25516,43.51665],[10.27018,43.50006],[10.28588,43.45727],[10.31444,43.43458],[10.3379,43.42669],[10.36517,43.37839],[10.38674,43.36717],[10.4137,43.30768],[10.46009,43.26989],[10.47835,43.22779],[10.48988,43.14419],[10.48282,43.06017],[10.47616,43.03782],[10.43998,43.00647],[10.43354,42.99073],[10.43819,42.94618],[10.4542,42.91297],[10.49759,42.89029],[10.52962,42.88368],[10.57242,42.89098],[10.59697,42.91577],[10.6197,42.91784],[10.6745,42.91176],[10.72309,42.89294],[10.72353,42.84414],[10.68697,42.82041],[10.68221,42.79423],[10.68847,42.78264],[10.75593,42.74539],[10.84983,42.73019],[10.92599,42.70502],[10.94342,42.68909],[10.9708,42.63817],[11.0328,42.6088],[11.03953,42.59444],[11.16554,42.6481],[11.21086,42.72987],[11.23833,42.73188],[11.24313,42.746],[11.32828,42.74348],[11.37978,42.77071],[11.42715,42.83419],[11.47247,42.85281],[11.54697,42.86867],[11.58234,42.92174],[11.71966,42.93883],[11.73546,42.92777],[11.69289,42.881],[11.74232,42.83368],[11.77082,42.82613],[11.79794,42.84476],[11.81957,42.87571],[11.86283,42.8893],[11.91639,42.89232],[11.92806,42.90514],[11.93012,42.92224],[11.94935,42.93355],[11.98952,42.93607],[12.02574,42.92136],[12.04479,42.93142],[12.08582,42.9059],[12.18731,42.94998],[12.24014,42.94788],[12.30949,42.91168],[12.3912,42.91319],[12.42279,42.94285],[12.42004,42.972],[12.43172,42.98556],[12.43652,43.01318],[12.46948,43.02624],[12.47703,43.04581],[12.5663,43.07591],[12.57797,43.109],[12.55737,43.18215],[12.5687,43.22769],[12.5869,43.2492],[12.56973,43.27071],[12.53677,43.26671],[12.47189,43.30569],[12.42451,43.27121],[12.40837,43.31094],[12.36305,43.33167],[12.32877,43.35991],[12.44888,43.44594],[12.32941,43.50374],[12.33353,43.56845],[12.31293,43.59183],[12.2834,43.5973],[12.2374,43.57989],[12.22916,43.60227],[12.11861,43.66489],[12.10419,43.70958],[12.1598,43.78795],[12.15912,43.84295],[12.1241,43.86424],[12.05887,43.86374],[11.99295,43.84493],[11.90575,43.86226],[11.85287,43.89888],[11.79451,43.89888],[11.76292,43.93351],[11.71074,43.96218],[11.54388,43.96762],[11.48415,43.98689],[11.39969,44.05009],[11.35231,44.06095],[11.23695,44.05947],[11.21223,44.12111],[11.1422,44.11816],[11.07662,44.07945],[11.03611,44.0792],[11.03439,44.10435],[11.05053,44.13565],[11.04332,44.15487],[10.99525,44.15955],[10.91354,44.10016],[10.88779,44.10189],[10.86513,44.1327],[10.8272,44.13233],[10.78857,44.14329],[10.88127,44.25159],[10.91492,44.25454],[10.94582,44.21371],[11.03783,44.32925],[11.03714,44.38964],[11.00967,44.40141],[11.04126,44.4676],[11.0701,44.4725],[11.06804,44.51903],[11.09619,44.57531],[11.08108,44.60758],[11.11267,44.62811],[11.147,44.60465],[11.17104,44.60465],[11.19747,44.65864],[11.18854,44.8006],[11.2009,44.81326],[11.24622,44.8118],[11.26648,44.83104],[11.30939,44.84735],[11.29532,44.86536],[11.3118,44.86852],[11.3269,44.85344],[11.41891,44.82276],[11.46698,44.79158],[11.50062,44.74283],[11.54594,44.73161],[11.58646,44.70429],[11.60362,44.70283],[11.62216,44.68135],[11.64345,44.68281],[11.67641,44.65644],[11.79726,44.6369],[11.80756,44.72039],[11.91055,44.77452],[11.91124,44.88117],[11.92978,44.91425],[11.89751,44.93224],[11.8158,44.93516],[11.80893,44.96868],[11.77185,44.98277],[11.72722,44.97597],[11.63212,45.00535],[11.50955,45.01457],[11.50955,45.04515],[11.44775,45.04709],[11.42647,45.05873],[11.3669,45.06249],[11.31514,45.08964],[11.26825,45.09075],[11.26648,45.05533],[11.23936,45.04442],[11.1961,45.05582],[11.16348,45.04466],[11.12503,45.06212],[11.06598,45.04272],[11.07731,45.11206],[11.04126,45.13701],[10.96916,45.15347],[10.9156,45.19897],[10.88539,45.2744],[10.84145,45.29808],[10.76935,45.30097],[10.7048,45.32077],[10.64026,45.3753],[10.59082,45.36855],[10.53383,45.31063],[10.47821,45.31498],[10.47203,45.27247],[10.50224,45.24685],[10.50842,45.21929],[10.46516,45.21784],[10.42946,45.19462],[10.44868,45.13459],[10.49538,45.13652],[10.53795,45.11133],[10.57503,45.11036],[10.60181,45.08952],[10.61073,45.05364],[10.643,45.03569],[10.6794,45.04636],[10.70137,45.03326],[10.67459,45.01336],[10.6739,44.97063],[10.65056,44.9614],[10.66017,44.90841],[10.58533,44.87485],[10.54275,44.8802],[10.52147,44.89869],[10.46104,44.86755],[10.46173,44.83932],[10.44182,44.82325],[10.44182,44.77209],[10.39238,44.7638],[10.39307,44.64716],[10.36629,44.59242],[10.34114,44.56008],[10.33127,44.52637],[10.44422,44.51732],[10.4892,44.4823],[10.56747,44.44408],[10.58807,44.41711],[10.49057,44.32974],[10.46036,44.26094],[10.43083,44.2924],[10.38963,44.29486],[10.28664,44.25848],[10.26398,44.26291],[10.1802,44.24914],[10.13489,44.26487],[10.18158,44.33269],[10.15274,44.3651],[10.08957,44.36412],[9.95636,44.49259],[9.91653,44.46515],[9.87121,44.45927],[9.83139,44.42397],[9.7435,44.39062],[9.89864,44.03037]]],[[[10.10948,44.95897],[10.07721,44.97597],[9.97147,44.96043],[9.9234,44.9123],[9.93027,44.86852],[9.91173,44.84467],[9.90829,44.81643],[9.94675,44.78232],[10.0106,44.77647],[10.08888,44.74722],[10.08957,44.77209],[10.14862,44.84613],[10.10536,44.89528],[10.10948,44.95897]]],[[[9.70642,45.22461],[9.75929,45.27247],[9.76685,45.32174],[9.74968,45.40424],[9.70642,45.39845],[9.65286,45.43894],[9.59038,45.38929],[9.54369,45.3864],[9.52789,45.32029],[9.57252,45.27537],[9.61784,45.29663],[9.6357,45.28552],[9.62196,45.26184],[9.64119,45.24976],[9.6611,45.26184],[9.69406,45.25652],[9.70642,45.22461]]]]}},{"type":"Feature","properties":{"NAME":"Republic of Ancona","OHM_NAME":"Republic of Ancona","ADMIN_LEVEL":3,"OHM_RELATION_ID":2795688,"START_DATE":"1100","END_DATE":"1532"},"geometry":{"type":"MultiPolygon","coordinates":[[[[13.33912,43.65491],[13.29723,43.61644],[13.26239,43.62017],[13.24419,43.61495],[13.23853,43.60401],[13.23904,43.59307],[13.25809,43.58275],[13.32667,43.61184],[13.34796,43.59917],[13.30513,43.54606],[13.33603,43.46563],[13.54153,43.4353],[13.68892,43.48687],[13.67824,43.50792],[13.68045,43.552],[13.67204,43.56899],[13.61644,43.60026],[13.56116,43.65168],[13.49914,43.66987],[13.45667,43.65122],[13.36991,43.68649],[13.33912,43.65491]]]]}},{"type":"Feature","properties":{"NAME":"Republic of Genoa","OHM_NAME":"Republic of Genoa","ADMIN_LEVEL":4,"OHM_RELATION_ID":2854760,"START_DATE":"1099","END_DATE":"1191"},"geometry":{"type":"MultiPolygon","coordinates":[[[[8.09073,44.17314],[8.06731,44.14469],[8.04293,44.14283],[8.01401,44.15582],[7.97963,44.13846],[8.0126,44.12012],[8.00269,44.11663],[8.01225,44.11103],[8.00658,44.10232],[7.97128,44.11279],[7.94252,44.10059],[7.92601,44.1118],[7.88393,44.10588],[7.88154,44.11373],[7.81483,44.12399],[7.76473,44.14392],[7.72579,44.12618],[7.71458,44.10663],[7.73284,44.08351],[7.75451,44.08546],[7.73608,44.07623],[7.72761,44.05979],[7.71175,44.06064],[7.70292,44.0434],[7.6654,44.03108],[7.66162,44.02232],[7.67016,43.99849],[7.75173,43.95797],[7.75875,43.94253],[7.74261,43.90977],[7.72751,43.90432],[7.7354,43.87612],[7.71006,43.85491],[7.71378,43.83898],[7.68701,43.83332],[7.65163,43.84468],[7.61365,43.83888],[7.60355,43.86209],[7.58453,43.87262],[7.57936,43.89083],[7.55905,43.89718],[7.51009,43.88203],[7.49806,43.87185],[7.49591,43.85338],[7.50776,43.84184],[7.52951,43.78907],[7.53851,43.74613],[7.58948,43.75342],[7.68964,43.74253],[7.71959,43.75904],[7.75234,43.76069],[7.78904,43.77857],[7.84116,43.78085],[7.88425,43.79961],[7.96645,43.81332],[8.10101,43.86162],[8.12645,43.88665],[8.21333,43.9328],[8.22381,43.9532],[8.21367,43.98015],[8.26461,44.0211],[8.27604,44.04148],[8.27858,44.07979],[8.31867,44.1218],[8.44618,44.1588],[8.47413,44.18868],[8.47193,44.20946],[8.49953,44.2403],[8.50486,44.26805],[8.54913,44.29966],[8.75151,44.38709],[9.09726,44.33323],[9.09637,44.31463],[9.11604,44.29273],[9.20574,44.2642],[9.23721,44.26604],[9.27307,44.29204],[9.33193,44.26815],[9.34664,44.24486],[9.37222,44.22537],[9.46503,44.19855],[9.52,44.17254],[9.59888,44.10968],[9.63154,44.09865],[9.65738,44.10286],[9.71106,44.06215],[9.79085,44.02818],[9.82605,44.00057],[9.87648,44.00497],[9.89864,44.03037],[9.94451,44.00427],[9.99076,44.00092],[10.03194,44.06396],[10.07091,44.09308],[10.05815,44.10805],[10.02837,44.11903],[10.00512,44.1106],[9.99339,44.09269],[9.98356,44.09923],[9.99358,44.10462],[9.99506,44.11896],[9.97465,44.13755],[9.98077,44.14342],[9.97412,44.16682],[9.89215,44.16733],[9.93269,44.19604],[9.9149,44.19932],[9.90868,44.20848],[9.89121,44.20781],[9.86608,44.18337],[9.85247,44.19694],[9.82476,44.19796],[9.82096,44.22474],[9.80225,44.20574],[9.76277,44.20614],[9.76537,44.21202],[9.75445,44.21967],[9.75937,44.23415],[9.74765,44.25357],[9.78073,44.29412],[9.7556,44.32081],[9.72946,44.32833],[9.71887,44.35492],[9.69937,44.36637],[9.67506,44.36407],[9.65538,44.41231],[9.63827,44.41453],[9.60573,44.43488],[9.58491,44.42932],[9.55845,44.43863],[9.54094,44.42563],[9.49468,44.42362],[9.47903,44.40926],[9.46395,44.42477],[9.44292,44.41655],[9.43869,44.4293],[9.45767,44.44248],[9.47134,44.46864],[9.46912,44.48142],[9.49622,44.48297],[9.5052,44.52934],[9.48029,44.56297],[9.40867,44.56002],[9.42103,44.57359],[9.4172,44.59633],[9.39614,44.60997],[9.40439,44.64192],[9.36633,44.69043],[9.25974,44.67988],[9.23637,44.71498],[9.23204,44.70161],[9.24295,44.68667],[9.20032,44.6864],[9.16556,44.69259],[9.12789,44.72752],[9.07809,44.72177],[9.02911,44.74972],[9.0076,44.74961],[9.00381,44.7434],[9.02149,44.72893],[9.01943,44.71625],[9.00363,44.70909],[8.98822,44.71538],[8.94814,44.70085],[8.94448,44.70831],[8.89834,44.69798],[8.87215,44.70527],[8.84555,44.69489],[8.82749,44.71648],[8.8251,44.73078],[8.84687,44.76136],[8.84712,44.79828],[8.83027,44.8042],[8.79769,44.78275],[8.76559,44.78513],[8.75875,44.80047],[8.74409,44.80693],[8.73067,44.80492],[8.72193,44.793],[8.75974,44.74563],[8.79313,44.72329],[8.78803,44.71356],[8.77087,44.71625],[8.76279,44.69122],[8.78061,44.68302],[8.78934,44.66395],[8.81978,44.64017],[8.79393,44.61786],[8.80675,44.59671],[8.80378,44.58005],[8.81824,44.57115],[8.82574,44.55883],[8.82151,44.54752],[8.82827,44.54579],[8.79763,44.52538],[8.79986,44.5023],[8.7857,44.48754],[8.77119,44.48947],[8.76477,44.52966],[8.75216,44.52552],[8.7487,44.55015],[8.73894,44.55023],[8.72462,44.57862],[8.69718,44.57973],[8.67285,44.5967],[8.68452,44.61076],[8.67199,44.62078],[8.67452,44.64011],[8.663,44.656],[8.61771,44.65084],[8.60301,44.64289],[8.60062,44.63216],[8.61774,44.60831],[8.61339,44.60209],[8.62302,44.59689],[8.61876,44.57663],[8.5968,44.55525],[8.61191,44.54791],[8.58685,44.52515],[8.57174,44.52442],[8.57616,44.50923],[8.5501,44.50351],[8.53638,44.51242],[8.47406,44.5107],[8.4709,44.52218],[8.45938,44.51812],[8.44841,44.49866],[8.46098,44.49278],[8.46392,44.469],[8.44443,44.43873],[8.37691,44.4077],[8.34394,44.35061],[8.35537,44.33206],[8.33897,44.31992],[8.33761,44.29901],[8.31305,44.26241],[8.30527,44.25671],[8.27215,44.27228],[8.24781,44.27262],[8.27074,44.3023],[8.27178,44.31815],[8.31648,44.32667],[8.31794,44.34349],[8.28865,44.36692],[8.26738,44.35246],[8.25461,44.2998],[8.23228,44.29523],[8.23466,44.30556],[8.22329,44.32285],[8.21177,44.32459],[8.15617,44.272],[8.10173,44.2811],[8.06316,44.25337],[8.07736,44.23458],[8.06826,44.22749],[8.07592,44.20412],[8.14819,44.20636],[8.17026,44.21421],[8.17888,44.20199],[8.1769,44.18863],[8.18756,44.18405],[8.151,44.16472],[8.09073,44.17314]],[[8.11855,44.08968],[8.13478,44.09153],[8.13915,44.10423],[8.15074,44.10195],[8.14104,44.09295],[8.15349,44.07427],[8.15048,44.06773],[8.09787,44.07359],[8.08319,44.08931],[8.10551,44.09578],[8.11855,44.08968]],[[8.13778,44.15179],[8.1516,44.16029],[8.16464,44.15548],[8.17906,44.14132],[8.17237,44.14144],[8.19168,44.1335],[8.19683,44.12265],[8.19014,44.11039],[8.14816,44.11323],[8.14293,44.12555],[8.15289,44.13904],[8.13778,44.15179]]]]}},{"type":"Feature","properties":{"NAME":"Republic of Pisa","OHM_NAME":"Republic of Pisa (1399-1406)","ADMIN_LEVEL":4,"OHM_RELATION_ID":2853300,"START_DATE":"1050","END_DATE":"1115"},"geometry":{"type":"MultiPolygon","coordinates":[[[[10.54143,43.75655],[10.5255,43.76191],[10.50111,43.75345],[10.45152,43.7675],[10.43991,43.7896],[10.45136,43.80282],[10.42086,43.83235],[10.38127,43.81404],[10.30859,43.82901],[10.20922,43.80719],[10.22982,43.69992],[10.2215,43.68833],[10.22121,43.66793],[10.23574,43.63868],[10.24666,43.57732],[10.24119,43.55283],[10.25516,43.51665],[10.27018,43.50006],[10.28588,43.45727],[10.31444,43.43458],[10.3379,43.42669],[10.36517,43.37839],[10.38674,43.36717],[10.4137,43.30768],[10.46009,43.26989],[10.47835,43.22779],[10.48988,43.14419],[10.48428,43.06801],[10.47616,43.03782],[10.43998,43.00647],[10.43354,42.99073],[10.43819,42.94618],[10.46328,42.90513],[10.52962,42.88368],[10.57242,42.89098],[10.59697,42.91577],[10.68547,42.90844],[10.73543,42.97793],[10.73837,43.0111],[10.7478,43.01659],[10.77984,43.00389],[10.79095,43.01476],[10.78775,43.05568],[10.779,43.06709],[10.72433,43.07555],[10.71728,43.10848],[10.73739,43.1456],[10.77694,43.14144],[10.80082,43.15983],[10.84184,43.15254],[10.91165,43.16256],[10.91229,43.1741],[10.93408,43.20256],[10.92929,43.23206],[10.93527,43.24048],[10.98097,43.23463],[10.98891,43.2399],[10.99447,43.26942],[10.96159,43.29778],[10.95344,43.3176],[10.96039,43.33305],[10.99813,43.34722],[11.00686,43.36892],[10.99523,43.40388],[10.95212,43.45223],[10.88537,43.45991],[10.86048,43.472],[10.8438,43.49911],[10.83523,43.53124],[10.83635,43.58415],[10.81969,43.61344],[10.82892,43.62273],[10.88937,43.62796],[10.91057,43.65128],[10.90726,43.68012],[10.8659,43.73041],[10.79348,43.71898],[10.77566,43.7371],[10.72794,43.76322],[10.68774,43.8052],[10.65501,43.80245],[10.62311,43.75691],[10.59717,43.75981],[10.55597,43.74952],[10.54143,43.75655]]],[[[10.72799,42.89005],[10.71897,42.86882],[10.72353,42.84414],[10.69027,42.82515],[10.68221,42.79423],[10.69967,42.77326],[10.77896,42.73824],[10.88731,42.72106],[10.99663,42.8323],[10.99937,42.85722],[10.87095,42.96813],[10.84655,42.96782],[10.72799,42.89005]]],[[[11.29406,42.40833],[11.28948,42.43993],[11.227,42.49906],[11.20683,42.5071],[11.14185,42.50078],[11.13821,42.4794],[11.08341,42.48081],[11.05597,42.46131],[11.03731,42.4331],[11.03961,42.39577],[11.06328,42.3672],[11.14977,42.3243],[11.20895,42.33013],[11.25916,42.37457],[11.30484,42.36965],[11.29406,42.40833]]],[[[8.54945,42.41847],[8.51655,42.41137],[8.48397,42.37949],[8.50594,42.31478],[8.5318,42.29699],[8.55466,42.29217],[8.56195,42.28206],[8.50628,42.26784],[8.48872,42.24876],[8.48983,42.22173],[8.51586,42.19309],[8.50614,42.13659],[8.54582,42.10049],[8.59354,42.09013],[8.62832,42.06882],[8.65857,42.0615],[8.62078,42.03915],[8.60295,42.01255],[8.56458,41.9984],[8.54154,41.97695],[8.53911,41.95419],[8.55731,41.91785],[8.53833,41.89262],[8.53336,41.86585],[8.55042,41.84418],[8.58909,41.83412],[8.6283,41.84373],[8.64784,41.86687],[8.70701,41.86744],[8.69705,41.84227],[8.66123,41.81546],[8.65685,41.79184],[8.61245,41.76773],[8.60936,41.72541],[8.63,41.70685],[8.66148,41.70033],[8.68963,41.68429],[8.73329,41.68457],[8.76035,41.66373],[8.74304,41.64673],[8.72434,41.6069],[8.72357,41.57972],[8.74475,41.53646],[8.78568,41.51506],[8.80763,41.48857],[8.90123,41.45178],[8.93395,41.45022],[9.0315,41.41766],[9.04285,41.38268],[9.05902,41.36354],[9.09427,41.35152],[9.11814,41.3531],[9.15515,41.33177],[9.19629,41.32611],[9.23461,41.29868],[9.26983,41.29181],[9.32845,41.34243],[9.32549,41.38038],[9.30877,41.39951],[9.34026,41.48275],[9.37396,41.47204],[9.39926,41.4731],[9.43168,41.50028],[9.43292,41.51245],[9.42049,41.53402],[9.42843,41.55788],[9.41788,41.61],[9.44651,41.65627],[9.45958,41.71038],[9.45252,41.87165],[9.46664,41.91158],[9.46579,41.94509],[9.59222,42.08014],[9.60774,42.11941],[9.61235,42.28919],[9.58579,42.38017],[9.59647,42.42447],[9.58294,42.49343],[9.58659,42.54766],[9.56214,42.60265],[9.50028,42.67336],[9.52088,42.75311],[9.5424,42.78594],[9.54526,42.81327],[9.52572,42.92581],[9.50963,42.96347],[9.51635,42.98205],[9.51066,43.00464],[9.44363,43.05547],[9.4162,43.06593],[9.38518,43.06376],[9.3108,43.0294],[9.28809,43.00238],[9.29746,42.94051],[9.2706,42.90852],[9.27577,42.86886],[9.25622,42.83207],[9.28721,42.78635],[9.287,42.75001],[9.22455,42.77453],[9.15851,42.7756],[9.10196,42.76718],[9.02247,42.7261],[8.99723,42.6843],[8.96227,42.67791],[8.91522,42.68264],[8.85324,42.66336],[8.83284,42.64761],[8.77737,42.63678],[8.7529,42.61775],[8.73201,42.62301],[8.69504,42.61688],[8.65937,42.5906],[8.65304,42.5713],[8.65709,42.55556],[8.63601,42.54781],[8.61659,42.52903],[8.59636,42.47932],[8.59808,42.45504],[8.56553,42.44218],[8.54945,42.41847]]]]}}],"metadata":{"source":"OpenHistoricalMap","sourceUrl":"https://www.openhistoricalmap.org/","license":"CC0-1.0","year":1100,"featureCount":7,"missingWays":{},"unclosedRings":{"2805420":1},"droppedInnerRings":{},"droppedPartsOutsideBbox":{},"relationsWithoutGeometry":[]}}