{"type":"FeatureCollection","features":[{"type":"Feature","properties":{"NAME":"County of Asti","OHM_NAME":"County of Asti","ADMIN_LEVEL":4,"OHM_RELATION_ID":2800677,"START_DATE":"1095","END_DATE":"1531"},"geometry":{"type":"MultiPolygon","coordinates":[[[[8.028,44.799],[8.2,44.785],[8.307,44.833],[8.356,44.944],[8.332,44.995],[8.28,45.015],[8.058,45.072],[7.983,45.024],[7.932,44.923],[7.935,44.87],[8.028,44.799]]]]}},{"type":"Feature","properties":{"NAME":"County of Guastalla","OHM_NAME":"County of Guastalla","ADMIN_LEVEL":4,"OHM_RELATION_ID":2826403,"START_DATE":"1428","END_DATE":"1621"},"geometry":{"type":"MultiPolygon","coordinates":[[[[10.877,44.917],[10.835,44.936],[10.744,44.949],[10.742,44.977],[10.728,44.992],[10.714,44.987],[10.7,44.964],[10.689,44.965],[10.693,44.977],[10.649,44.961],[10.634,44.926],[10.649,44.903],[10.639,44.881],[10.646,44.864],[10.641,44.853],[10.686,44.878],[10.729,44.886],[10.743,44.898],[10.769,44.882],[10.787,44.898],[10.813,44.894],[10.874,44.905],[10.877,44.917]]]]}},{"type":"Feature","properties":{"NAME":"County of Pitigliano","OHM_NAME":"County of Pitigliano","ADMIN_LEVEL":4,"OHM_RELATION_ID":2751172,"START_DATE":"1336","END_DATE":"1604"},"geometry":{"type":"MultiPolygon","coordinates":[[[[11.7,42.686],[11.718,42.664],[11.711,42.658],[11.667,42.655],[11.612,42.622],[11.604,42.6],[11.606,42.568],[11.613,42.561],[11.671,42.577],[11.699,42.602],[11.735,42.616],[11.754,42.643],[11.787,42.651],[11.789,42.711],[11.807,42.743],[11.79,42.755],[11.762,42.752],[11.732,42.737],[11.7,42.686]]]]}},{"type":"Feature","properties":{"NAME":"County of Santa Fiora","OHM_NAME":"County of Santa Fiora","ADMIN_LEVEL":4,"OHM_RELATION_ID":2852381,"START_DATE":"1274","END_DATE":"1806"},"geometry":{"type":"MultiPolygon","coordinates":[[[[11.747,42.798],[11.61,42.815],[11.602,42.85],[11.554,42.847],[11.532,42.824],[11.546,42.77],[11.7,42.686],[11.732,42.737],[11.762,42.752],[11.79,42.755],[11.774,42.781],[11.747,42.798]]]]}},{"type":"Feature","properties":{"NAME":"County of Sovana","OHM_NAME":"County of Sovana","ADMIN_LEVEL":4,"OHM_RELATION_ID":2852382,"START_DATE":"1274","END_DATE":"1806"},"geometry":{"type":"Polygon","coordinates":[[[11.405,42.447],[11.475,42.422],[11.498,42.434],[11.599,42.445],[11.607,42.46],[11.608,42.487],[11.566,42.516],[11.586,42.536],[11.588,42.566],[11.601,42.57],[11.605,42.587],[11.604,42.6],[11.612,42.622],[11.667,42.655],[11.711,42.658],[11.718,42.664],[11.7,42.686],[11.643,42.696],[11.594,42.676],[11.405,42.483],[11.405,42.447]]]}},{"type":"Feature","properties":{"NAME":"Duchy of Ferrara","OHM_NAME":"Duchy of Ferrara (1471-1597)","ADMIN_LEVEL":4,"OHM_RELATION_ID":2750992,"START_DATE":"1471","END_DATE":"1597"},"geometry":{"type":"Polygon","coordinates":[[[11.175,45.074],[11.175,45.063],[11.204,45.059],[11.211,45.058],[11.213,45.057],[11.216,45.057],[11.225,45.05],[11.235,45.044],[11.245,45.047],[11.263,45.056],[11.266,45.054],[11.268,45.054],[11.267,45.053],[11.271,45.05],[11.265,45.03],[11.278,45.017],[11.303,45.017],[11.304,45.016],[11.306,45.016],[11.328,44.995],[11.422,44.965],[11.427,44.955],[11.404,44.948],[11.396,44.951],[11.374,44.957],[11.357,44.95],[11.328,44.962],[11.306,44.962],[11.298,44.96],[11.277,44.946],[11.272,44.938],[11.256,44.946],[11.25,44.949],[11.261,44.934],[11.239,44.906],[11.327,44.875],[11.35,44.874],[11.369,44.841],[11.347,44.83],[11.312,44.827],[11.265,44.782],[11.26,44.767],[11.273,44.749],[11.258,44.712],[11.287,44.712],[11.355,44.77],[11.388,44.779],[11.402,44.767],[11.455,44.76],[11.582,44.708],[11.593,44.712],[11.632,44.673],[11.673,44.634],[11.688,44.63],[11.7,44.637],[11.723,44.636],[11.727,44.653],[11.8,44.635],[11.795,44.632],[11.805,44.624],[11.787,44.607],[11.786,44.585],[11.75,44.58],[11.77,44.565],[11.79,44.566],[11.789,44.555],[11.827,44.561],[11.853,44.556],[11.88,44.58],[11.994,44.6],[12.002,44.6],[12.029,44.559],[12.055,44.551],[12.178,44.564],[12.224,44.584],[12.269,44.63],[12.319,44.64],[12.301,44.661],[12.29,44.696],[12.304,44.763],[12.392,44.748],[12.443,44.772],[12.354,44.816],[12.338,44.851],[12.294,44.861],[12.282,44.908],[12.293,44.93],[12.269,44.942],[12.237,44.974],[12.075,45.019],[12.068,45.007],[12.091,44.989],[12.06,44.977],[12.023,45.007],[11.999,44.998],[12.003,45.012],[11.927,44.996],[11.89,45.03],[11.835,45.013],[11.849,44.997],[11.839,44.973],[11.811,44.978],[11.787,44.964],[11.744,44.958],[11.724,44.944],[11.545,44.984],[11.446,45.069],[11.403,45.053],[11.36,45.058],[11.356,45.07],[11.322,45.08],[11.318,45.089],[11.268,45.093],[11.226,45.083],[11.204,45.1],[11.206,45.109],[11.177,45.097],[11.176,45.088],[11.188,45.086],[11.186,45.084],[11.188,45.083],[11.175,45.074]]]}},{"type":"Feature","properties":{"NAME":"Duchy of Massa and Carrara","OHM_NAME":"Duchy of Massa and Carrara","ADMIN_LEVEL":4,"OHM_RELATION_ID":2852271,"START_DATE":"1473-02-22","END_DATE":"1648"},"geometry":{"type":"MultiPolygon","coordinates":[[[[10.047,44.115],[10.067,44.099],[10.069,44.089],[10.033,44.065],[9.992,44.001],[10.002,44.004],[10.047,43.991],[10.096,43.959],[10.151,43.988],[10.149,44.012],[10.168,44.033],[10.185,44.039],[10.2,44.035],[10.224,44.052],[10.243,44.086],[10.233,44.107],[10.214,44.119],[10.19,44.122],[10.151,44.107],[10.137,44.119],[10.06,44.13],[10.047,44.115]]]]}},{"type":"Feature","properties":{"NAME":"Duchy of Mirandola","OHM_NAME":"Duchy of Mirandola","ADMIN_LEVEL":4,"OHM_RELATION_ID":2852272,"START_DATE":"1310","END_DATE":"1648-10-24"},"geometry":{"type":"MultiPolygon","coordinates":[[[[11.246,44.951],[11.153,44.933],[11.12,44.954],[11.073,44.963],[11.059,44.949],[10.99,44.952],[10.968,44.936],[10.951,44.933],[10.95,44.92],[10.954,44.894],[10.977,44.86],[11.122,44.864],[11.221,44.883],[11.261,44.934],[11.246,44.951]]]]}},{"type":"Feature","properties":{"NAME":"Duchy of Modena and Reggio","OHM_NAME":"Duchy of Modena and Reggio","ADMIN_LEVEL":4,"OHM_RELATION_ID":2751113,"START_DATE":"1452-05-18","END_DATE":"1597"},"geometry":{"type":"Polygon","coordinates":[[[10.143,44.354],[10.185,44.321],[10.199,44.321],[10.208,44.303],[10.225,44.3],[10.251,44.272],[10.308,44.284],[10.318,44.276],[10.381,44.264],[10.427,44.229],[10.464,44.231],[10.484,44.223],[10.485,44.205],[10.523,44.175],[10.52,44.167],[10.527,44.156],[10.542,44.15],[10.559,44.167],[10.599,44.145],[10.58,44.13],[10.587,44.117],[10.612,44.117],[10.625,44.121],[10.631,44.117],[10.641,44.129],[10.661,44.132],[10.663,44.153],[10.69,44.157],[10.758,44.153],[10.781,44.131],[10.813,44.116],[10.808,44.154],[10.821,44.182],[10.856,44.208],[10.85,44.228],[10.89,44.225],[10.897,44.207],[10.908,44.206],[10.94,44.225],[10.957,44.227],[10.97,44.26],[10.951,44.287],[10.953,44.297],[11.021,44.308],[11.034,44.315],[11.04,44.332],[11.025,44.369],[11.049,44.416],[11.038,44.427],[10.996,44.429],[10.99,44.44],[11.047,44.466],[11.066,44.5],[11.05,44.549],[11.057,44.571],[11.044,44.575],[11.043,44.587],[11.015,44.607],[11.005,44.629],[10.984,44.628],[10.991,44.638],[10.983,44.644],[10.985,44.657],[10.999,44.659],[11.049,44.642],[11.054,44.655],[11.074,44.648],[11.116,44.707],[11.134,44.787],[11.208,44.804],[11.287,44.803],[11.312,44.827],[11.347,44.83],[11.369,44.841],[11.348,44.873],[11.346,44.874],[11.327,44.875],[11.239,44.906],[11.221,44.883],[11.122,44.864],[10.977,44.86],[10.954,44.894],[10.95,44.92],[10.95,44.927],[10.941,44.922],[10.919,44.924],[10.917,44.924],[10.885,44.91],[10.877,44.894],[10.882,44.874],[10.872,44.866],[10.863,44.867],[10.86,44.865],[10.84,44.868],[10.842,44.899],[10.818,44.895],[10.816,44.895],[10.813,44.894],[10.788,44.898],[10.77,44.882],[10.769,44.882],[10.744,44.897],[10.731,44.886],[10.686,44.878],[10.642,44.853],[10.641,44.853],[10.644,44.858],[10.646,44.866],[10.639,44.881],[10.647,44.906],[10.642,44.914],[10.631,44.924],[10.627,44.923],[10.624,44.921],[10.602,44.917],[10.568,44.925],[10.529,44.91],[10.525,44.911],[10.522,44.91],[10.514,44.913],[10.508,44.915],[10.489,44.904],[10.48,44.887],[10.491,44.883],[10.47,44.876],[10.466,44.855],[10.479,44.853],[10.498,44.882],[10.578,44.879],[10.583,44.877],[10.567,44.847],[10.584,44.843],[10.538,44.831],[10.529,44.799],[10.49,44.787],[10.475,44.768],[10.43,44.766],[10.435,44.754],[10.426,44.742],[10.447,44.728],[10.448,44.719],[10.414,44.668],[10.416,44.632],[10.398,44.608],[10.402,44.564],[10.383,44.545],[10.363,44.543],[10.344,44.526],[10.324,44.479],[10.263,44.451],[10.22,44.406],[10.15,44.368],[10.143,44.354]]]}},{"type":"Feature","properties":{"NAME":"Lordship of Piombino","OHM_NAME":"Lordship of Piombino","ADMIN_LEVEL":4,"OHM_RELATION_ID":2852270,"START_DATE":"1399","END_DATE":"1594"},"geometry":{"type":"MultiPolygon","coordinates":[[[[10.892,42.72],[10.997,42.832],[10.999,42.857],[10.871,42.968],[10.847,42.968],[10.728,42.89],[10.719,42.869],[10.724,42.844],[10.69,42.825],[10.682,42.794],[10.7,42.773],[10.756,42.745],[10.892,42.72]]],[[[10.722,43.084],[10.683,43.088],[10.657,43.078],[10.693,43.021],[10.607,43],[10.585,43.004],[10.53,43.045],[10.479,43.048],[10.434,42.991],[10.438,42.946],[10.454,42.913],[10.498,42.89],[10.53,42.884],[10.572,42.891],[10.597,42.916],[10.685,42.908],[10.735,42.978],[10.738,43.011],[10.748,43.017],[10.78,43.004],[10.791,43.015],[10.788,43.056],[10.779,43.067],[10.737,43.071],[10.722,43.084]]],[[[10.078,42.826],[10.051,42.793],[10.058,42.746],[10.088,42.713],[10.138,42.69],[10.192,42.695],[10.243,42.687],[10.276,42.697],[10.332,42.698],[10.385,42.672],[10.428,42.669],[10.474,42.688],[10.487,42.711],[10.478,42.754],[10.487,42.772],[10.485,42.817],[10.496,42.839],[10.495,42.856],[10.47,42.885],[10.436,42.908],[10.409,42.912],[10.377,42.902],[10.339,42.86],[10.256,42.869],[10.215,42.848],[10.13,42.847],[10.078,42.826]]]]}},{"type":"Feature","properties":{"NAME":"Lordship of Rimini","OHM_NAME":"Lordship of Rimini","ADMIN_LEVEL":3,"OHM_RELATION_ID":2800702,"START_DATE":"1295","END_DATE":"1500"},"geometry":{"type":"MultiPolygon","coordinates":[[[[11.97,44.179],[11.933,44.144],[11.945,44.14],[11.946,44.122],[11.939,44.118],[11.932,44.135],[11.913,44.131],[11.924,44.093],[11.917,44.072],[11.927,44.056],[11.951,44.051],[11.924,44.039],[11.93,44.028],[11.923,44.017],[11.926,44.001],[11.93,43.989],[11.956,43.975],[11.956,43.963],[11.936,43.962],[11.928,43.972],[11.914,43.968],[11.916,43.952],[11.909,43.947],[11.93,43.937],[11.953,43.906],[11.984,43.907],[12.007,43.916],[12.011,43.939],[12.029,43.942],[12.03,43.925],[12.049,43.919],[12.043,43.935],[12.063,43.955],[12.093,43.956],[12.133,43.935],[12.15,43.961],[12.165,43.957],[12.156,43.943],[12.174,43.934],[12.169,43.924],[12.153,43.922],[12.148,43.937],[12.125,43.92],[12.111,43.92],[12.108,43.914],[12.119,43.903],[12.113,43.9],[12.093,43.898],[12.095,43.912],[12.087,43.913],[12.071,43.905],[12.068,43.889],[12.083,43.892],[12.088,43.867],[12.122,43.876],[12.114,43.884],[12.123,43.901],[12.127,43.887],[12.153,43.868],[12.138,43.848],[12.151,43.838],[12.148,43.829],[12.131,43.827],[12.119,43.802],[12.102,43.79],[12.096,43.765],[12.108,43.754],[12.138,43.753],[12.162,43.762],[12.192,43.735],[12.209,43.757],[12.228,43.76],[12.248,43.752],[12.257,43.761],[12.283,43.765],[12.29,43.787],[12.286,43.795],[12.316,43.806],[12.353,43.801],[12.367,43.812],[12.383,43.814],[12.398,43.826],[12.394,43.861],[12.401,43.873],[12.446,43.872],[12.462,43.888],[12.44,43.906],[12.41,43.902],[12.408,43.922],[12.415,43.929],[12.404,43.955],[12.435,43.957],[12.508,43.991],[12.516,43.986],[12.506,43.971],[12.516,43.941],[12.494,43.92],[12.487,43.896],[12.499,43.873],[12.518,43.881],[12.541,43.865],[12.562,43.871],[12.564,43.883],[12.588,43.884],[12.622,43.825],[12.681,43.828],[12.682,43.851],[12.726,43.863],[12.734,43.871],[12.723,43.881],[12.732,43.901],[12.728,43.92],[12.774,44.002],[12.722,44.017],[12.606,44.11],[12.574,44.117],[12.432,44.242],[12.383,44.227],[12.348,44.192],[12.287,44.229],[12.263,44.232],[12.219,44.215],[12.201,44.23],[12.209,44.256],[12.174,44.243],[12.103,44.272],[12.108,44.288],[12.064,44.302],[12.043,44.328],[12.032,44.33],[11.974,44.255],[11.915,44.209],[11.935,44.203],[11.936,44.193],[11.963,44.207],[11.97,44.179]]]]}},{"type":"Feature","properties":{"NAME":"March of Montferrat","OHM_NAME":"March of Montferrat","ADMIN_LEVEL":6,"OHM_RELATION_ID":2800678,"START_DATE":"1000","END_DATE":"1708"},"geometry":{"type":"MultiPolygon","coordinates":[[[[8.358,44.465],[8.394,44.479],[8.399,44.501],[8.417,44.513],[8.447,44.499],[8.469,44.522],[8.48,44.511],[8.576,44.507],[8.601,44.546],[8.599,44.566],[8.607,44.583],[8.621,44.589],[8.577,44.723],[8.562,44.846],[8.563,44.933],[8.641,45.044],[8.638,45.049],[8.647,45.055],[8.637,45.067],[8.646,45.075],[8.608,45.108],[8.614,45.127],[8.592,45.131],[8.58,45.153],[8.555,45.157],[8.527,45.244],[8.128,45.257],[8.094,45.249],[8.07,45.2],[7.951,45.196],[8.03,45.131],[8.058,45.072],[8.28,45.015],[8.332,44.995],[8.356,44.944],[8.307,44.833],[8.2,44.785],[8.028,44.799],[8.008,44.733],[7.918,44.706],[7.879,44.639],[7.913,44.555],[7.914,44.458],[7.969,44.423],[8.043,44.397],[8.113,44.491],[8.262,44.519],[8.272,44.506],[8.303,44.503],[8.324,44.488],[8.35,44.485],[8.358,44.465]]]]}},{"type":"Feature","properties":{"NAME":"Margraviate of Mantua","OHM_NAME":"Margraviate of Mantua","ADMIN_LEVEL":4,"OHM_RELATION_ID":2852514,"START_DATE":"1478-06-11","END_DATE":"1529"},"geometry":{"type":"Polygon","coordinates":[[[10.309,45.192],[10.364,45.162],[10.378,45.139],[10.387,45.144],[10.416,45.13],[10.422,45.132],[10.419,45.14],[10.458,45.148],[10.479,45.145],[10.492,45.132],[10.458,45.12],[10.463,45.094],[10.417,45.092],[10.412,45.046],[10.42,45.041],[10.467,45.059],[10.494,45.057],[10.49,45.082],[10.533,45.075],[10.541,45.063],[10.531,45.051],[10.558,45.024],[10.557,45.017],[10.602,45.012],[10.601,45.005],[10.561,44.994],[10.523,44.972],[10.51,44.972],[10.497,44.949],[10.471,44.945],[10.486,44.924],[10.522,44.91],[10.568,44.925],[10.602,44.917],[10.624,44.921],[10.636,44.93],[10.649,44.961],[10.652,44.962],[10.654,44.966],[10.682,44.973],[10.693,44.977],[10.692,44.976],[10.697,44.977],[10.691,44.97],[10.69,44.965],[10.692,44.964],[10.698,44.964],[10.701,44.966],[10.714,44.987],[10.726,44.992],[10.727,44.991],[10.728,44.992],[10.742,44.977],[10.744,44.953],[10.8,44.943],[10.803,44.94],[10.835,44.936],[10.855,44.927],[10.864,44.93],[10.876,44.922],[10.875,44.918],[10.877,44.917],[10.874,44.905],[10.842,44.899],[10.84,44.868],[10.86,44.865],[10.882,44.874],[10.875,44.89],[10.888,44.915],[10.917,44.924],[10.941,44.922],[10.95,44.927],[10.951,44.933],[10.963,44.935],[10.981,44.945],[10.99,44.952],[10.992,44.952],[10.997,44.955],[11.055,44.95],[11.073,44.963],[11.104,44.958],[11.108,44.956],[11.12,44.954],[11.151,44.935],[11.221,44.947],[11.246,44.951],[11.248,44.949],[11.271,44.941],[11.302,44.962],[11.328,44.962],[11.357,44.95],[11.372,44.958],[11.406,44.948],[11.427,44.955],[11.422,44.965],[11.33,44.993],[11.306,45.016],[11.279,45.017],[11.265,45.03],[11.271,45.05],[11.263,45.056],[11.236,45.043],[11.211,45.058],[11.175,45.06],[11.175,45.074],[11.188,45.083],[11.176,45.088],[11.177,45.097],[11.206,45.109],[11.147,45.126],[11.138,45.124],[11.127,45.103],[11.102,45.113],[11.095,45.1],[11.075,45.098],[11.04,45.114],[11.029,45.127],[11.044,45.134],[11.042,45.143],[11.05,45.15],[11.032,45.15],[11.028,45.159],[11.01,45.149],[10.993,45.153],[10.998,45.185],[10.991,45.196],[10.933,45.214],[10.936,45.233],[10.846,45.257],[10.83,45.285],[10.783,45.316],[10.737,45.287],[10.728,45.292],[10.731,45.316],[10.71,45.316],[10.71,45.345],[10.727,45.358],[10.696,45.385],[10.704,45.402],[10.702,45.423],[10.662,45.419],[10.639,45.386],[10.584,45.383],[10.58,45.364],[10.539,45.312],[10.504,45.305],[10.465,45.335],[10.466,45.325],[10.429,45.321],[10.424,45.297],[10.435,45.274],[10.504,45.275],[10.514,45.258],[10.513,45.241],[10.495,45.228],[10.495,45.219],[10.505,45.216],[10.483,45.194],[10.488,45.19],[10.479,45.188],[10.486,45.18],[10.458,45.174],[10.451,45.187],[10.423,45.184],[10.396,45.195],[10.404,45.169],[10.391,45.183],[10.374,45.185],[10.384,45.193],[10.361,45.215],[10.344,45.211],[10.344,45.204],[10.318,45.205],[10.309,45.192]]]}},{"type":"Feature","properties":{"NAME":"Marquisate of Saluzzo","OHM_NAME":"Marquisate of Saluzzo","ADMIN_LEVEL":4,"OHM_RELATION_ID":2892597,"START_DATE":"1190","END_DATE":"1548-02-23"},"geometry":{"type":"MultiPolygon","coordinates":[[[[7.478,44.758],[7.448,44.755],[7.451,44.739],[7.426,44.725],[7.341,44.706],[7.336,44.681],[7.311,44.684],[7.288,44.706],[7.264,44.715],[7.217,44.715],[7.149,44.743],[7.129,44.739],[7.121,44.726],[7.065,44.714],[7.077,44.682],[7.029,44.692],[6.99,44.69],[6.963,44.678],[6.948,44.655],[6.916,44.66],[6.882,44.631],[6.858,44.63],[6.855,44.615],[6.839,44.609],[6.78,44.538],[6.794,44.503],[6.814,44.37],[6.88,44.36],[6.919,44.339],[6.961,44.286],[6.964,44.238],[7.03,44.225],[7.126,44.175],[7.149,44.19],[7.197,44.275],[7.223,44.286],[7.28,44.287],[7.331,44.272],[7.41,44.321],[7.454,44.334],[7.43,44.399],[7.377,44.39],[7.376,44.467],[7.357,44.503],[7.381,44.529],[7.425,44.525],[7.436,44.562],[7.5,44.624],[7.508,44.65],[7.469,44.657],[7.478,44.758]]]]}},{"type":"Feature","properties":{"NAME":"Principality of Oneglia","OHM_NAME":"Principality of Oneglia (1488-1576)","ADMIN_LEVEL":3,"OHM_RELATION_ID":2835534,"START_DATE":"1488","END_DATE":"1576"},"geometry":{"type":"MultiPolygon","coordinates":[[[[8.138,44.152],[8.153,44.142],[8.144,44.135],[8.148,44.113],[8.178,44.108],[8.197,44.123],[8.185,44.136],[8.169,44.139],[8.175,44.141],[8.159,44.159],[8.138,44.152]]],[[[8.318,44.121],[8.256,44.152],[8.235,44.143],[8.247,44.118],[8.291,44.097],[8.311,44.108],[8.318,44.121]]],[[[8.119,44.09],[8.106,44.096],[8.082,44.092],[8.098,44.074],[8.12,44.075],[8.141,44.065],[8.151,44.07],[8.144,44.082],[8.119,44.09]]],[[[8.007,43.999],[7.975,44.02],[7.926,43.999],[7.914,44.005],[7.926,44.025],[7.902,44.039],[7.8,44.038],[7.811,44.006],[7.848,43.987],[7.85,43.973],[7.83,43.966],[7.843,43.948],[7.876,43.935],[7.88,43.926],[7.908,43.92],[7.963,43.915],[7.991,43.924],[8.018,43.897],[8.034,43.892],[8.062,43.848],[8.096,43.856],[8.034,43.933],[8.018,43.975],[8.037,43.983],[8.083,43.984],[8.095,44.002],[8.09,44.013],[8.108,44.017],[8.121,44.038],[8.1,44.044],[8.075,44.032],[8.069,44.017],[8.024,44.017],[8.007,43.999]]]]}},{"type":"Feature","properties":{"NAME":"Republic of Ancona","OHM_NAME":"Republic of Ancona","ADMIN_LEVEL":3,"OHM_RELATION_ID":2795688,"START_DATE":"1100","END_DATE":"1532"},"geometry":{"type":"MultiPolygon","coordinates":[[[[13.339,43.655],[13.297,43.616],[13.262,43.62],[13.244,43.615],[13.239,43.604],[13.239,43.593],[13.258,43.583],[13.327,43.612],[13.348,43.599],[13.305,43.546],[13.336,43.466],[13.542,43.435],[13.689,43.487],[13.678,43.508],[13.68,43.552],[13.672,43.569],[13.616,43.6],[13.561,43.652],[13.499,43.67],[13.457,43.651],[13.37,43.686],[13.339,43.655]]]]}},{"type":"Feature","properties":{"NAME":"Republic of Florence","OHM_NAME":"Duchy of Florence","ADMIN_LEVEL":4,"OHM_RELATION_ID":2800633,"START_DATE":"1406","END_DATE":"1555"},"geometry":{"type":"Polygon","coordinates":[[[10.209,43.807],[10.23,43.7],[10.222,43.688],[10.221,43.668],[10.236,43.639],[10.247,43.577],[10.241,43.553],[10.255,43.517],[10.27,43.5],[10.286,43.457],[10.314,43.435],[10.338,43.427],[10.365,43.378],[10.392,43.36],[10.414,43.308],[10.46,43.27],[10.476,43.235],[10.49,43.144],[10.479,43.048],[10.53,43.045],[10.585,43.004],[10.607,43],[10.693,43.021],[10.657,43.078],[10.683,43.088],[10.722,43.084],[10.717,43.108],[10.737,43.146],[10.739,43.145],[10.74,43.148],[10.781,43.144],[10.801,43.16],[10.842,43.153],[10.912,43.163],[10.912,43.174],[10.934,43.203],[10.929,43.232],[10.935,43.24],[10.981,43.235],[10.99,43.247],[10.993,43.26],[10.988,43.275],[10.957,43.304],[10.96,43.333],[11.194,43.417],[11.409,43.438],[11.799,43.203],[11.922,43.138],[11.945,43.168],[11.961,43.166],[11.956,43.176],[12.006,43.194],[12.023,43.242],[12.037,43.255],[12.092,43.245],[12.122,43.26],[12.158,43.263],[12.213,43.291],[12.215,43.3],[12.203,43.318],[12.194,43.318],[12.169,43.296],[12.143,43.298],[12.133,43.357],[12.081,43.372],[12.075,43.407],[12.037,43.417],[12.057,43.437],[12.134,43.481],[12.13,43.496],[12.098,43.511],[12.098,43.518],[12.137,43.532],[12.214,43.611],[12.186,43.642],[12.24,43.661],[12.25,43.669],[12.244,43.681],[12.273,43.676],[12.299,43.688],[12.306,43.698],[12.301,43.72],[12.31,43.73],[12.321,43.694],[12.316,43.678],[12.331,43.674],[12.336,43.678],[12.33,43.704],[12.356,43.704],[12.37,43.707],[12.37,43.713],[12.327,43.751],[12.283,43.765],[12.257,43.761],[12.248,43.752],[12.228,43.76],[12.209,43.757],[12.196,43.735],[12.193,43.737],[12.192,43.735],[12.184,43.742],[12.172,43.749],[12.166,43.758],[12.162,43.762],[12.152,43.758],[12.138,43.753],[12.135,43.753],[12.124,43.749],[12.117,43.753],[12.108,43.754],[12.096,43.765],[12.102,43.79],[12.104,43.791],[12.105,43.795],[12.111,43.796],[12.119,43.802],[12.131,43.827],[12.148,43.829],[12.147,43.841],[12.138,43.848],[12.144,43.856],[12.143,43.863],[12.153,43.868],[12.127,43.887],[12.123,43.901],[12.114,43.884],[12.122,43.876],[12.09,43.865],[12.09,43.867],[12.088,43.867],[12.083,43.89],[12.068,43.889],[12.071,43.905],[12.079,43.909],[12.084,43.914],[12.086,43.913],[12.087,43.913],[12.095,43.912],[12.095,43.909],[12.098,43.908],[12.093,43.898],[12.116,43.901],[12.117,43.902],[12.108,43.911],[12.109,43.913],[12.108,43.914],[12.111,43.92],[12.118,43.92],[12.128,43.922],[12.132,43.925],[12.136,43.934],[12.148,43.937],[12.153,43.922],[12.16,43.923],[12.167,43.925],[12.172,43.929],[12.173,43.933],[12.158,43.94],[12.158,43.942],[12.156,43.943],[12.158,43.947],[12.16,43.958],[12.156,43.959],[12.149,43.959],[12.133,43.935],[12.093,43.956],[12.062,43.955],[12.044,43.936],[12.051,43.928],[12.048,43.923],[12.049,43.919],[12.046,43.92],[12.045,43.919],[12.03,43.921],[12.03,43.926],[12.029,43.94],[12.015,43.938],[12.009,43.924],[12.007,43.916],[12.005,43.915],[12.003,43.911],[11.984,43.907],[11.953,43.906],[11.951,43.909],[11.946,43.909],[11.948,43.913],[11.944,43.918],[11.932,43.926],[11.93,43.937],[11.912,43.94],[11.912,43.945],[11.909,43.947],[11.912,43.949],[11.914,43.968],[11.928,43.972],[11.938,43.962],[11.956,43.963],[11.956,43.975],[11.93,43.989],[11.928,43.995],[11.922,44],[11.924,44.009],[11.923,44.017],[11.93,44.028],[11.924,44.039],[11.947,44.05],[11.948,44.052],[11.927,44.056],[11.917,44.072],[11.924,44.092],[11.915,44.101],[11.917,44.116],[11.915,44.124],[11.91,44.128],[11.913,44.128],[11.913,44.131],[11.932,44.135],[11.939,44.118],[11.946,44.122],[11.933,44.144],[11.969,44.178],[11.969,44.182],[11.963,44.207],[11.936,44.193],[11.935,44.203],[11.915,44.209],[11.89,44.174],[11.825,44.195],[11.789,44.187],[11.764,44.197],[11.729,44.167],[11.72,44.132],[11.634,44.118],[11.588,44.129],[11.611,44.152],[11.604,44.163],[11.572,44.174],[11.551,44.163],[11.496,44.166],[11.419,44.232],[11.397,44.234],[11.37,44.21],[11.334,44.207],[11.291,44.171],[11.204,44.159],[11.2,44.141],[11.255,44.119],[11.264,44.104],[11.246,44.098],[11.128,44.11],[11.09,44.09],[11.041,44.092],[11.008,44.104],[11.001,44.113],[11.017,44.134],[10.997,44.136],[10.943,44.081],[10.921,44.066],[10.899,44.064],[10.796,43.816],[10.662,43.806],[10.645,43.795],[10.623,43.757],[10.61,43.755],[10.602,43.759],[10.597,43.76],[10.556,43.75],[10.532,43.759],[10.509,43.756],[10.501,43.753],[10.452,43.768],[10.439,43.783],[10.442,43.787],[10.44,43.79],[10.451,43.802],[10.451,43.803],[10.439,43.808],[10.427,43.831],[10.419,43.828],[10.415,43.824],[10.381,43.813],[10.32,43.827],[10.309,43.829],[10.209,43.807]],[[12.054,43.856],[12.056,43.863],[12.087,43.855],[12.063,43.847],[12.054,43.856]]]}},{"type":"Feature","properties":{"NAME":"Republic of Genoa","OHM_NAME":"Republic of Genoa","ADMIN_LEVEL":4,"OHM_RELATION_ID":2851369,"START_DATE":"1475","END_DATE":"1540"},"geometry":{"type":"MultiPolygon","coordinates":[[[[7.496,43.853],[7.508,43.842],[7.53,43.789],[7.539,43.746],[7.589,43.753],[7.69,43.743],[7.72,43.759],[7.752,43.761],[7.789,43.779],[7.841,43.781],[7.884,43.8],[7.928,43.802],[8.058,43.846],[8.034,43.892],[8.018,43.897],[7.991,43.923],[7.963,43.915],[7.909,43.92],[7.908,43.92],[7.881,43.924],[7.88,43.926],[7.876,43.933],[7.845,43.945],[7.833,43.963],[7.83,43.966],[7.85,43.973],[7.848,43.984],[7.828,43.997],[7.811,44.006],[7.81,44.01],[7.807,44.011],[7.8,44.038],[7.902,44.039],[7.926,44.027],[7.925,44.026],[7.926,44.025],[7.924,44.022],[7.917,44.004],[7.927,44],[7.975,44.02],[8.005,44],[8.008,44],[8.024,44.017],[8.067,44.017],[8.07,44.018],[8.075,44.032],[8.084,44.037],[8.086,44.038],[8.095,44.041],[8.1,44.044],[8.101,44.043],[8.105,44.045],[8.121,44.038],[8.113,44.022],[8.111,44.022],[8.108,44.017],[8.092,44.013],[8.091,44.01],[8.095,44.002],[8.086,43.989],[8.086,43.986],[8.084,43.986],[8.083,43.984],[8.065,43.983],[8.027,43.979],[8.018,43.975],[8.049,43.914],[8.09,43.864],[8.094,43.859],[8.101,43.862],[8.126,43.887],[8.213,43.933],[8.224,43.953],[8.214,43.98],[8.274,44.035],[8.277,44.075],[8.293,44.097],[8.291,44.097],[8.247,44.118],[8.235,44.143],[8.256,44.152],[8.318,44.121],[8.319,44.122],[8.4,44.145],[8.366,44.19],[8.4,44.228],[8.422,44.233],[8.472,44.209],[8.5,44.24],[8.505,44.268],[8.549,44.3],[8.752,44.387],[9.097,44.333],[9.096,44.315],[9.116,44.293],[9.206,44.264],[9.237,44.266],[9.273,44.292],[9.332,44.268],[9.347,44.245],[9.372,44.225],[9.465,44.199],[9.52,44.173],[9.599,44.11],[9.632,44.099],[9.657,44.103],[9.711,44.062],[9.791,44.028],[9.826,44.001],[9.876,44.005],[9.899,44.03],[9.945,44.004],[9.991,44.001],[10.025,44.054],[10.033,44.065],[10.044,44.073],[10.068,44.091],[10.068,44.097],[10.062,44.104],[10.055,44.109],[10.028,44.119],[10.005,44.111],[9.993,44.093],[9.984,44.099],[9.994,44.105],[9.995,44.119],[9.975,44.138],[9.981,44.143],[9.974,44.167],[9.892,44.167],[9.933,44.196],[9.915,44.199],[9.909,44.208],[9.891,44.208],[9.866,44.183],[9.852,44.197],[9.825,44.198],[9.821,44.225],[9.802,44.206],[9.763,44.206],[9.765,44.212],[9.754,44.22],[9.759,44.234],[9.748,44.254],[9.781,44.294],[9.756,44.321],[9.729,44.328],[9.719,44.355],[9.699,44.366],[9.675,44.364],[9.655,44.412],[9.638,44.415],[9.606,44.435],[9.585,44.429],[9.558,44.439],[9.541,44.426],[9.495,44.424],[9.479,44.409],[9.464,44.425],[9.443,44.417],[9.439,44.429],[9.458,44.442],[9.471,44.469],[9.469,44.481],[9.496,44.483],[9.505,44.529],[9.48,44.563],[9.409,44.56],[9.421,44.574],[9.417,44.596],[9.396,44.61],[9.404,44.642],[9.366,44.69],[9.26,44.68],[9.236,44.715],[9.232,44.702],[9.243,44.687],[9.2,44.686],[9.166,44.693],[9.128,44.728],[9.078,44.722],[9.029,44.75],[9.008,44.75],[9.004,44.743],[9.021,44.729],[9.019,44.716],[9.004,44.709],[8.988,44.715],[8.948,44.701],[8.944,44.708],[8.898,44.698],[8.872,44.705],[8.846,44.695],[8.827,44.716],[8.825,44.731],[8.847,44.761],[8.847,44.798],[8.83,44.804],[8.798,44.783],[8.766,44.785],[8.759,44.8],[8.744,44.807],[8.731,44.805],[8.722,44.793],[8.76,44.746],[8.793,44.723],[8.788,44.714],[8.771,44.716],[8.763,44.691],[8.781,44.683],[8.789,44.664],[8.82,44.64],[8.794,44.618],[8.807,44.597],[8.804,44.58],[8.818,44.571],[8.826,44.559],[8.822,44.548],[8.828,44.546],[8.798,44.525],[8.8,44.502],[8.786,44.488],[8.771,44.489],[8.765,44.53],[8.752,44.526],[8.749,44.55],[8.739,44.55],[8.725,44.579],[8.697,44.58],[8.673,44.597],[8.685,44.611],[8.672,44.621],[8.675,44.64],[8.663,44.656],[8.618,44.651],[8.603,44.643],[8.612,44.616],[8.618,44.608],[8.616,44.605],[8.617,44.6],[8.623,44.597],[8.619,44.577],[8.6,44.558],[8.6,44.554],[8.612,44.548],[8.589,44.527],[8.576,44.507],[8.568,44.507],[8.55,44.504],[8.543,44.508],[8.48,44.511],[8.474,44.511],[8.472,44.519],[8.469,44.522],[8.451,44.503],[8.448,44.499],[8.461,44.493],[8.464,44.469],[8.444,44.439],[8.377,44.408],[8.344,44.351],[8.355,44.332],[8.339,44.32],[8.338,44.299],[8.313,44.262],[8.305,44.257],[8.272,44.272],[8.248,44.273],[8.271,44.302],[8.272,44.318],[8.316,44.327],[8.318,44.343],[8.289,44.367],[8.267,44.352],[8.255,44.3],[8.232,44.295],[8.235,44.306],[8.223,44.323],[8.212,44.325],[8.156,44.272],[8.102,44.281],[8.063,44.253],[8.077,44.235],[8.068,44.227],[8.076,44.204],[8.148,44.206],[8.17,44.214],[8.179,44.202],[8.177,44.189],[8.188,44.184],[8.151,44.165],[8.091,44.173],[8.067,44.145],[8.043,44.143],[8.014,44.156],[7.98,44.138],[8.013,44.12],[8.003,44.117],[8.012,44.111],[8.007,44.102],[7.971,44.113],[7.943,44.101],[7.926,44.112],[7.884,44.106],[7.882,44.114],[7.815,44.124],[7.765,44.144],[7.726,44.126],[7.715,44.107],[7.733,44.084],[7.755,44.085],[7.736,44.076],[7.728,44.06],[7.712,44.061],[7.703,44.043],[7.665,44.031],[7.662,44.022],[7.67,43.998],[7.752,43.958],[7.759,43.943],[7.743,43.91],[7.728,43.904],[7.735,43.876],[7.71,43.855],[7.714,43.839],[7.687,43.833],[7.652,43.845],[7.614,43.839],[7.604,43.862],[7.585,43.873],[7.579,43.891],[7.559,43.897],[7.51,43.882],[7.498,43.872],[7.496,43.853]],[[8.082,44.092],[8.106,44.096],[8.119,44.09],[8.135,44.092],[8.139,44.104],[8.151,44.102],[8.141,44.093],[8.153,44.074],[8.15,44.068],[8.147,44.068],[8.141,44.065],[8.131,44.07],[8.098,44.074],[8.083,44.089],[8.085,44.09],[8.082,44.092]],[[8.138,44.152],[8.152,44.16],[8.157,44.158],[8.159,44.159],[8.161,44.157],[8.165,44.155],[8.179,44.141],[8.174,44.141],[8.192,44.134],[8.197,44.123],[8.19,44.11],[8.181,44.111],[8.178,44.108],[8.148,44.113],[8.143,44.126],[8.145,44.129],[8.144,44.135],[8.151,44.141],[8.138,44.152]]],[[[8.484,42.379],[8.506,42.315],[8.532,42.297],[8.555,42.292],[8.562,42.282],[8.506,42.268],[8.489,42.249],[8.49,42.222],[8.516,42.193],[8.506,42.137],[8.546,42.1],[8.594,42.09],[8.628,42.069],[8.659,42.062],[8.621,42.039],[8.603,42.013],[8.565,41.998],[8.542,41.977],[8.539,41.954],[8.557,41.918],[8.538,41.893],[8.533,41.866],[8.55,41.844],[8.589,41.834],[8.628,41.844],[8.648,41.867],[8.707,41.867],[8.697,41.842],[8.661,41.815],[8.657,41.792],[8.612,41.768],[8.609,41.725],[8.63,41.707],[8.661,41.7],[8.69,41.684],[8.733,41.685],[8.76,41.664],[8.743,41.647],[8.724,41.607],[8.724,41.58],[8.745,41.536],[8.786,41.515],[8.808,41.489],[8.901,41.452],[8.934,41.45],[9.032,41.418],[9.043,41.383],[9.059,41.364],[9.094,41.352],[9.118,41.353],[9.155,41.332],[9.196,41.326],[9.235,41.299],[9.27,41.292],[9.328,41.342],[9.325,41.38],[9.309,41.4],[9.34,41.483],[9.374,41.472],[9.399,41.473],[9.432,41.5],[9.433,41.512],[9.42,41.534],[9.428,41.558],[9.418,41.61],[9.447,41.656],[9.46,41.71],[9.453,41.872],[9.467,41.912],[9.466,41.945],[9.592,42.08],[9.608,42.119],[9.612,42.289],[9.586,42.38],[9.596,42.424],[9.583,42.493],[9.587,42.548],[9.562,42.603],[9.5,42.673],[9.521,42.753],[9.545,42.797],[9.526,42.926],[9.51,42.963],[9.516,42.994],[9.502,43.014],[9.444,43.055],[9.416,43.066],[9.385,43.064],[9.358,43.046],[9.331,43.041],[9.3,43.02],[9.288,43.002],[9.297,42.941],[9.271,42.909],[9.276,42.869],[9.256,42.832],[9.287,42.786],[9.287,42.75],[9.225,42.775],[9.159,42.776],[9.102,42.767],[9.022,42.726],[8.997,42.684],[8.962,42.678],[8.915,42.683],[8.853,42.663],[8.833,42.648],[8.777,42.637],[8.753,42.618],[8.732,42.623],[8.695,42.617],[8.659,42.591],[8.653,42.571],[8.657,42.556],[8.636,42.548],[8.617,42.529],[8.596,42.479],[8.598,42.455],[8.566,42.442],[8.549,42.418],[8.502,42.402],[8.484,42.379]]]]}},{"type":"Feature","properties":{"NAME":"Republic of Lucca","OHM_NAME":"Republic of Lucca","ADMIN_LEVEL":4,"OHM_RELATION_ID":2750003,"START_DATE":"1430","END_DATE":"1648-10-24"},"geometry":{"type":"MultiPolygon","coordinates":[[[[10.533,43.76],[10.556,43.75],[10.595,43.764],[10.61,43.755],[10.623,43.757],[10.645,43.795],[10.671,43.815],[10.636,43.831],[10.651,43.854],[10.648,43.862],[10.673,43.87],[10.658,43.916],[10.662,43.927],[10.705,43.943],[10.71,43.955],[10.675,43.985],[10.689,43.995],[10.707,43.984],[10.727,43.984],[10.745,44.01],[10.736,44.038],[10.721,44.042],[10.723,44.082],[10.707,44.093],[10.665,44.11],[10.646,44.106],[10.625,44.121],[10.604,44.114],[10.573,44.12],[10.545,44.107],[10.53,44.074],[10.511,44.062],[10.497,44.04],[10.483,44.037],[10.462,44.046],[10.447,44.07],[10.436,44.074],[10.409,44.052],[10.428,44.024],[10.447,44.035],[10.467,44.028],[10.461,44.022],[10.473,44.011],[10.467,44.002],[10.418,43.991],[10.391,44.001],[10.364,43.994],[10.35,43.985],[10.356,43.975],[10.276,43.957],[10.279,43.962],[10.222,43.916],[10.167,43.893],[10.184,43.871],[10.209,43.807],[10.307,43.83],[10.381,43.813],[10.415,43.824],[10.425,43.835],[10.439,43.808],[10.453,43.805],[10.439,43.783],[10.452,43.768],[10.507,43.756],[10.533,43.76]]]]}},{"type":"Feature","properties":{"NAME":"Republic of Siena","OHM_NAME":"Republic of Siena","ADMIN_LEVEL":4,"OHM_RELATION_ID":2750802,"START_DATE":"1350","END_DATE":"1555"},"geometry":{"type":"MultiPolygon","coordinates":[[[[10.688,42.908],[10.728,42.89],[10.847,42.968],[10.871,42.968],[10.999,42.857],[10.997,42.832],[10.892,42.72],[10.939,42.696],[10.975,42.634],[11.033,42.609],[11.083,42.538],[11.142,42.508],[11.138,42.479],[11.083,42.481],[11.042,42.445],[11.04,42.396],[11.063,42.367],[11.15,42.324],[11.209,42.33],[11.259,42.375],[11.426,42.345],[11.477,42.423],[11.475,42.422],[11.405,42.447],[11.405,42.483],[11.594,42.676],[11.643,42.696],[11.7,42.686],[11.546,42.77],[11.532,42.824],[11.554,42.847],[11.602,42.85],[11.61,42.815],[11.747,42.798],[11.75,42.806],[11.775,42.821],[11.808,42.813],[11.841,42.836],[11.895,42.835],[11.892,42.843],[11.913,42.85],[11.951,42.893],[11.932,42.927],[11.972,43.022],[11.975,43.059],[11.958,43.075],[11.937,43.063],[11.93,43.069],[11.918,43.122],[11.922,43.138],[11.799,43.203],[11.409,43.438],[11.194,43.417],[10.96,43.333],[10.957,43.304],[10.986,43.28],[10.995,43.253],[10.981,43.235],[10.935,43.24],[10.929,43.232],[10.934,43.203],[10.912,43.174],[10.912,43.163],[10.842,43.153],[10.801,43.16],[10.781,43.144],[10.74,43.148],[10.717,43.108],[10.723,43.083],[10.734,43.074],[10.779,43.067],[10.788,43.056],[10.791,43.015],[10.78,43.004],[10.748,43.017],[10.738,43.011],[10.735,42.978],[10.688,42.908]]],[[[11.498,42.434],[11.59,42.442],[11.594,42.445],[11.498,42.434]]]]}}],"metadata":{"generatedBy":"scripts/build-fief-flat.ts","input":"data/italy_fiefs_1492.geojson","year":1492,"cutPolicy":"keep-smaller","containmentCoverageThreshold":0.9,"minOverlapAreaM2":1000,"sliverAreaLimitM2":1000000000,"resolutions":[{"kind":"sliver","cutName":"County of Sovana","keptName":"County of Pitigliano","overlapKm2":0.51,"coverageOfSmaller":0.0035},{"kind":"sliver","cutName":"Duchy of Ferrara","keptName":"Duchy of Mirandola","overlapKm2":0.47,"coverageOfSmaller":0.0024},{"kind":"sliver","cutName":"Duchy of Ferrara","keptName":"Margraviate of Mantua","overlapKm2":2.47,"coverageOfSmaller":0.0012},{"kind":"sliver","cutName":"Duchy of Modena and Reggio","keptName":"County of Guastalla","overlapKm2":1.03,"coverageOfSmaller":0.0076},{"kind":"sliver","cutName":"Duchy of Modena and Reggio","keptName":"Duchy of Ferrara","overlapKm2":2.93,"coverageOfSmaller":0.0009},{"kind":"containment","cutName":"Duchy of Modena and Reggio","keptName":"Duchy of Mirandola","overlapKm2":199.8,"coverageOfSmaller":0.9955},{"kind":"sliver","cutName":"Duchy of Modena and Reggio","keptName":"Margraviate of Mantua","overlapKm2":2.18,"coverageOfSmaller":0.001},{"kind":"sliver","cutName":"Duchy of Modena and Reggio","keptName":"Republic of Lucca","overlapKm2":0.33,"coverageOfSmaller":0.0003},{"kind":"sliver","cutName":"Margraviate of Mantua","keptName":"County of Guastalla","overlapKm2":4.4,"coverageOfSmaller":0.0328},{"kind":"sliver","cutName":"Margraviate of Mantua","keptName":"Duchy of Mirandola","overlapKm2":1.47,"coverageOfSmaller":0.0073},{"kind":"sliver","cutName":"Republic of Florence","keptName":"Lordship of Rimini","overlapKm2":24.05,"coverageOfSmaller":0.0098},{"kind":"sliver","cutName":"Republic of Florence","keptName":"Republic of Lucca","overlapKm2":2.15,"coverageOfSmaller":0.0021},{"kind":"sliver","cutName":"Republic of Florence","keptName":"Republic of Siena","overlapKm2":1.64,"coverageOfSmaller":0.0002},{"kind":"sliver","cutName":"Republic of Genoa","keptName":"Duchy of Massa and Carrara","overlapKm2":0.17,"coverageOfSmaller":0.0008},{"kind":"sliver","cutName":"Republic of Genoa","keptName":"March of Montferrat","overlapKm2":3.76,"coverageOfSmaller":0.0011},{"kind":"sliver","cutName":"Republic of Genoa","keptName":"Principality of Oneglia","overlapKm2":28.05,"coverageOfSmaller":0.104},{"kind":"sliver","cutName":"Republic of Siena","keptName":"County of Pitigliano","overlapKm2":1.46,"coverageOfSmaller":0.0101},{"kind":"containment","cutName":"Republic of Siena","keptName":"County of Santa Fiora","overlapKm2":184.99,"coverageOfSmaller":0.9971},{"kind":"containment","cutName":"Republic of Siena","keptName":"County of Sovana","overlapKm2":298.06,"coverageOfSmaller":0.9982},{"kind":"sliver","cutName":"Republic of Siena","keptName":"Lordship of Piombino","overlapKm2":0.32,"coverageOfSmaller":0.0002}],"source":"OpenHistoricalMap","sourceUrl":"https://www.openhistoricalmap.org/","license":"CC0-1.0","borderPrecision":"史料に基づく復元（概略。測量された境界ではない）"}}