{"type":"FeatureCollection","features":[{"type":"Feature","properties":{"NAME":"County of Asti","OHM_NAME":"County of Asti","ADMIN_LEVEL":4,"OHM_RELATION_ID":2800677,"START_DATE":"1095","END_DATE":"1531"},"geometry":{"type":"MultiPolygon","coordinates":[[[[8.028,44.799],[8.2,44.785],[8.307,44.833],[8.356,44.944],[8.332,44.995],[8.28,45.015],[8.058,45.072],[7.983,45.024],[7.932,44.923],[7.935,44.87],[8.028,44.799]]]]}},{"type":"Feature","properties":{"NAME":"County of Santa Fiora","OHM_NAME":"County of Santa Fiora","ADMIN_LEVEL":4,"OHM_RELATION_ID":2852381,"START_DATE":"1274","END_DATE":"1806"},"geometry":{"type":"MultiPolygon","coordinates":[[[[11.747,42.798],[11.61,42.815],[11.602,42.85],[11.554,42.847],[11.532,42.824],[11.546,42.77],[11.7,42.686],[11.732,42.737],[11.762,42.752],[11.79,42.755],[11.774,42.781],[11.747,42.798]]]]}},{"type":"Feature","properties":{"NAME":"County of Sovana","OHM_NAME":"County of Sovana","ADMIN_LEVEL":4,"OHM_RELATION_ID":2852382,"START_DATE":"1274","END_DATE":"1806"},"geometry":{"type":"MultiPolygon","coordinates":[[[[11.475,42.422],[11.498,42.434],[11.599,42.445],[11.607,42.46],[11.608,42.487],[11.566,42.516],[11.586,42.536],[11.588,42.566],[11.601,42.57],[11.612,42.622],[11.667,42.655],[11.711,42.658],[11.718,42.664],[11.7,42.686],[11.643,42.696],[11.594,42.676],[11.405,42.483],[11.405,42.447],[11.475,42.422]]]]}},{"type":"Feature","properties":{"NAME":"March of Montferrat","OHM_NAME":"March of Montferrat","ADMIN_LEVEL":6,"OHM_RELATION_ID":2800678,"START_DATE":"1000","END_DATE":"1708"},"geometry":{"type":"MultiPolygon","coordinates":[[[[8.358,44.465],[8.394,44.479],[8.399,44.501],[8.417,44.513],[8.447,44.499],[8.469,44.522],[8.48,44.511],[8.576,44.507],[8.601,44.546],[8.599,44.566],[8.607,44.583],[8.621,44.589],[8.577,44.723],[8.562,44.846],[8.563,44.933],[8.641,45.044],[8.638,45.049],[8.647,45.055],[8.637,45.067],[8.646,45.075],[8.608,45.108],[8.614,45.127],[8.592,45.131],[8.58,45.153],[8.555,45.157],[8.527,45.244],[8.128,45.257],[8.094,45.249],[8.07,45.2],[7.951,45.196],[8.03,45.131],[8.058,45.072],[8.28,45.015],[8.332,44.995],[8.356,44.944],[8.307,44.833],[8.2,44.785],[8.028,44.799],[8.008,44.733],[7.918,44.706],[7.879,44.639],[7.913,44.555],[7.914,44.458],[7.969,44.423],[8.043,44.397],[8.113,44.491],[8.262,44.519],[8.272,44.506],[8.303,44.503],[8.324,44.488],[8.35,44.485],[8.358,44.465]]]]}},{"type":"Feature","properties":{"NAME":"Marquisate of Saluzzo","OHM_NAME":"Marquisate of Saluzzo","ADMIN_LEVEL":4,"OHM_RELATION_ID":2892597,"START_DATE":"1190","END_DATE":"1548-02-23"},"geometry":{"type":"MultiPolygon","coordinates":[[[[7.478,44.758],[7.448,44.755],[7.451,44.739],[7.426,44.725],[7.341,44.706],[7.336,44.681],[7.311,44.684],[7.288,44.706],[7.264,44.715],[7.217,44.715],[7.149,44.743],[7.129,44.739],[7.121,44.726],[7.065,44.714],[7.077,44.682],[7.029,44.692],[6.99,44.69],[6.963,44.678],[6.948,44.655],[6.916,44.66],[6.882,44.631],[6.858,44.63],[6.855,44.615],[6.839,44.609],[6.78,44.538],[6.794,44.503],[6.814,44.37],[6.88,44.36],[6.919,44.339],[6.961,44.286],[6.964,44.238],[7.03,44.225],[7.126,44.175],[7.149,44.19],[7.197,44.275],[7.223,44.286],[7.28,44.287],[7.331,44.272],[7.41,44.321],[7.454,44.334],[7.43,44.399],[7.377,44.39],[7.376,44.467],[7.357,44.503],[7.381,44.529],[7.425,44.525],[7.436,44.562],[7.5,44.624],[7.508,44.65],[7.469,44.657],[7.478,44.758]]]]}},{"type":"Feature","properties":{"NAME":"Republic of Ancona","OHM_NAME":"Republic of Ancona","ADMIN_LEVEL":3,"OHM_RELATION_ID":2795688,"START_DATE":"1100","END_DATE":"1532"},"geometry":{"type":"MultiPolygon","coordinates":[[[[13.339,43.655],[13.297,43.616],[13.262,43.62],[13.244,43.615],[13.239,43.604],[13.239,43.593],[13.258,43.583],[13.327,43.612],[13.348,43.599],[13.305,43.546],[13.336,43.466],[13.542,43.435],[13.689,43.487],[13.678,43.508],[13.68,43.552],[13.672,43.569],[13.616,43.6],[13.561,43.652],[13.499,43.67],[13.457,43.651],[13.37,43.686],[13.339,43.655]]]]}},{"type":"Feature","properties":{"NAME":"Republic of Florence","OHM_NAME":"Republic of Florence","ADMIN_LEVEL":4,"OHM_RELATION_ID":2800634,"START_DATE":"1115","END_DATE":"1405"},"geometry":{"type":"MultiPolygon","coordinates":[[[[11.056,43.578],[11.194,43.417],[11.409,43.438],[11.615,43.527],[11.559,43.622],[11.434,43.757],[11.573,43.89],[11.412,43.991],[11.327,43.98],[11.128,44.019],[11.104,43.935],[11.16,43.905],[11.104,43.818],[10.879,43.765],[10.932,43.653],[11.056,43.578]]]]}},{"type":"Feature","properties":{"NAME":"Republic of Genoa","OHM_NAME":"Republic of Genoa","ADMIN_LEVEL":4,"OHM_RELATION_ID":2851367,"START_DATE":"1266","END_DATE":"1284"},"geometry":{"type":"Polygon","coordinates":[[[7.496,43.853],[7.508,43.842],[7.53,43.789],[7.539,43.746],[7.589,43.753],[7.69,43.743],[7.72,43.759],[7.752,43.761],[7.789,43.779],[7.841,43.781],[7.884,43.8],[7.966,43.813],[8.101,43.862],[8.126,43.887],[8.213,43.933],[8.224,43.953],[8.214,43.98],[8.274,44.035],[8.277,44.075],[8.293,44.099],[8.319,44.122],[8.4,44.145],[8.366,44.19],[8.4,44.228],[8.422,44.233],[8.472,44.209],[8.5,44.24],[8.505,44.268],[8.549,44.3],[8.752,44.387],[9.097,44.333],[9.096,44.315],[9.116,44.293],[9.206,44.264],[9.237,44.266],[9.273,44.292],[9.332,44.268],[9.347,44.245],[9.372,44.225],[9.465,44.199],[9.52,44.173],[9.599,44.11],[9.632,44.099],[9.657,44.103],[9.711,44.062],[9.791,44.028],[9.826,44.001],[9.876,44.005],[9.899,44.03],[9.945,44.004],[9.991,44.001],[10.032,44.064],[10.071,44.093],[10.058,44.108],[10.028,44.119],[10.005,44.111],[9.993,44.093],[9.984,44.099],[9.994,44.105],[9.995,44.119],[9.975,44.138],[9.981,44.143],[9.974,44.167],[9.892,44.167],[9.933,44.196],[9.915,44.199],[9.909,44.208],[9.891,44.208],[9.866,44.183],[9.852,44.197],[9.825,44.198],[9.821,44.225],[9.802,44.206],[9.763,44.206],[9.765,44.212],[9.754,44.22],[9.759,44.234],[9.748,44.254],[9.781,44.294],[9.756,44.321],[9.729,44.328],[9.719,44.355],[9.699,44.366],[9.675,44.364],[9.655,44.412],[9.638,44.415],[9.606,44.435],[9.585,44.429],[9.558,44.439],[9.541,44.426],[9.495,44.424],[9.479,44.409],[9.464,44.425],[9.443,44.417],[9.439,44.429],[9.458,44.442],[9.471,44.469],[9.469,44.481],[9.496,44.483],[9.505,44.529],[9.48,44.563],[9.409,44.56],[9.421,44.574],[9.417,44.596],[9.396,44.61],[9.404,44.642],[9.366,44.69],[9.26,44.68],[9.236,44.715],[9.232,44.702],[9.243,44.687],[9.2,44.686],[9.166,44.693],[9.128,44.728],[9.078,44.722],[9.029,44.75],[9.008,44.75],[9.004,44.743],[9.021,44.729],[9.019,44.716],[9.004,44.709],[8.988,44.715],[8.948,44.701],[8.944,44.708],[8.898,44.698],[8.872,44.705],[8.846,44.695],[8.827,44.716],[8.825,44.731],[8.847,44.761],[8.847,44.798],[8.83,44.804],[8.798,44.783],[8.766,44.785],[8.759,44.8],[8.744,44.807],[8.731,44.805],[8.722,44.793],[8.76,44.746],[8.793,44.723],[8.788,44.714],[8.771,44.716],[8.763,44.691],[8.781,44.683],[8.789,44.664],[8.82,44.64],[8.794,44.618],[8.807,44.597],[8.804,44.58],[8.818,44.571],[8.826,44.559],[8.822,44.548],[8.828,44.546],[8.798,44.525],[8.8,44.502],[8.786,44.488],[8.771,44.489],[8.765,44.53],[8.752,44.526],[8.749,44.55],[8.739,44.55],[8.725,44.579],[8.697,44.58],[8.673,44.597],[8.685,44.611],[8.672,44.621],[8.675,44.64],[8.663,44.656],[8.618,44.651],[8.603,44.643],[8.612,44.616],[8.618,44.608],[8.616,44.605],[8.617,44.6],[8.623,44.597],[8.619,44.577],[8.6,44.558],[8.6,44.554],[8.612,44.548],[8.589,44.527],[8.576,44.507],[8.568,44.507],[8.55,44.504],[8.543,44.508],[8.48,44.511],[8.474,44.511],[8.472,44.519],[8.469,44.522],[8.451,44.503],[8.448,44.499],[8.461,44.493],[8.464,44.469],[8.444,44.439],[8.377,44.408],[8.344,44.351],[8.355,44.332],[8.339,44.32],[8.338,44.299],[8.313,44.262],[8.305,44.257],[8.272,44.272],[8.248,44.273],[8.271,44.302],[8.272,44.318],[8.316,44.327],[8.318,44.343],[8.289,44.367],[8.267,44.352],[8.255,44.3],[8.232,44.295],[8.235,44.306],[8.223,44.323],[8.212,44.325],[8.156,44.272],[8.102,44.281],[8.063,44.253],[8.077,44.235],[8.068,44.227],[8.076,44.204],[8.148,44.206],[8.17,44.214],[8.179,44.202],[8.177,44.189],[8.188,44.184],[8.151,44.165],[8.091,44.173],[8.067,44.145],[8.043,44.143],[8.014,44.156],[7.98,44.138],[8.013,44.12],[8.003,44.117],[8.012,44.111],[8.007,44.102],[7.971,44.113],[7.943,44.101],[7.926,44.112],[7.884,44.106],[7.882,44.114],[7.815,44.124],[7.765,44.144],[7.726,44.126],[7.715,44.107],[7.733,44.084],[7.755,44.085],[7.736,44.076],[7.728,44.06],[7.712,44.061],[7.703,44.043],[7.665,44.031],[7.662,44.022],[7.67,43.998],[7.752,43.958],[7.759,43.943],[7.743,43.91],[7.728,43.904],[7.735,43.876],[7.71,43.855],[7.714,43.839],[7.687,43.833],[7.652,43.845],[7.614,43.839],[7.604,43.862],[7.585,43.873],[7.579,43.891],[7.559,43.897],[7.51,43.882],[7.498,43.872],[7.496,43.853]],[[8.083,44.089],[8.106,44.096],[8.119,44.09],[8.135,44.092],[8.139,44.104],[8.151,44.102],[8.141,44.093],[8.153,44.074],[8.15,44.068],[8.098,44.074],[8.083,44.089]],[[8.138,44.152],[8.152,44.16],[8.165,44.155],[8.179,44.141],[8.172,44.141],[8.192,44.134],[8.197,44.123],[8.19,44.11],[8.148,44.113],[8.143,44.126],[8.153,44.139],[8.138,44.152]]]}},{"type":"Feature","properties":{"NAME":"Republic of Lucca","OHM_NAME":"Republic of Lucca","ADMIN_LEVEL":4,"OHM_RELATION_ID":2853272,"START_DATE":"1160","END_DATE":"1399"},"geometry":{"type":"MultiPolygon","coordinates":[[[[10.533,43.76],[10.556,43.75],[10.595,43.764],[10.61,43.755],[10.623,43.757],[10.645,43.795],[10.671,43.815],[10.636,43.831],[10.651,43.854],[10.648,43.862],[10.673,43.87],[10.658,43.916],[10.662,43.927],[10.705,43.943],[10.71,43.955],[10.675,43.985],[10.689,43.995],[10.707,43.984],[10.727,43.984],[10.745,44.01],[10.736,44.038],[10.721,44.042],[10.723,44.082],[10.707,44.093],[10.665,44.11],[10.646,44.106],[10.625,44.121],[10.604,44.114],[10.573,44.12],[10.545,44.107],[10.53,44.074],[10.511,44.062],[10.497,44.04],[10.483,44.037],[10.462,44.046],[10.447,44.07],[10.436,44.074],[10.409,44.052],[10.428,44.024],[10.447,44.035],[10.467,44.028],[10.461,44.022],[10.473,44.011],[10.467,44.002],[10.418,43.991],[10.391,44.001],[10.364,43.994],[10.35,43.985],[10.356,43.975],[10.276,43.957],[10.279,43.962],[10.222,43.916],[10.167,43.893],[10.184,43.871],[10.209,43.807],[10.307,43.83],[10.381,43.813],[10.415,43.824],[10.425,43.835],[10.439,43.808],[10.453,43.805],[10.439,43.783],[10.452,43.768],[10.507,43.756],[10.533,43.76]]]]}},{"type":"Feature","properties":{"NAME":"Republic of Massa","OHM_NAME":"Republic of Massa","ADMIN_LEVEL":4,"OHM_RELATION_ID":2750720,"START_DATE":"1225","END_DATE":"1336"},"geometry":{"type":"MultiPolygon","coordinates":[[[[10.728,42.89],[10.847,42.968],[10.894,42.972],[10.939,42.959],[10.965,42.96],[10.972,42.98],[10.948,43.057],[10.979,43.074],[10.993,43.091],[10.99,43.109],[10.943,43.128],[10.74,43.148],[10.717,43.108],[10.724,43.076],[10.779,43.067],[10.788,43.056],[10.791,43.015],[10.78,43.004],[10.748,43.017],[10.738,43.011],[10.735,42.978],[10.688,42.908],[10.728,42.89]]]]}},{"type":"Feature","properties":{"NAME":"Republic of Pisa","OHM_NAME":"Republic of Pisa (1399-1406)","ADMIN_LEVEL":4,"OHM_RELATION_ID":2853293,"START_DATE":"1215","END_DATE":"1295"},"geometry":{"type":"MultiPolygon","coordinates":[[[[8.168,39.139],[8.219,39.074],[8.264,39.054],[8.305,39.054],[8.312,39.021],[8.366,38.932],[8.426,38.9],[8.457,38.896],[8.492,38.914],[8.5,38.931],[8.504,39.008],[8.507,39.016],[8.514,39.013],[8.513,38.992],[8.527,38.958],[8.559,38.921],[8.556,38.881],[8.605,38.834],[8.628,38.825],[8.683,38.832],[8.707,38.851],[8.717,38.878],[8.732,38.882],[8.788,38.844],[8.87,38.837],[8.94,38.875],[9.021,38.94],[9.049,38.95],[9.07,38.973],[9.098,39.048],[9.094,39.075],[9.069,39.102],[9.066,39.121],[9.082,39.149],[9.11,39.154],[9.171,39.141],[9.206,39.158],[9.221,39.179],[9.272,39.173],[9.296,39.165],[9.34,39.137],[9.363,39.11],[9.405,39.089],[9.426,39.082],[9.457,39.083],[9.491,39.054],[9.518,39.043],[9.561,39.046],[9.586,39.068],[9.585,39.1],[9.605,39.095],[9.633,39.101],[9.655,39.127],[9.656,39.155],[9.631,39.185],[9.622,39.224],[9.634,39.253],[9.671,39.267],[9.686,39.294],[9.674,39.328],[9.652,39.343],[9.657,39.372],[9.694,39.429],[9.699,39.457],[9.698,39.492],[9.687,39.515],[9.703,39.541],[9.711,39.577],[9.704,39.644],[9.73,39.706],[9.724,39.787],[9.749,39.848],[9.738,39.882],[9.769,39.924],[9.766,39.947],[9.745,39.971],[9.746,39.98],[9.789,40.077],[9.779,40.107],[9.728,40.138],[9.706,40.162],[9.681,40.203],[9.677,40.246],[9.731,40.318],[9.761,40.342],[9.789,40.351],[9.816,40.377],[9.827,40.412],[9.871,40.481],[9.881,40.533],[9.865,40.559],[9.845,40.57],[9.797,40.637],[9.817,40.68],[9.813,40.702],[9.77,40.726],[9.765,40.769],[9.737,40.789],[9.78,40.836],[9.799,40.839],[9.824,40.858],[9.824,40.891],[9.795,40.91],[9.786,40.945],[9.761,40.964],[9.726,40.967],[9.688,40.948],[9.679,40.95],[9.714,40.98],[9.713,41.013],[9.684,41.039],[9.648,41.044],[9.662,41.073],[9.657,41.1],[9.62,41.122],[9.567,41.182],[9.536,41.195],[9.54,41.23],[9.523,41.264],[9.442,41.305],[9.41,41.341],[9.382,41.348],[9.328,41.342],[9.325,41.38],[9.309,41.4],[9.34,41.483],[9.374,41.472],[9.399,41.473],[9.432,41.5],[9.433,41.512],[9.42,41.534],[9.428,41.558],[9.418,41.61],[9.447,41.656],[9.46,41.71],[9.453,41.872],[9.467,41.912],[9.466,41.945],[9.592,42.08],[9.61,42.139],[9.606,42.229],[9.612,42.289],[9.586,42.38],[9.596,42.424],[9.583,42.493],[9.585,42.554],[9.562,42.603],[9.5,42.673],[9.521,42.753],[9.545,42.797],[9.526,42.926],[9.51,42.963],[9.516,42.994],[9.502,43.014],[9.444,43.055],[9.401,43.066],[9.331,43.041],[9.3,43.02],[9.288,43.002],[9.297,42.941],[9.271,42.909],[9.276,42.869],[9.256,42.832],[9.287,42.786],[9.287,42.75],[9.225,42.775],[9.159,42.776],[9.102,42.767],[9.022,42.726],[8.997,42.684],[8.962,42.678],[8.915,42.683],[8.853,42.663],[8.833,42.648],[8.777,42.637],[8.753,42.618],[8.712,42.622],[8.678,42.609],[8.659,42.591],[8.653,42.571],[8.657,42.556],[8.636,42.548],[8.617,42.529],[8.596,42.479],[8.598,42.455],[8.566,42.442],[8.549,42.418],[8.502,42.402],[8.484,42.379],[8.506,42.315],[8.532,42.297],[8.555,42.292],[8.562,42.282],[8.506,42.268],[8.486,42.237],[8.49,42.222],[8.515,42.199],[8.505,42.15],[8.512,42.125],[8.561,42.093],[8.594,42.09],[8.628,42.069],[8.659,42.062],[8.621,42.039],[8.603,42.013],[8.565,41.998],[8.542,41.977],[8.539,41.954],[8.557,41.918],[8.538,41.893],[8.533,41.866],[8.55,41.844],[8.589,41.834],[8.628,41.844],[8.648,41.867],[8.707,41.867],[8.697,41.842],[8.661,41.815],[8.657,41.792],[8.612,41.768],[8.605,41.739],[8.609,41.725],[8.63,41.707],[8.661,41.7],[8.69,41.684],[8.733,41.685],[8.76,41.664],[8.743,41.647],[8.721,41.596],[8.738,41.544],[8.786,41.515],[8.815,41.484],[8.901,41.452],[8.934,41.45],[9.032,41.418],[9.048,41.373],[9.075,41.355],[9.118,41.353],[9.155,41.332],[9.196,41.326],[9.235,41.299],[9.134,41.286],[9.104,41.273],[9.086,41.242],[9.102,41.193],[9.073,41.173],[9.032,41.177],[8.983,41.157],[8.911,41.084],[8.827,41.042],[8.813,41.022],[8.816,41],[8.792,40.976],[8.827,40.949],[8.852,40.946],[8.856,40.933],[8.849,40.918],[8.876,40.907],[8.878,40.888],[8.902,40.867],[8.919,40.858],[8.968,40.868],[9,40.839],[8.975,40.816],[8.982,40.808],[8.997,40.807],[9.004,40.796],[9.002,40.767],[9.026,40.764],[9.047,40.745],[9.074,40.757],[9.101,40.757],[9.177,40.803],[9.215,40.809],[9.249,40.804],[9.281,40.814],[9.348,40.81],[9.366,40.787],[9.364,40.729],[9.384,40.692],[9.356,40.681],[9.291,40.625],[9.272,40.62],[9.205,40.55],[9.235,40.513],[9.304,40.49],[9.393,40.487],[9.444,40.509],[9.453,40.5],[9.456,40.428],[9.432,40.392],[9.433,40.368],[9.415,40.342],[9.416,40.323],[9.387,40.247],[9.395,40.234],[9.415,40.225],[9.442,40.168],[9.476,40.152],[9.422,40.128],[9.408,40.108],[9.411,40.091],[9.377,40.039],[9.371,40.012],[9.332,39.989],[9.279,39.933],[9.226,39.899],[9.207,39.865],[9.189,39.792],[9.157,39.742],[9.106,39.692],[8.972,39.637],[8.922,39.626],[8.86,39.549],[8.808,39.523],[8.775,39.523],[8.746,39.5],[8.636,39.455],[8.416,39.449],[8.348,39.423],[8.324,39.39],[8.321,39.367],[8.353,39.315],[8.376,39.298],[8.322,39.249],[8.314,39.228],[8.249,39.219],[8.183,39.186],[8.168,39.139]]],[[[10.209,43.807],[10.23,43.7],[10.222,43.688],[10.221,43.668],[10.236,43.639],[10.247,43.577],[10.241,43.553],[10.255,43.517],[10.27,43.5],[10.286,43.457],[10.314,43.435],[10.338,43.427],[10.365,43.378],[10.387,43.367],[10.414,43.308],[10.46,43.27],[10.478,43.228],[10.49,43.144],[10.484,43.068],[10.476,43.038],[10.44,43.006],[10.434,42.991],[10.438,42.946],[10.463,42.905],[10.53,42.884],[10.572,42.891],[10.597,42.916],[10.685,42.908],[10.735,42.978],[10.738,43.011],[10.748,43.017],[10.78,43.004],[10.791,43.015],[10.788,43.056],[10.779,43.067],[10.724,43.076],[10.717,43.108],[10.737,43.146],[10.739,43.145],[10.74,43.148],[10.781,43.144],[10.801,43.16],[10.842,43.153],[10.912,43.163],[10.912,43.174],[10.934,43.203],[10.929,43.232],[10.935,43.24],[10.981,43.235],[10.989,43.24],[10.993,43.26],[10.988,43.275],[10.962,43.298],[10.96,43.301],[10.957,43.304],[10.957,43.308],[10.953,43.318],[10.96,43.333],[10.998,43.347],[11.007,43.369],[10.995,43.404],[10.952,43.452],[10.885,43.46],[10.86,43.472],[10.844,43.499],[10.835,43.531],[10.836,43.584],[10.82,43.613],[10.829,43.623],[10.889,43.628],[10.911,43.651],[10.907,43.68],[10.866,43.73],[10.793,43.719],[10.776,43.737],[10.728,43.763],[10.688,43.805],[10.655,43.802],[10.623,43.757],[10.61,43.755],[10.602,43.759],[10.597,43.76],[10.556,43.75],[10.534,43.759],[10.533,43.76],[10.509,43.756],[10.501,43.753],[10.452,43.768],[10.439,43.783],[10.442,43.787],[10.44,43.79],[10.451,43.802],[10.451,43.803],[10.448,43.806],[10.439,43.808],[10.432,43.821],[10.422,43.831],[10.415,43.824],[10.381,43.813],[10.32,43.827],[10.309,43.829],[10.209,43.807]]],[[[10.682,42.794],[10.7,42.773],[10.779,42.738],[10.887,42.721],[10.997,42.832],[10.999,42.857],[10.871,42.968],[10.847,42.968],[10.728,42.89],[10.719,42.869],[10.724,42.844],[10.69,42.825],[10.682,42.794]]],[[[11.037,42.433],[11.04,42.396],[11.063,42.367],[11.15,42.324],[11.209,42.33],[11.259,42.375],[11.305,42.37],[11.294,42.408],[11.289,42.44],[11.227,42.499],[11.207,42.507],[11.142,42.501],[11.138,42.479],[11.083,42.481],[11.056,42.461],[11.037,42.433]]]]}},{"type":"Feature","properties":{"NAME":"Republic of Siena","OHM_NAME":"Republic of Siena","ADMIN_LEVEL":4,"OHM_RELATION_ID":2750803,"START_DATE":"1250","END_DATE":"1350"},"geometry":{"type":"MultiPolygon","coordinates":[[[[11.279,42.89],[11.662,42.993],[11.679,43.004],[11.803,43.168],[11.81,43.187],[11.799,43.203],[11.409,43.438],[11.194,43.417],[10.96,43.333],[10.957,43.304],[10.986,43.28],[10.995,43.253],[11.024,43.222],[11.163,42.909],[11.279,42.89]]]]}}],"metadata":{"generatedBy":"scripts/build-fief-flat.ts","input":"data/italy_fiefs_1279.geojson","year":1279,"cutPolicy":"keep-smaller","containmentCoverageThreshold":0.9,"minOverlapAreaM2":1000,"sliverAreaLimitM2":1000000000,"resolutions":[{"kind":"sliver","cutName":"Republic of Genoa","keptName":"March of Montferrat","overlapKm2":3.76,"coverageOfSmaller":0.0011},{"kind":"sliver","cutName":"Republic of Pisa","keptName":"Republic of Lucca","overlapKm2":3.29,"coverageOfSmaller":0.0032},{"kind":"sliver","cutName":"Republic of Pisa","keptName":"Republic of Massa","overlapKm2":1.06,"coverageOfSmaller":0.0027},{"kind":"sliver","cutName":"Republic of Pisa","keptName":"Republic of Siena","overlapKm2":0.41,"coverageOfSmaller":0.0002}],"source":"OpenHistoricalMap","sourceUrl":"https://www.openhistoricalmap.org/","license":"CC0-1.0","borderPrecision":"史料に基づく復元（概略。測量された境界ではない）"}}