{"type":"FeatureCollection","features":[{"type":"Feature","properties":{"NAME":"County of Asti","OHM_NAME":"County of Asti","ADMIN_LEVEL":4,"OHM_RELATION_ID":2800677,"START_DATE":"1095","END_DATE":"1531"},"geometry":{"type":"MultiPolygon","coordinates":[[[[8.02826,44.79938],[8.19992,44.78476],[8.30704,44.8325],[8.35579,44.94439],[8.33244,44.99491],[8.28026,45.0153],[8.05847,45.07207],[7.98294,45.02355],[7.93213,44.92349],[7.93487,44.86998],[8.02826,44.79938]]]]}},{"type":"Feature","properties":{"NAME":"County of Pitigliano","OHM_NAME":"County of Pitigliano","ADMIN_LEVEL":4,"OHM_RELATION_ID":2751172,"START_DATE":"1336","END_DATE":"1604"},"geometry":{"type":"MultiPolygon","coordinates":[[[[11.70044,42.68572],[11.71812,42.6642],[11.71108,42.65757],[11.66679,42.65542],[11.61152,42.62183],[11.60397,42.6001],[11.60583,42.56843],[11.61344,42.561],[11.67116,42.57704],[11.69865,42.60174],[11.73523,42.61616],[11.75388,42.64328],[11.78691,42.65125],[11.78893,42.71098],[11.80712,42.74251],[11.79001,42.75522],[11.76155,42.7518],[11.73202,42.73667],[11.70044,42.68572]]]]}},{"type":"Feature","properties":{"NAME":"County of Santa Fiora","OHM_NAME":"County of Santa Fiora","ADMIN_LEVEL":4,"OHM_RELATION_ID":2852381,"START_DATE":"1274","END_DATE":"1806"},"geometry":{"type":"MultiPolygon","coordinates":[[[[11.74723,42.79848],[11.61049,42.8148],[11.60191,42.84979],[11.55384,42.84728],[11.53221,42.82437],[11.54594,42.7702],[11.70044,42.68572],[11.73202,42.73667],[11.76155,42.7518],[11.79001,42.75522],[11.77388,42.78065],[11.74723,42.79848]]]]}},{"type":"Feature","properties":{"NAME":"County of Sovana","OHM_NAME":"County of Sovana","ADMIN_LEVEL":4,"OHM_RELATION_ID":2852382,"START_DATE":"1274","END_DATE":"1806"},"geometry":{"type":"MultiPolygon","coordinates":[[[[11.47472,42.42212],[11.49814,42.43405],[11.59854,42.44511],[11.60724,42.45968],[11.60785,42.48733],[11.56593,42.51612],[11.58553,42.5359],[11.58817,42.56614],[11.60117,42.56952],[11.61152,42.62183],[11.66679,42.65542],[11.71108,42.65757],[11.71812,42.6642],[11.70044,42.68572],[11.64259,42.69581],[11.59401,42.67638],[11.40518,42.48299],[11.40518,42.44677],[11.47472,42.42212]]]]}},{"type":"Feature","properties":{"NAME":"Duchy of Mirandola","OHM_NAME":"Duchy of Mirandola","ADMIN_LEVEL":4,"OHM_RELATION_ID":2852272,"START_DATE":"1310","END_DATE":"1648-10-24"},"geometry":{"type":"MultiPolygon","coordinates":[[[[11.24621,44.95144],[11.15324,44.93348],[11.12014,44.95399],[11.07302,44.96264],[11.05908,44.94883],[10.98978,44.95198],[10.96792,44.93554],[10.95058,44.93321],[10.94994,44.92033],[10.95406,44.89358],[10.97706,44.85952],[11.12228,44.86439],[11.22082,44.88251],[11.26056,44.93406],[11.24621,44.95144]]]]}},{"type":"Feature","properties":{"NAME":"Lordship of Lucca","OHM_NAME":"Lordship of Lucca","ADMIN_LEVEL":4,"OHM_RELATION_ID":2853273,"START_DATE":"1400","END_DATE":"1430"},"geometry":{"type":"MultiPolygon","coordinates":[[[[10.53272,43.75957],[10.55597,43.74952],[10.59546,43.76366],[10.6097,43.75461],[10.62311,43.75691],[10.6451,43.79487],[10.67142,43.81545],[10.63588,43.83081],[10.65125,43.85403],[10.64847,43.86216],[10.67275,43.86975],[10.65842,43.91641],[10.66154,43.92732],[10.70485,43.94272],[10.70952,43.95514],[10.67505,43.98507],[10.68867,43.99454],[10.70669,43.9838],[10.72678,43.98405],[10.74497,44.00979],[10.73596,44.03824],[10.72053,44.04215],[10.72274,44.08197],[10.70661,44.09307],[10.66536,44.10956],[10.64597,44.10623],[10.62464,44.12056],[10.60352,44.11403],[10.5734,44.11994],[10.54464,44.10651],[10.52997,44.07408],[10.51074,44.06199],[10.49688,44.04047],[10.48295,44.03678],[10.46162,44.04607],[10.44729,44.07032],[10.43608,44.07432],[10.409,44.05216],[10.4277,44.02378],[10.44666,44.03478],[10.46721,44.02781],[10.46075,44.02235],[10.47287,44.01138],[10.46705,44.00183],[10.41765,43.99149],[10.3913,44.00084],[10.36388,43.99367],[10.34976,43.98504],[10.35584,43.97511],[10.27586,43.95664],[10.2788,43.96171],[10.22181,43.91613],[10.16659,43.8927],[10.18357,43.87085],[10.20922,43.80719],[10.30707,43.82962],[10.38092,43.81267],[10.41547,43.82406],[10.42528,43.83456],[10.43925,43.80785],[10.4528,43.80538],[10.43933,43.78285],[10.45152,43.7675],[10.50679,43.7558],[10.53272,43.75957]]]]}},{"type":"Feature","properties":{"NAME":"Lordship of Oneglia","OHM_NAME":"Lordship of Oneglia (1298-1488)","ADMIN_LEVEL":3,"OHM_RELATION_ID":2854762,"START_DATE":"1298","END_DATE":"1487"},"geometry":{"type":"MultiPolygon","coordinates":[[[[8.13778,44.15179],[8.15306,44.14237],[8.14439,44.13498],[8.14816,44.11323],[8.17752,44.10836],[8.19683,44.12265],[8.18473,44.13602],[8.16936,44.13867],[8.17451,44.1407],[8.15924,44.15918],[8.13778,44.15179]]],[[[8.31777,44.12129],[8.25584,44.15247],[8.23509,44.14329],[8.24698,44.11786],[8.29105,44.09657],[8.31108,44.10816],[8.31777,44.12129]]],[[[8.11855,44.08968],[8.10551,44.09578],[8.08233,44.09239],[8.09787,44.07359],[8.11993,44.07482],[8.14113,44.06508],[8.15108,44.07044],[8.14396,44.08234],[8.11855,44.08968]]],[[[8.00661,43.99935],[7.97474,44.02027],[7.92565,43.99905],[7.9138,44.00541],[7.92595,44.02525],[7.90222,44.03855],[7.80034,44.03766],[7.81076,44.00641],[7.84793,43.98695],[7.8496,43.97308],[7.8304,43.96646],[7.84317,43.94809],[7.8755,43.93516],[7.88044,43.92583],[7.9081,43.92017],[7.96309,43.91547],[7.99064,43.92414],[8.01757,43.89698],[8.03444,43.89229],[8.06182,43.84795],[8.09575,43.85645],[8.03392,43.93276],[8.01762,43.97466],[8.03652,43.9828],[8.08311,43.98381],[8.09484,44.00222],[8.08965,44.01259],[8.10752,44.01681],[8.12119,44.03753],[8.09976,44.0437],[8.07514,44.03235],[8.06929,44.01698],[8.02377,44.01686],[8.00661,43.99935]]]]}},{"type":"Feature","properties":{"NAME":"Lordship of Piombino","OHM_NAME":"Lordship of Piombino","ADMIN_LEVEL":4,"OHM_RELATION_ID":2852270,"START_DATE":"1399","END_DATE":"1594"},"geometry":{"type":"MultiPolygon","coordinates":[[[[10.89177,42.71965],[10.99663,42.8323],[10.99937,42.85722],[10.87095,42.96813],[10.84655,42.96782],[10.72799,42.89005],[10.71897,42.86882],[10.72353,42.84414],[10.69027,42.82515],[10.68221,42.79423],[10.69967,42.77326],[10.75593,42.74539],[10.89177,42.71965]]],[[[10.72156,43.08437],[10.68317,43.08782],[10.65657,43.07767],[10.69313,43.02059],[10.60713,42.99988],[10.58533,43.00427],[10.52957,43.04501],[10.47921,43.04774],[10.43354,42.99073],[10.43819,42.94618],[10.4542,42.91297],[10.49759,42.89029],[10.52962,42.88368],[10.57242,42.89098],[10.59697,42.91577],[10.68547,42.90844],[10.73543,42.97793],[10.73837,43.0111],[10.7478,43.01659],[10.77984,43.00389],[10.79095,43.01476],[10.78775,43.05568],[10.779,43.06709],[10.73736,43.07099],[10.72156,43.08437]]],[[[10.07838,42.82561],[10.05138,42.79299],[10.05751,42.74564],[10.08793,42.71251],[10.13836,42.68975],[10.19176,42.69493],[10.24337,42.68732],[10.27605,42.69693],[10.33236,42.69821],[10.38452,42.67217],[10.42779,42.66861],[10.47362,42.68834],[10.48733,42.71129],[10.47814,42.75373],[10.4874,42.772],[10.48456,42.81728],[10.49596,42.83946],[10.49485,42.85611],[10.47022,42.88477],[10.43626,42.90801],[10.4094,42.91188],[10.37662,42.90213],[10.33857,42.85987],[10.25601,42.8687],[10.21535,42.84795],[10.12961,42.84728],[10.07838,42.82561]]]]}},{"type":"Feature","properties":{"NAME":"Lordship of Rimini","OHM_NAME":"Lordship of Rimini","ADMIN_LEVEL":3,"OHM_RELATION_ID":2800702,"START_DATE":"1295","END_DATE":"1500"},"geometry":{"type":"MultiPolygon","coordinates":[[[[11.9702,44.17909],[11.93317,44.14375],[11.94514,44.1395],[11.94626,44.12244],[11.93896,44.11819],[11.9315,44.13501],[11.91274,44.13069],[11.92399,44.09292],[11.91656,44.07168],[11.92699,44.05555],[11.95132,44.05145],[11.92356,44.03914],[11.92986,44.02816],[11.92308,44.01726],[11.92583,44.00075],[11.92974,43.98911],[11.956,43.9745],[11.95639,43.96317],[11.93562,43.96187],[11.92759,43.97219],[11.91356,43.96823],[11.91575,43.95186],[11.90901,43.94667],[11.92974,43.93669],[11.95261,43.9064],[11.98377,43.90729],[12.00746,43.91623],[12.0114,43.93891],[12.02939,43.94166],[12.02999,43.92488],[12.04934,43.9192],[12.0426,43.93539],[12.06277,43.95538],[12.09303,43.95625],[12.13311,43.93499],[12.15036,43.96085],[12.16491,43.95665],[12.15629,43.94309],[12.17362,43.93394],[12.16927,43.92379],[12.15298,43.92232],[12.14796,43.93715],[12.12517,43.91984],[12.11123,43.91969],[12.10766,43.91366],[12.11946,43.90327],[12.1129,43.89959],[12.09256,43.89845],[12.09548,43.91162],[12.08663,43.91349],[12.07067,43.90507],[12.06779,43.88933],[12.08273,43.89202],[12.08771,43.86678],[12.1223,43.8755],[12.11397,43.88441],[12.1229,43.90068],[12.12702,43.88657],[12.1526,43.86826],[12.13826,43.84764],[12.15099,43.83759],[12.14849,43.82901],[12.1312,43.82681],[12.11943,43.80232],[12.10249,43.79044],[12.09617,43.76524],[12.10785,43.75352],[12.138,43.75253],[12.16177,43.76241],[12.19167,43.73474],[12.20907,43.75716],[12.22803,43.75956],[12.24831,43.75151],[12.25663,43.76069],[12.28257,43.76516],[12.28992,43.78659],[12.28563,43.7952],[12.31583,43.80561],[12.35344,43.80071],[12.367,43.81248],[12.38262,43.81372],[12.39773,43.82611],[12.39412,43.86139],[12.40063,43.87278],[12.44579,43.87191],[12.46174,43.88827],[12.44013,43.90581],[12.40961,43.90193],[12.40827,43.92152],[12.41506,43.92944],[12.40395,43.95518],[12.43529,43.9567],[12.50804,43.9909],[12.51551,43.9863],[12.50593,43.9711],[12.5162,43.94074],[12.49376,43.91952],[12.4874,43.89647],[12.49935,43.8734],[12.51763,43.88082],[12.54089,43.86473],[12.56166,43.87067],[12.56424,43.88292],[12.58827,43.88379],[12.62175,43.82462],[12.68148,43.82784],[12.68191,43.8513],[12.72569,43.86251],[12.73393,43.87111],[12.72303,43.88063],[12.7323,43.9008],[12.72826,43.91954],[12.77404,44.00216],[12.72208,44.01712],[12.60594,44.10996],[12.57423,44.11702],[12.43154,44.24236],[12.38261,44.22689],[12.3475,44.19189],[12.28747,44.22876],[12.26306,44.23156],[12.21876,44.21488],[12.20096,44.23009],[12.20894,44.25551],[12.17354,44.24326],[12.10318,44.2718],[12.10802,44.28833],[12.06449,44.30214],[12.04307,44.32831],[12.03164,44.33028],[11.97379,44.25471],[11.91497,44.20925],[11.93512,44.20321],[11.93649,44.19268],[11.96332,44.20668],[11.9702,44.17909]]]]}},{"type":"Feature","properties":{"NAME":"March of Montferrat","OHM_NAME":"March of Montferrat","ADMIN_LEVEL":6,"OHM_RELATION_ID":2800678,"START_DATE":"1000","END_DATE":"1708"},"geometry":{"type":"MultiPolygon","coordinates":[[[[8.35849,44.46494],[8.39407,44.47909],[8.39915,44.50095],[8.41743,44.51283],[8.44653,44.49877],[8.46926,44.52172],[8.47966,44.51058],[8.57598,44.50721],[8.60105,44.54586],[8.59857,44.5655],[8.60716,44.58258],[8.62111,44.58855],[8.57689,44.72283],[8.56247,44.84565],[8.56316,44.93272],[8.64131,45.04405],[8.63811,45.04931],[8.64697,45.05465],[8.63691,45.06652],[8.6459,45.07489],[8.60848,45.10838],[8.61367,45.12699],[8.5917,45.13134],[8.58008,45.15269],[8.55534,45.15727],[8.52745,45.24395],[8.12782,45.25652],[8.09383,45.24855],[8.0698,45.1997],[7.95135,45.19559],[8.02963,45.13071],[8.05847,45.07207],[8.28026,45.0153],[8.33244,44.99491],[8.35579,44.94439],[8.30704,44.8325],[8.19992,44.78476],[8.02826,44.79938],[8.00766,44.73308],[7.91839,44.70576],[7.87857,44.63935],[7.9129,44.55525],[7.91427,44.45829],[7.96921,44.42299],[8.04336,44.39749],[8.1134,44.49063],[8.26157,44.51944],[8.27188,44.50644],[8.30255,44.50326],[8.32399,44.48764],[8.35005,44.48481],[8.35849,44.46494]]]]}},{"type":"Feature","properties":{"NAME":"Marquisate of Saluzzo","OHM_NAME":"Marquisate of Saluzzo","ADMIN_LEVEL":4,"OHM_RELATION_ID":2892597,"START_DATE":"1190","END_DATE":"1548-02-23"},"geometry":{"type":"MultiPolygon","coordinates":[[[[7.47826,44.75819],[7.44777,44.75528],[7.45107,44.73922],[7.42607,44.72454],[7.34076,44.70589],[7.33646,44.68086],[7.31077,44.68438],[7.28816,44.70565],[7.26381,44.71548],[7.21664,44.71454],[7.14918,44.74308],[7.12921,44.73904],[7.12085,44.7259],[7.06535,44.71383],[7.0771,44.68163],[7.02877,44.69169],[6.98974,44.69038],[6.96283,44.67808],[6.94825,44.6545],[6.91555,44.66005],[6.88199,44.63055],[6.8583,44.62951],[6.85461,44.61491],[6.8389,44.60856],[6.77977,44.53788],[6.79367,44.50336],[6.81427,44.37001],[6.88019,44.36019],[6.91864,44.33858],[6.96121,44.28552],[6.96396,44.23831],[7.02988,44.22454],[7.12601,44.17531],[7.14935,44.19008],[7.19742,44.2752],[7.22282,44.28601],[7.27982,44.28699],[7.33131,44.27176],[7.40959,44.32139],[7.45422,44.33367],[7.43019,44.39896],[7.37732,44.39013],[7.37595,44.46662],[7.35741,44.50336],[7.38144,44.52882],[7.42538,44.52491],[7.43568,44.56161],[7.50023,44.62371],[7.50847,44.65009],[7.46933,44.65742],[7.47826,44.75819]]]]}},{"type":"Feature","properties":{"NAME":"Republic of Ancona","OHM_NAME":"Republic of Ancona","ADMIN_LEVEL":3,"OHM_RELATION_ID":2795688,"START_DATE":"1100","END_DATE":"1532"},"geometry":{"type":"MultiPolygon","coordinates":[[[[13.33912,43.65491],[13.29723,43.61644],[13.26239,43.62017],[13.24419,43.61495],[13.23853,43.60401],[13.23904,43.59307],[13.25809,43.58275],[13.32667,43.61184],[13.34796,43.59917],[13.30513,43.54606],[13.33603,43.46563],[13.54153,43.4353],[13.68892,43.48687],[13.67824,43.50792],[13.68045,43.552],[13.67204,43.56899],[13.61644,43.60026],[13.56116,43.65168],[13.49914,43.66987],[13.45667,43.65122],[13.36991,43.68649],[13.33912,43.65491]]]]}},{"type":"Feature","properties":{"NAME":"Republic of Florence","OHM_NAME":"Republic of Florence","ADMIN_LEVEL":4,"OHM_RELATION_ID":2800634,"START_DATE":"1115","END_DATE":"1405"},"geometry":{"type":"MultiPolygon","coordinates":[[[[11.05568,43.57815],[11.19404,43.41689],[11.40931,43.43796],[11.61461,43.52652],[11.55933,43.62216],[11.43368,43.75659],[11.57272,43.88998],[11.41183,43.9909],[11.3269,43.97997],[11.12795,44.01924],[11.10392,43.93548],[11.16005,43.90482],[11.10409,43.81818],[10.87887,43.76502],[10.93159,43.65339],[11.05568,43.57815]]]]}},{"type":"Feature","properties":{"NAME":"Republic of Genoa","OHM_NAME":"Republic of Genoa","ADMIN_LEVEL":4,"OHM_RELATION_ID":2851376,"START_DATE":"1354","END_DATE":"1453"},"geometry":{"type":"MultiPolygon","coordinates":[[[[8.04293,44.14283],[8.01401,44.15582],[7.97963,44.13846],[8.0126,44.12012],[8.00269,44.11663],[8.01225,44.11103],[8.00658,44.10232],[7.97128,44.11279],[7.94252,44.10059],[7.92601,44.1118],[7.88393,44.10588],[7.88154,44.11373],[7.81483,44.12399],[7.76473,44.14392],[7.72579,44.12618],[7.71458,44.10663],[7.73284,44.08351],[7.75451,44.08546],[7.73608,44.07623],[7.72761,44.05979],[7.71175,44.06064],[7.70292,44.0434],[7.6654,44.03108],[7.66162,44.02232],[7.67016,43.99849],[7.75173,43.95797],[7.75875,43.94253],[7.74261,43.90977],[7.72751,43.90432],[7.7354,43.87612],[7.71006,43.85491],[7.71378,43.83898],[7.68701,43.83332],[7.65163,43.84468],[7.61365,43.83888],[7.60355,43.86209],[7.58453,43.87262],[7.57936,43.89083],[7.55905,43.89718],[7.51009,43.88203],[7.49806,43.87185],[7.49591,43.85338],[7.50776,43.84184],[7.52951,43.78907],[7.53851,43.74613],[7.58948,43.75342],[7.68964,43.74253],[7.71959,43.75904],[7.75234,43.76069],[7.78904,43.77857],[7.84116,43.78085],[7.88425,43.79961],[7.92785,43.80215],[8.05845,43.84555],[8.03444,43.89229],[8.01757,43.89698],[7.99109,43.92334],[7.96309,43.91547],[7.90936,43.92],[7.88138,43.92434],[7.87606,43.93318],[7.84462,43.94474],[7.83265,43.9625],[7.8496,43.97308],[7.84823,43.98392],[7.80729,44.01124],[7.80034,44.03766],[7.90222,44.03855],[7.92599,44.02689],[7.91681,44.00384],[7.92882,43.99865],[7.97474,44.02027],[8.00247,43.99987],[8.0124,44.00075],[8.02819,44.0151],[8.04972,44.01171],[8.07233,44.01877],[8.08557,44.03849],[8.10488,44.04465],[8.12081,44.03792],[8.11317,44.02229],[8.09265,44.01632],[8.08568,43.98596],[8.01624,43.9775],[8.05375,43.90513],[8.09432,43.85859],[8.10101,43.86162],[8.12645,43.88665],[8.21333,43.9328],[8.22381,43.9532],[8.21367,43.98015],[8.27425,44.03514],[8.27652,44.07474],[8.29338,44.09855],[8.31867,44.1218],[8.39975,44.14523],[8.36557,44.18996],[8.40034,44.22755],[8.42158,44.23348],[8.47193,44.20946],[8.49953,44.2403],[8.50486,44.26805],[8.54913,44.29966],[8.75151,44.38709],[9.09726,44.33323],[9.09637,44.31463],[9.11604,44.29273],[9.20574,44.2642],[9.23721,44.26604],[9.27307,44.29204],[9.33193,44.26815],[9.34664,44.24486],[9.37222,44.22537],[9.46503,44.19855],[9.52,44.17254],[9.59888,44.10968],[9.63154,44.09865],[9.65738,44.10286],[9.71106,44.06215],[9.79085,44.02818],[9.82605,44.00057],[9.87648,44.00497],[9.89864,44.03037],[9.94451,44.00427],[9.99076,44.00092],[10.03194,44.06396],[10.07091,44.09308],[10.05815,44.10805],[10.02837,44.11903],[10.00512,44.1106],[9.99339,44.09269],[9.98356,44.09923],[9.99358,44.10462],[9.99506,44.11896],[9.97465,44.13755],[9.98077,44.14342],[9.97412,44.16682],[9.89215,44.16733],[9.93269,44.19604],[9.9149,44.19932],[9.90868,44.20848],[9.89121,44.20781],[9.86608,44.18337],[9.85247,44.19694],[9.82476,44.19796],[9.82096,44.22474],[9.80225,44.20574],[9.76277,44.20614],[9.76537,44.21202],[9.75445,44.21967],[9.75937,44.23415],[9.74765,44.25357],[9.78073,44.29412],[9.7556,44.32081],[9.72946,44.32833],[9.71887,44.35492],[9.69937,44.36637],[9.67506,44.36407],[9.65538,44.41231],[9.63827,44.41453],[9.60573,44.43488],[9.58491,44.42932],[9.55845,44.43863],[9.54094,44.42563],[9.49468,44.42362],[9.47903,44.40926],[9.46395,44.42477],[9.44292,44.41655],[9.43869,44.4293],[9.45767,44.44248],[9.47134,44.46864],[9.46912,44.48142],[9.49622,44.48297],[9.5052,44.52934],[9.48029,44.56297],[9.40867,44.56002],[9.42103,44.57359],[9.4172,44.59633],[9.39614,44.60997],[9.40439,44.64192],[9.36633,44.69043],[9.25974,44.67988],[9.23637,44.71498],[9.23204,44.70161],[9.24295,44.68667],[9.20032,44.6864],[9.16556,44.69259],[9.12789,44.72752],[9.07809,44.72177],[9.02911,44.74972],[9.0076,44.74961],[9.00381,44.7434],[9.02149,44.72893],[9.01943,44.71625],[9.00363,44.70909],[8.98822,44.71538],[8.94814,44.70085],[8.94448,44.70831],[8.89834,44.69798],[8.87215,44.70527],[8.84555,44.69489],[8.82749,44.71648],[8.8251,44.73078],[8.84687,44.76136],[8.84712,44.79828],[8.83027,44.8042],[8.81239,44.78831],[8.78117,44.78135],[8.76559,44.78513],[8.75875,44.80047],[8.74409,44.80693],[8.73067,44.80492],[8.72193,44.793],[8.75974,44.74563],[8.79313,44.72329],[8.78803,44.71356],[8.77087,44.71625],[8.76279,44.69122],[8.78061,44.68302],[8.78934,44.66395],[8.81978,44.64017],[8.79393,44.61786],[8.80675,44.59671],[8.80378,44.58005],[8.81824,44.57115],[8.82574,44.55883],[8.82151,44.54752],[8.82827,44.54579],[8.79763,44.52538],[8.79986,44.5023],[8.7857,44.48754],[8.77119,44.48947],[8.76477,44.52966],[8.75216,44.52552],[8.7487,44.55015],[8.73894,44.55023],[8.72462,44.57862],[8.69718,44.57973],[8.67285,44.5967],[8.68452,44.61076],[8.67199,44.62078],[8.67452,44.64011],[8.663,44.656],[8.61771,44.65084],[8.60301,44.64289],[8.60062,44.63216],[8.61774,44.60831],[8.61339,44.60209],[8.62302,44.59689],[8.61876,44.57663],[8.5968,44.55525],[8.61191,44.54791],[8.58685,44.52515],[8.57174,44.52442],[8.57616,44.50923],[8.5501,44.50351],[8.53638,44.51242],[8.47406,44.5107],[8.4709,44.52218],[8.45938,44.51812],[8.44841,44.49866],[8.46098,44.49278],[8.46392,44.469],[8.44443,44.43873],[8.37691,44.4077],[8.34394,44.35061],[8.35537,44.33206],[8.33897,44.31992],[8.33761,44.29901],[8.31305,44.26241],[8.30527,44.25671],[8.27215,44.27228],[8.24781,44.27262],[8.27074,44.3023],[8.27178,44.31815],[8.31648,44.32667],[8.31794,44.34349],[8.28865,44.36692],[8.26738,44.35246],[8.25461,44.2998],[8.23228,44.29523],[8.23466,44.30556],[8.22329,44.32285],[8.21177,44.32459],[8.15617,44.272],[8.10173,44.2811],[8.06316,44.25337],[8.07736,44.23458],[8.06826,44.22749],[8.07592,44.20412],[8.14819,44.20636],[8.17026,44.21421],[8.18653,44.17839],[8.151,44.16472],[8.09464,44.17721],[8.07199,44.14773],[8.04293,44.14283]],[[8.11855,44.08968],[8.13478,44.09153],[8.13915,44.10423],[8.15074,44.10195],[8.14104,44.09295],[8.15349,44.07427],[8.15048,44.06773],[8.09787,44.07359],[8.08319,44.08931],[8.10551,44.09578],[8.11855,44.08968]],[[8.13778,44.15179],[8.1516,44.16029],[8.16464,44.15548],[8.17906,44.14132],[8.17237,44.14144],[8.19168,44.1335],[8.19683,44.12265],[8.19014,44.11039],[8.14816,44.11323],[8.14293,44.12555],[8.15289,44.13904],[8.13778,44.15179]]],[[[8.54945,42.41847],[8.51655,42.41137],[8.48397,42.37949],[8.50594,42.31478],[8.5318,42.29699],[8.55466,42.29217],[8.56195,42.28206],[8.50628,42.26784],[8.48872,42.24876],[8.48983,42.22173],[8.51586,42.19309],[8.50614,42.13659],[8.54582,42.10049],[8.59354,42.09013],[8.62832,42.06882],[8.65857,42.0615],[8.62078,42.03915],[8.60295,42.01255],[8.56458,41.9984],[8.54154,41.97695],[8.53911,41.95419],[8.55731,41.91785],[8.53833,41.89262],[8.53336,41.86585],[8.55042,41.84418],[8.58909,41.83412],[8.6283,41.84373],[8.64784,41.86687],[8.70701,41.86744],[8.69705,41.84227],[8.66123,41.81546],[8.65685,41.79184],[8.61245,41.76773],[8.60936,41.72541],[8.63,41.70685],[8.66148,41.70033],[8.68963,41.68429],[8.73329,41.68457],[8.76035,41.66373],[8.74304,41.64673],[8.72434,41.6069],[8.72357,41.57972],[8.74475,41.53646],[8.78568,41.51506],[8.80763,41.48857],[8.90123,41.45178],[8.93395,41.45022],[9.0315,41.41766],[9.04285,41.38268],[9.05902,41.36354],[9.09427,41.35152],[9.11814,41.3531],[9.15515,41.33177],[9.19629,41.32611],[9.23461,41.29868],[9.26983,41.29181],[9.32845,41.34243],[9.32549,41.38038],[9.30877,41.39951],[9.34026,41.48275],[9.37396,41.47204],[9.39926,41.4731],[9.43168,41.50028],[9.43292,41.51245],[9.42049,41.53402],[9.42843,41.55788],[9.41788,41.61],[9.44651,41.65627],[9.45958,41.71038],[9.45252,41.87165],[9.46664,41.91158],[9.46579,41.94509],[9.59222,42.08014],[9.60774,42.11941],[9.61235,42.28919],[9.58579,42.38017],[9.59647,42.42447],[9.58294,42.49343],[9.58659,42.54766],[9.56214,42.60265],[9.50028,42.67336],[9.52088,42.75311],[9.5424,42.78594],[9.54526,42.81327],[9.52572,42.92581],[9.50963,42.96347],[9.51635,42.98205],[9.51066,43.00464],[9.44363,43.05547],[9.4162,43.06593],[9.38518,43.06376],[9.3108,43.0294],[9.28809,43.00238],[9.29746,42.94051],[9.2706,42.90852],[9.27577,42.86886],[9.25622,42.83207],[9.28721,42.78635],[9.287,42.75001],[9.22455,42.77453],[9.15851,42.7756],[9.10196,42.76718],[9.02247,42.7261],[8.99723,42.6843],[8.96227,42.67791],[8.91522,42.68264],[8.85324,42.66336],[8.83284,42.64761],[8.77737,42.63678],[8.7529,42.61775],[8.73201,42.62301],[8.69504,42.61688],[8.65937,42.5906],[8.65304,42.5713],[8.65709,42.55556],[8.63601,42.54781],[8.61659,42.52903],[8.59636,42.47932],[8.59808,42.45504],[8.56553,42.44218],[8.54945,42.41847]]]]}},{"type":"Feature","properties":{"NAME":"Republic of Pisa","OHM_NAME":"Republic of Pisa (1399-1406)","ADMIN_LEVEL":4,"OHM_RELATION_ID":2853485,"START_DATE":"1399","END_DATE":"1406"},"geometry":{"type":"MultiPolygon","coordinates":[[[[10.72156,43.08437],[10.71728,43.10848],[10.73739,43.1456],[10.77694,43.14144],[10.80082,43.15983],[10.84184,43.15254],[10.91165,43.16256],[10.91229,43.1741],[10.93408,43.20256],[10.92929,43.23206],[10.93527,43.24048],[10.98097,43.23463],[10.99462,43.25317],[10.99447,43.26942],[10.96159,43.29778],[10.95344,43.3176],[10.96039,43.33305],[10.99813,43.34722],[11.00499,43.3566],[11.00481,43.38325],[10.99523,43.40388],[10.95212,43.45223],[10.88537,43.45991],[10.86048,43.472],[10.83523,43.53124],[10.83635,43.58415],[10.81969,43.61344],[10.82892,43.62273],[10.88937,43.62796],[10.91057,43.65128],[10.90726,43.68012],[10.88913,43.7085],[10.8659,43.73041],[10.79348,43.71898],[10.77566,43.7371],[10.72794,43.76322],[10.68774,43.8052],[10.65501,43.80245],[10.62311,43.75691],[10.59717,43.75981],[10.55597,43.74952],[10.5255,43.76191],[10.50111,43.75345],[10.45152,43.7675],[10.43991,43.7896],[10.45136,43.80282],[10.43925,43.80785],[10.42742,43.83127],[10.38127,43.81404],[10.30859,43.82901],[10.20922,43.80719],[10.22982,43.69992],[10.2215,43.68833],[10.22121,43.66793],[10.23574,43.63868],[10.24666,43.57732],[10.24119,43.55283],[10.25516,43.51665],[10.27018,43.50006],[10.28588,43.45727],[10.31444,43.43458],[10.3379,43.42669],[10.36517,43.37839],[10.39189,43.36014],[10.4137,43.30768],[10.46009,43.26989],[10.4763,43.23463],[10.48988,43.14419],[10.47921,43.04774],[10.52957,43.04501],[10.58533,43.00427],[10.60713,42.99988],[10.69313,43.02059],[10.65657,43.07767],[10.68317,43.08782],[10.72156,43.08437]]]]}},{"type":"Feature","properties":{"NAME":"Republic of Siena","OHM_NAME":"Republic of Siena","ADMIN_LEVEL":4,"OHM_RELATION_ID":2750802,"START_DATE":"1350","END_DATE":"1555"},"geometry":{"type":"MultiPolygon","coordinates":[[[[11.79876,43.20327],[11.40931,43.43796],[11.19404,43.41689],[10.96039,43.33305],[10.95672,43.30364],[10.98638,43.28027],[10.99462,43.25317],[10.98097,43.23463],[10.93527,43.24048],[10.92929,43.23206],[10.93408,43.20256],[10.91229,43.1741],[10.91165,43.16256],[10.84184,43.15254],[10.80082,43.15983],[10.78072,43.14426],[10.74029,43.14814],[10.71728,43.10848],[10.72433,43.07555],[10.779,43.06709],[10.78775,43.05568],[10.79095,43.01476],[10.77984,43.00389],[10.7478,43.01659],[10.73837,43.0111],[10.73543,42.97793],[10.68831,42.90786],[10.72799,42.89005],[10.84655,42.96782],[10.87095,42.96813],[10.99937,42.85722],[10.99663,42.8323],[10.89177,42.71965],[10.93853,42.69578],[10.97509,42.63426],[11.0328,42.6088],[11.08274,42.53799],[11.14192,42.50838],[11.13821,42.4794],[11.08341,42.48081],[11.04172,42.44526],[11.03961,42.39577],[11.06328,42.3672],[11.14977,42.3243],[11.20895,42.33013],[11.25916,42.37457],[11.42636,42.34473],[11.47876,42.42589],[11.49814,42.43405],[11.59017,42.44196],[11.60476,42.4524],[11.60785,42.48733],[11.56593,42.51612],[11.58553,42.5359],[11.58817,42.56614],[11.60117,42.56952],[11.61152,42.62183],[11.66679,42.65542],[11.71108,42.65757],[11.71812,42.6642],[11.70044,42.68572],[11.72035,42.72255],[11.76155,42.7518],[11.79001,42.75522],[11.77388,42.78065],[11.74723,42.79848],[11.75048,42.80633],[11.77467,42.82095],[11.80805,42.81335],[11.84061,42.83579],[11.89503,42.83467],[11.89167,42.84319],[11.913,42.85008],[11.9514,42.8933],[11.93217,42.9272],[11.97244,43.02173],[11.97548,43.05887],[11.95775,43.07453],[11.93744,43.06301],[11.92984,43.06856],[11.91776,43.12243],[11.92194,43.13791],[11.79876,43.20327]]]]}}],"metadata":{"source":"OpenHistoricalMap","sourceUrl":"https://www.openhistoricalmap.org/","license":"CC0-1.0","year":1400,"featureCount":16,"missingWays":{},"unclosedRings":{},"droppedInnerRings":{},"droppedPartsOutsideBbox":{"2851376":5},"relationsWithoutGeometry":[]}}