{"type":"FeatureCollection","features":[{"type":"Feature","properties":{"NAME":"Duchy of Spoleto","OHM_NAME":"Duchy of Spoleto","ADMIN_LEVEL":4,"OHM_RELATION_ID":2805388,"START_DATE":"0831","END_DATE":"1201"},"geometry":{"type":"MultiPolygon","coordinates":[[[[14.18711,42.55262],[14.10478,42.63698],[14.00437,42.78881],[13.96475,42.90991],[13.92117,42.99692],[13.89023,43.11262],[13.79273,43.30199],[13.74417,43.29206],[13.4967,43.2862],[13.44864,43.3022],[13.41705,43.35215],[13.34289,43.33217],[13.20007,43.34516],[13.14377,43.423],[13.11905,43.43298],[13.03528,43.39008],[12.94876,43.42799],[12.84164,43.39507],[12.64252,43.2872],[12.5766,43.2342],[12.55875,43.18816],[12.48733,43.15911],[12.42416,43.08694],[12.42554,42.94738],[12.46673,42.8981],[12.56973,42.89106],[12.59582,42.82764],[12.55188,42.76214],[12.60784,42.71927],[12.57523,42.56016],[12.50244,42.53892],[12.43652,42.46197],[12.45506,42.39811],[12.51205,42.38188],[12.60612,42.42295],[12.74277,42.38898],[12.88284,42.29763],[12.88421,42.14406],[12.96524,42.1349],[13.04901,42.1746],[13.10394,42.14813],[13.07922,42.11758],[13.14239,42.01155],[13.32641,41.91863],[13.43216,41.82353],[13.57635,41.74365],[13.62579,41.65445],[13.66562,41.70983],[13.70407,41.88081],[13.86337,41.90534],[13.9444,41.84604],[13.99383,41.68163],[14.13734,41.6565],[14.21356,41.70573],[14.32617,41.7539],[14.48685,41.79487],[14.62967,41.80101],[14.77524,41.87161],[14.87961,41.84706],[14.84527,41.93702],[14.99079,42.04291],[14.8862,42.06584],[14.77421,42.11438],[14.76281,42.18611],[14.74073,42.20755],[14.64547,42.23167],[14.55391,42.27364],[14.53672,42.29894],[14.47345,42.34204],[14.46928,42.36674],[14.4579,42.37875],[14.2953,42.46703],[14.18711,42.55262]]]]}},{"type":"Feature","properties":{"NAME":"March of Montferrat","OHM_NAME":"March of Montferrat","ADMIN_LEVEL":6,"OHM_RELATION_ID":2800678,"START_DATE":"1000","END_DATE":"1708"},"geometry":{"type":"MultiPolygon","coordinates":[[[[8.35849,44.46494],[8.39407,44.47909],[8.39915,44.50095],[8.41743,44.51283],[8.44653,44.49877],[8.46926,44.52172],[8.47966,44.51058],[8.57598,44.50721],[8.60105,44.54586],[8.59857,44.5655],[8.60716,44.58258],[8.62111,44.58855],[8.57689,44.72283],[8.56247,44.84565],[8.56316,44.93272],[8.64131,45.04405],[8.63811,45.04931],[8.64697,45.05465],[8.63691,45.06652],[8.6459,45.07489],[8.60848,45.10838],[8.61367,45.12699],[8.5917,45.13134],[8.58008,45.15269],[8.55534,45.15727],[8.52745,45.24395],[8.12782,45.25652],[8.09383,45.24855],[8.0698,45.1997],[7.95135,45.19559],[8.02963,45.13071],[8.05847,45.07207],[8.28026,45.0153],[8.33244,44.99491],[8.35579,44.94439],[8.30704,44.8325],[8.19992,44.78476],[8.02826,44.79938],[8.00766,44.73308],[7.91839,44.70576],[7.87857,44.63935],[7.9129,44.55525],[7.91427,44.45829],[7.96921,44.42299],[8.04336,44.39749],[8.1134,44.49063],[8.26157,44.51944],[8.27188,44.50644],[8.30255,44.50326],[8.32399,44.48764],[8.35005,44.48481],[8.35849,44.46494]]]]}},{"type":"Feature","properties":{"NAME":"March of Tuscany","OHM_NAME":"March of Tuscany","ADMIN_LEVEL":4,"OHM_RELATION_ID":2805420,"START_DATE":"0988","END_DATE":"1115-07-27"},"geometry":{"type":"MultiPolygon","coordinates":[[[[9.89864,44.03037],[9.94451,44.00427],[10.00231,44.00445],[10.05225,43.989],[10.12988,43.93142],[10.18357,43.87085],[10.2136,43.79615],[10.22641,43.73933],[10.22982,43.69992],[10.21964,43.67804],[10.23574,43.63868],[10.24666,43.57732],[10.24119,43.55283],[10.25516,43.51665],[10.27018,43.50006],[10.28588,43.45727],[10.31444,43.43458],[10.3379,43.42669],[10.36517,43.37839],[10.38674,43.36717],[10.4137,43.30768],[10.46009,43.26989],[10.47835,43.22779],[10.48988,43.14419],[10.48282,43.06017],[10.47616,43.03782],[10.43998,43.00647],[10.43354,42.99073],[10.43819,42.94618],[10.4542,42.91297],[10.49759,42.89029],[10.52962,42.88368],[10.57242,42.89098],[10.59697,42.91577],[10.6197,42.91784],[10.6745,42.91176],[10.72309,42.89294],[10.72353,42.84414],[10.68697,42.82041],[10.68221,42.79423],[10.68847,42.78264],[10.75593,42.74539],[10.84983,42.73019],[10.92599,42.70502],[10.94342,42.68909],[10.9708,42.63817],[11.0328,42.6088],[11.03953,42.59444],[11.16554,42.6481],[11.21086,42.72987],[11.23833,42.73188],[11.24313,42.746],[11.32828,42.74348],[11.37978,42.77071],[11.42715,42.83419],[11.47247,42.85281],[11.54697,42.86867],[11.58234,42.92174],[11.71966,42.93883],[11.73546,42.92777],[11.69289,42.881],[11.74232,42.83368],[11.77082,42.82613],[11.79794,42.84476],[11.81957,42.87571],[11.86283,42.8893],[11.91639,42.89232],[11.92806,42.90514],[11.93012,42.92224],[11.94935,42.93355],[11.98952,42.93607],[12.02574,42.92136],[12.04479,42.93142],[12.08582,42.9059],[12.18731,42.94998],[12.24014,42.94788],[12.30949,42.91168],[12.3912,42.91319],[12.42279,42.94285],[12.42004,42.972],[12.43172,42.98556],[12.43652,43.01318],[12.46948,43.02624],[12.47703,43.04581],[12.5663,43.07591],[12.57797,43.109],[12.55737,43.18215],[12.5687,43.22769],[12.5869,43.2492],[12.56973,43.27071],[12.53677,43.26671],[12.47189,43.30569],[12.42451,43.27121],[12.40837,43.31094],[12.36305,43.33167],[12.32877,43.35991],[12.44888,43.44594],[12.32941,43.50374],[12.33353,43.56845],[12.31293,43.59183],[12.2834,43.5973],[12.2374,43.57989],[12.22916,43.60227],[12.11861,43.66489],[12.10419,43.70958],[12.1598,43.78795],[12.15912,43.84295],[12.1241,43.86424],[12.05887,43.86374],[11.99295,43.84493],[11.90575,43.86226],[11.85287,43.89888],[11.79451,43.89888],[11.76292,43.93351],[11.71074,43.96218],[11.54388,43.96762],[11.48415,43.98689],[11.39969,44.05009],[11.35231,44.06095],[11.23695,44.05947],[11.21223,44.12111],[11.1422,44.11816],[11.07662,44.07945],[11.03611,44.0792],[11.03439,44.10435],[11.05053,44.13565],[11.04332,44.15487],[10.99525,44.15955],[10.91354,44.10016],[10.88779,44.10189],[10.86513,44.1327],[10.8272,44.13233],[10.78857,44.14329],[10.88127,44.25159],[10.91492,44.25454],[10.94582,44.21371],[11.03783,44.32925],[11.03714,44.38964],[11.00967,44.40141],[11.04126,44.4676],[11.0701,44.4725],[11.06804,44.51903],[11.09619,44.57531],[11.08108,44.60758],[11.11267,44.62811],[11.147,44.60465],[11.17104,44.60465],[11.19747,44.65864],[11.18854,44.8006],[11.2009,44.81326],[11.24622,44.8118],[11.26648,44.83104],[11.30939,44.84735],[11.29532,44.86536],[11.3118,44.86852],[11.3269,44.85344],[11.41891,44.82276],[11.46698,44.79158],[11.50062,44.74283],[11.54594,44.73161],[11.58646,44.70429],[11.60362,44.70283],[11.62216,44.68135],[11.64345,44.68281],[11.67641,44.65644],[11.79726,44.6369],[11.80756,44.72039],[11.91055,44.77452],[11.91124,44.88117],[11.92978,44.91425],[11.89751,44.93224],[11.8158,44.93516],[11.80893,44.96868],[11.77185,44.98277],[11.72722,44.97597],[11.63212,45.00535],[11.50955,45.01457],[11.50955,45.04515],[11.44775,45.04709],[11.42647,45.05873],[11.3669,45.06249],[11.31514,45.08964],[11.26825,45.09075],[11.26648,45.05533],[11.23936,45.04442],[11.1961,45.05582],[11.16348,45.04466],[11.12503,45.06212],[11.06598,45.04272],[11.07731,45.11206],[11.04126,45.13701],[10.96916,45.15347],[10.9156,45.19897],[10.88539,45.2744],[10.84145,45.29808],[10.76935,45.30097],[10.7048,45.32077],[10.64026,45.3753],[10.59082,45.36855],[10.53383,45.31063],[10.47821,45.31498],[10.47203,45.27247],[10.50224,45.24685],[10.50842,45.21929],[10.46516,45.21784],[10.42946,45.19462],[10.44868,45.13459],[10.49538,45.13652],[10.53795,45.11133],[10.57503,45.11036],[10.60181,45.08952],[10.61073,45.05364],[10.643,45.03569],[10.6794,45.04636],[10.70137,45.03326],[10.67459,45.01336],[10.6739,44.97063],[10.65056,44.9614],[10.66017,44.90841],[10.58533,44.87485],[10.54275,44.8802],[10.52147,44.89869],[10.46104,44.86755],[10.46173,44.83932],[10.44182,44.82325],[10.44182,44.77209],[10.39238,44.7638],[10.39307,44.64716],[10.36629,44.59242],[10.34114,44.56008],[10.33127,44.52637],[10.44422,44.51732],[10.4892,44.4823],[10.56747,44.44408],[10.58807,44.41711],[10.49057,44.32974],[10.46036,44.26094],[10.43083,44.2924],[10.38963,44.29486],[10.28664,44.25848],[10.26398,44.26291],[10.1802,44.24914],[10.13489,44.26487],[10.18158,44.33269],[10.15274,44.3651],[10.08957,44.36412],[9.95636,44.49259],[9.91653,44.46515],[9.87121,44.45927],[9.83139,44.42397],[9.7435,44.39062],[9.89864,44.03037]]],[[[10.10948,44.95897],[10.07721,44.97597],[9.97147,44.96043],[9.9234,44.9123],[9.93027,44.86852],[9.91173,44.84467],[9.90829,44.81643],[9.94675,44.78232],[10.0106,44.77647],[10.08888,44.74722],[10.08957,44.77209],[10.14862,44.84613],[10.10536,44.89528],[10.10948,44.95897]]],[[[9.70642,45.22461],[9.75929,45.27247],[9.76685,45.32174],[9.74968,45.40424],[9.70642,45.39845],[9.65286,45.43894],[9.59038,45.38929],[9.54369,45.3864],[9.52789,45.32029],[9.57252,45.27537],[9.61784,45.29663],[9.6357,45.28552],[9.62196,45.26184],[9.64119,45.24976],[9.6611,45.26184],[9.69406,45.25652],[9.70642,45.22461]]]]}}],"metadata":{"source":"OpenHistoricalMap","sourceUrl":"https://www.openhistoricalmap.org/","license":"CC0-1.0","year":1000,"featureCount":3,"missingWays":{},"unclosedRings":{"2805420":1},"droppedInnerRings":{},"droppedPartsOutsideBbox":{},"relationsWithoutGeometry":[]}}