{"type":"FeatureCollection","features":[{"type":"Feature","properties":{"NAME":"County of Asti","OHM_NAME":"County of Asti","ADMIN_LEVEL":4,"OHM_RELATION_ID":2800677,"START_DATE":"1095","END_DATE":"1531"},"geometry":{"type":"MultiPolygon","coordinates":[[[[8.028,44.799],[8.2,44.785],[8.307,44.833],[8.356,44.944],[8.332,44.995],[8.28,45.015],[8.058,45.072],[7.983,45.024],[7.932,44.923],[7.935,44.87],[8.028,44.799]]]]}},{"type":"Feature","properties":{"NAME":"Duchy of Spoleto","OHM_NAME":"Duchy of Spoleto","ADMIN_LEVEL":4,"OHM_RELATION_ID":2805388,"START_DATE":"0831","END_DATE":"1201"},"geometry":{"type":"MultiPolygon","coordinates":[[[[14.187,42.553],[14.105,42.637],[14.004,42.789],[13.965,42.91],[13.921,42.997],[13.89,43.113],[13.793,43.302],[13.744,43.292],[13.497,43.286],[13.449,43.302],[13.417,43.352],[13.343,43.332],[13.2,43.345],[13.144,43.423],[13.119,43.433],[13.035,43.39],[12.949,43.428],[12.842,43.395],[12.643,43.287],[12.577,43.234],[12.559,43.188],[12.487,43.159],[12.424,43.087],[12.426,42.947],[12.467,42.898],[12.57,42.891],[12.596,42.828],[12.552,42.762],[12.608,42.719],[12.575,42.56],[12.502,42.539],[12.437,42.462],[12.455,42.398],[12.512,42.382],[12.606,42.423],[12.743,42.389],[12.883,42.298],[12.884,42.144],[12.965,42.135],[13.049,42.175],[13.104,42.148],[13.079,42.118],[13.142,42.012],[13.326,41.919],[13.432,41.824],[13.576,41.744],[13.626,41.654],[13.666,41.71],[13.704,41.881],[13.863,41.905],[13.944,41.846],[13.994,41.682],[14.137,41.657],[14.214,41.706],[14.326,41.754],[14.487,41.795],[14.63,41.801],[14.775,41.872],[14.88,41.847],[14.845,41.937],[14.991,42.043],[14.886,42.066],[14.774,42.114],[14.763,42.186],[14.741,42.208],[14.645,42.232],[14.554,42.274],[14.537,42.299],[14.473,42.342],[14.469,42.367],[14.458,42.379],[14.295,42.467],[14.187,42.553]]]]}},{"type":"Feature","properties":{"NAME":"March of Montferrat","OHM_NAME":"March of Montferrat","ADMIN_LEVEL":6,"OHM_RELATION_ID":2800678,"START_DATE":"1000","END_DATE":"1708"},"geometry":{"type":"MultiPolygon","coordinates":[[[[8.358,44.465],[8.394,44.479],[8.399,44.501],[8.417,44.513],[8.447,44.499],[8.469,44.522],[8.48,44.511],[8.576,44.507],[8.601,44.546],[8.599,44.566],[8.607,44.583],[8.621,44.589],[8.577,44.723],[8.562,44.846],[8.563,44.933],[8.641,45.044],[8.638,45.049],[8.647,45.055],[8.637,45.067],[8.646,45.075],[8.608,45.108],[8.614,45.127],[8.592,45.131],[8.58,45.153],[8.555,45.157],[8.527,45.244],[8.128,45.257],[8.094,45.249],[8.07,45.2],[7.951,45.196],[8.03,45.131],[8.058,45.072],[8.28,45.015],[8.332,44.995],[8.356,44.944],[8.307,44.833],[8.2,44.785],[8.028,44.799],[8.008,44.733],[7.918,44.706],[7.879,44.639],[7.913,44.555],[7.914,44.458],[7.969,44.423],[8.043,44.397],[8.113,44.491],[8.262,44.519],[8.272,44.506],[8.303,44.503],[8.324,44.488],[8.35,44.485],[8.358,44.465]]]]}},{"type":"Feature","properties":{"NAME":"March of Tuscany","OHM_NAME":"March of Tuscany","ADMIN_LEVEL":4,"OHM_RELATION_ID":2805420,"START_DATE":"0988","END_DATE":"1115-07-27"},"geometry":{"type":"MultiPolygon","coordinates":[[[[9.528,45.32],[9.573,45.275],[9.618,45.297],[9.636,45.286],[9.622,45.262],[9.641,45.25],[9.661,45.262],[9.694,45.257],[9.706,45.225],[9.759,45.272],[9.767,45.322],[9.75,45.404],[9.706,45.398],[9.653,45.439],[9.59,45.389],[9.544,45.386],[9.528,45.32]]],[[[9.744,44.391],[9.817,44.22],[9.821,44.225],[9.824,44.204],[9.826,44.198],[9.852,44.197],[9.866,44.183],[9.891,44.208],[9.909,44.208],[9.915,44.199],[9.933,44.196],[9.892,44.167],[9.974,44.167],[9.981,44.143],[9.975,44.138],[9.995,44.119],[9.994,44.105],[9.984,44.099],[9.993,44.093],[10.005,44.111],[10.028,44.119],[10.058,44.108],[10.071,44.093],[10.032,44.064],[9.993,44.004],[10.002,44.004],[10.052,43.989],[10.13,43.931],[10.184,43.871],[10.209,43.807],[10.309,43.829],[10.381,43.814],[10.421,43.832],[10.451,43.803],[10.44,43.79],[10.452,43.768],[10.501,43.753],[10.526,43.762],[10.541,43.757],[10.556,43.75],[10.597,43.76],[10.623,43.757],[10.655,43.802],[10.688,43.805],[10.728,43.763],[10.776,43.737],[10.793,43.719],[10.866,43.73],[10.907,43.68],[10.911,43.651],[10.889,43.628],[10.829,43.623],[10.82,43.613],[10.836,43.584],[10.835,43.531],[10.844,43.499],[10.86,43.472],[10.885,43.46],[10.952,43.452],[10.995,43.404],[11.007,43.369],[10.998,43.347],[10.96,43.333],[10.953,43.318],[10.962,43.298],[10.994,43.269],[10.989,43.24],[10.981,43.235],[10.935,43.24],[10.929,43.232],[10.934,43.203],[10.912,43.174],[10.912,43.163],[10.842,43.153],[10.801,43.16],[10.777,43.141],[10.737,43.146],[10.717,43.108],[10.724,43.076],[10.779,43.067],[10.788,43.056],[10.791,43.015],[10.78,43.004],[10.748,43.017],[10.738,43.011],[10.735,42.978],[10.685,42.908],[10.682,42.909],[10.723,42.893],[10.723,42.879],[10.728,42.89],[10.847,42.968],[10.871,42.968],[10.999,42.857],[10.997,42.832],[10.887,42.721],[10.868,42.724],[10.926,42.705],[10.943,42.689],[10.971,42.638],[11.033,42.609],[11.04,42.594],[11.166,42.648],[11.211,42.73],[11.238,42.732],[11.243,42.746],[11.328,42.743],[11.38,42.771],[11.427,42.834],[11.472,42.853],[11.547,42.869],[11.582,42.922],[11.72,42.939],[11.735,42.928],[11.693,42.881],[11.742,42.834],[11.771,42.826],[11.798,42.845],[11.82,42.876],[11.863,42.889],[11.916,42.892],[11.928,42.905],[11.93,42.922],[11.949,42.934],[11.99,42.936],[12.026,42.921],[12.045,42.931],[12.086,42.906],[12.187,42.95],[12.24,42.948],[12.309,42.912],[12.391,42.913],[12.423,42.943],[12.42,42.972],[12.425,42.978],[12.424,43.087],[12.487,43.159],[12.559,43.188],[12.559,43.189],[12.569,43.228],[12.587,43.249],[12.57,43.271],[12.537,43.267],[12.472,43.306],[12.425,43.271],[12.408,43.311],[12.363,43.332],[12.329,43.36],[12.449,43.446],[12.329,43.504],[12.334,43.568],[12.313,43.592],[12.283,43.597],[12.237,43.58],[12.229,43.602],[12.119,43.665],[12.104,43.71],[12.16,43.788],[12.159,43.843],[12.124,43.864],[12.059,43.864],[11.993,43.845],[11.906,43.862],[11.853,43.899],[11.795,43.899],[11.763,43.934],[11.711,43.962],[11.544,43.968],[11.484,43.987],[11.4,44.05],[11.352,44.061],[11.237,44.059],[11.212,44.121],[11.142,44.118],[11.077,44.079],[11.036,44.079],[11.034,44.104],[11.051,44.136],[11.043,44.155],[10.995,44.16],[10.914,44.1],[10.888,44.102],[10.865,44.133],[10.827,44.132],[10.789,44.143],[10.881,44.252],[10.915,44.255],[10.946,44.214],[11.038,44.329],[11.037,44.39],[11.01,44.401],[11.041,44.468],[11.07,44.473],[11.068,44.519],[11.096,44.575],[11.081,44.608],[11.113,44.628],[11.147,44.605],[11.171,44.605],[11.197,44.659],[11.189,44.801],[11.201,44.813],[11.246,44.812],[11.266,44.831],[11.309,44.847],[11.295,44.865],[11.312,44.869],[11.327,44.853],[11.419,44.823],[11.467,44.792],[11.501,44.743],[11.546,44.732],[11.586,44.704],[11.604,44.703],[11.622,44.681],[11.643,44.683],[11.676,44.656],[11.797,44.637],[11.808,44.72],[11.911,44.775],[11.911,44.881],[11.93,44.914],[11.898,44.932],[11.816,44.935],[11.809,44.969],[11.772,44.983],[11.727,44.976],[11.632,45.005],[11.51,45.015],[11.51,45.045],[11.448,45.047],[11.426,45.059],[11.367,45.062],[11.315,45.09],[11.268,45.091],[11.266,45.055],[11.239,45.044],[11.196,45.056],[11.163,45.045],[11.125,45.062],[11.066,45.043],[11.077,45.112],[11.041,45.137],[10.969,45.153],[10.916,45.199],[10.885,45.274],[10.841,45.298],[10.769,45.301],[10.705,45.321],[10.64,45.375],[10.591,45.369],[10.534,45.311],[10.478,45.315],[10.472,45.272],[10.502,45.247],[10.508,45.219],[10.465,45.218],[10.429,45.195],[10.449,45.135],[10.495,45.137],[10.538,45.111],[10.575,45.11],[10.602,45.09],[10.611,45.054],[10.643,45.036],[10.679,45.046],[10.701,45.033],[10.675,45.013],[10.674,44.971],[10.651,44.961],[10.66,44.908],[10.585,44.875],[10.543,44.88],[10.521,44.899],[10.461,44.868],[10.462,44.839],[10.442,44.823],[10.442,44.772],[10.392,44.764],[10.393,44.647],[10.366,44.592],[10.341,44.56],[10.331,44.526],[10.444,44.517],[10.489,44.482],[10.567,44.444],[10.588,44.417],[10.491,44.33],[10.46,44.261],[10.431,44.292],[10.39,44.295],[10.287,44.258],[10.264,44.263],[10.18,44.249],[10.135,44.265],[10.182,44.333],[10.153,44.365],[10.09,44.364],[9.956,44.493],[9.917,44.465],[9.871,44.459],[9.831,44.424],[9.744,44.391]]],[[[9.908,44.816],[9.947,44.782],[10.011,44.776],[10.089,44.747],[10.09,44.772],[10.149,44.846],[10.105,44.895],[10.109,44.959],[10.077,44.976],[9.971,44.96],[9.923,44.912],[9.93,44.869],[9.912,44.845],[9.908,44.816]]]]}},{"type":"Feature","properties":{"NAME":"Republic of Ancona","OHM_NAME":"Republic of Ancona","ADMIN_LEVEL":3,"OHM_RELATION_ID":2795688,"START_DATE":"1100","END_DATE":"1532"},"geometry":{"type":"MultiPolygon","coordinates":[[[[13.339,43.655],[13.297,43.616],[13.262,43.62],[13.244,43.615],[13.239,43.604],[13.239,43.593],[13.258,43.583],[13.327,43.612],[13.348,43.599],[13.305,43.546],[13.336,43.466],[13.542,43.435],[13.689,43.487],[13.678,43.508],[13.68,43.552],[13.672,43.569],[13.616,43.6],[13.561,43.652],[13.499,43.67],[13.457,43.651],[13.37,43.686],[13.339,43.655]]]]}},{"type":"Feature","properties":{"NAME":"Republic of Genoa","OHM_NAME":"Republic of Genoa","ADMIN_LEVEL":4,"OHM_RELATION_ID":2854760,"START_DATE":"1099","END_DATE":"1191"},"geometry":{"type":"Polygon","coordinates":[[[7.496,43.853],[7.508,43.842],[7.53,43.789],[7.539,43.746],[7.589,43.753],[7.69,43.743],[7.72,43.759],[7.752,43.761],[7.789,43.779],[7.841,43.781],[7.884,43.8],[7.966,43.813],[8.101,43.862],[8.126,43.887],[8.213,43.933],[8.224,43.953],[8.214,43.98],[8.265,44.021],[8.276,44.041],[8.279,44.08],[8.319,44.122],[8.446,44.159],[8.474,44.189],[8.472,44.209],[8.5,44.24],[8.505,44.268],[8.549,44.3],[8.752,44.387],[9.097,44.333],[9.096,44.315],[9.116,44.293],[9.206,44.264],[9.237,44.266],[9.273,44.292],[9.332,44.268],[9.347,44.245],[9.372,44.225],[9.465,44.199],[9.52,44.173],[9.599,44.11],[9.632,44.099],[9.657,44.103],[9.711,44.062],[9.791,44.028],[9.826,44.001],[9.876,44.005],[9.899,44.03],[9.945,44.004],[9.991,44.001],[10.032,44.064],[10.071,44.093],[10.058,44.108],[10.028,44.119],[10.005,44.111],[9.993,44.093],[9.984,44.099],[9.994,44.105],[9.995,44.119],[9.975,44.138],[9.981,44.143],[9.974,44.167],[9.892,44.167],[9.933,44.196],[9.915,44.199],[9.909,44.208],[9.891,44.208],[9.866,44.183],[9.852,44.197],[9.825,44.198],[9.821,44.225],[9.802,44.206],[9.763,44.206],[9.765,44.212],[9.754,44.22],[9.759,44.234],[9.748,44.254],[9.781,44.294],[9.756,44.321],[9.729,44.328],[9.719,44.355],[9.699,44.366],[9.675,44.364],[9.655,44.412],[9.638,44.415],[9.606,44.435],[9.585,44.429],[9.558,44.439],[9.541,44.426],[9.495,44.424],[9.479,44.409],[9.464,44.425],[9.443,44.417],[9.439,44.429],[9.458,44.442],[9.471,44.469],[9.469,44.481],[9.496,44.483],[9.505,44.529],[9.48,44.563],[9.409,44.56],[9.421,44.574],[9.417,44.596],[9.396,44.61],[9.404,44.642],[9.366,44.69],[9.26,44.68],[9.236,44.715],[9.232,44.702],[9.243,44.687],[9.2,44.686],[9.166,44.693],[9.128,44.728],[9.078,44.722],[9.029,44.75],[9.008,44.75],[9.004,44.743],[9.021,44.729],[9.019,44.716],[9.004,44.709],[8.988,44.715],[8.948,44.701],[8.944,44.708],[8.898,44.698],[8.872,44.705],[8.846,44.695],[8.827,44.716],[8.825,44.731],[8.847,44.761],[8.847,44.798],[8.83,44.804],[8.798,44.783],[8.766,44.785],[8.759,44.8],[8.744,44.807],[8.731,44.805],[8.722,44.793],[8.76,44.746],[8.793,44.723],[8.788,44.714],[8.771,44.716],[8.763,44.691],[8.781,44.683],[8.789,44.664],[8.82,44.64],[8.794,44.618],[8.807,44.597],[8.804,44.58],[8.818,44.571],[8.826,44.559],[8.822,44.548],[8.828,44.546],[8.798,44.525],[8.8,44.502],[8.786,44.488],[8.771,44.489],[8.765,44.53],[8.752,44.526],[8.749,44.55],[8.739,44.55],[8.725,44.579],[8.697,44.58],[8.673,44.597],[8.685,44.611],[8.672,44.621],[8.675,44.64],[8.663,44.656],[8.618,44.651],[8.603,44.643],[8.612,44.616],[8.618,44.608],[8.616,44.605],[8.617,44.6],[8.623,44.597],[8.619,44.577],[8.6,44.558],[8.6,44.554],[8.612,44.548],[8.589,44.527],[8.576,44.507],[8.568,44.507],[8.55,44.504],[8.543,44.508],[8.48,44.511],[8.474,44.511],[8.472,44.519],[8.469,44.522],[8.451,44.503],[8.448,44.499],[8.461,44.493],[8.464,44.469],[8.444,44.439],[8.377,44.408],[8.344,44.351],[8.355,44.332],[8.339,44.32],[8.338,44.299],[8.313,44.262],[8.305,44.257],[8.272,44.272],[8.248,44.273],[8.271,44.302],[8.272,44.318],[8.316,44.327],[8.318,44.343],[8.289,44.367],[8.267,44.352],[8.255,44.3],[8.232,44.295],[8.235,44.306],[8.223,44.323],[8.212,44.325],[8.156,44.272],[8.102,44.281],[8.063,44.253],[8.077,44.235],[8.068,44.227],[8.076,44.204],[8.148,44.206],[8.17,44.214],[8.179,44.202],[8.177,44.189],[8.188,44.184],[8.151,44.165],[8.091,44.173],[8.067,44.145],[8.043,44.143],[8.014,44.156],[7.98,44.138],[8.013,44.12],[8.003,44.117],[8.012,44.111],[8.007,44.102],[7.971,44.113],[7.943,44.101],[7.926,44.112],[7.884,44.106],[7.882,44.114],[7.815,44.124],[7.765,44.144],[7.726,44.126],[7.715,44.107],[7.733,44.084],[7.755,44.085],[7.736,44.076],[7.728,44.06],[7.712,44.061],[7.703,44.043],[7.665,44.031],[7.662,44.022],[7.67,43.998],[7.752,43.958],[7.759,43.943],[7.743,43.91],[7.728,43.904],[7.735,43.876],[7.71,43.855],[7.714,43.839],[7.687,43.833],[7.652,43.845],[7.614,43.839],[7.604,43.862],[7.585,43.873],[7.579,43.891],[7.559,43.897],[7.51,43.882],[7.498,43.872],[7.496,43.853]],[[8.083,44.089],[8.106,44.096],[8.119,44.09],[8.135,44.092],[8.139,44.104],[8.151,44.102],[8.141,44.093],[8.153,44.074],[8.15,44.068],[8.098,44.074],[8.083,44.089]],[[8.138,44.152],[8.152,44.16],[8.165,44.155],[8.179,44.141],[8.172,44.141],[8.192,44.134],[8.197,44.123],[8.19,44.11],[8.148,44.113],[8.143,44.126],[8.153,44.139],[8.138,44.152]]]}},{"type":"Feature","properties":{"NAME":"Republic of Pisa","OHM_NAME":"Republic of Pisa (1399-1406)","ADMIN_LEVEL":4,"OHM_RELATION_ID":2853300,"START_DATE":"1050","END_DATE":"1115"},"geometry":{"type":"MultiPolygon","coordinates":[[[[10.541,43.757],[10.526,43.762],[10.501,43.753],[10.452,43.768],[10.44,43.79],[10.451,43.803],[10.421,43.832],[10.381,43.814],[10.309,43.829],[10.209,43.807],[10.23,43.7],[10.222,43.688],[10.221,43.668],[10.236,43.639],[10.247,43.577],[10.241,43.553],[10.255,43.517],[10.27,43.5],[10.286,43.457],[10.314,43.435],[10.338,43.427],[10.365,43.378],[10.387,43.367],[10.414,43.308],[10.46,43.27],[10.478,43.228],[10.49,43.144],[10.484,43.068],[10.476,43.038],[10.44,43.006],[10.434,42.991],[10.438,42.946],[10.463,42.905],[10.53,42.884],[10.572,42.891],[10.597,42.916],[10.685,42.908],[10.735,42.978],[10.738,43.011],[10.748,43.017],[10.78,43.004],[10.791,43.015],[10.788,43.056],[10.779,43.067],[10.724,43.076],[10.717,43.108],[10.737,43.146],[10.777,43.141],[10.801,43.16],[10.842,43.153],[10.912,43.163],[10.912,43.174],[10.934,43.203],[10.929,43.232],[10.935,43.24],[10.981,43.235],[10.989,43.24],[10.994,43.269],[10.962,43.298],[10.953,43.318],[10.96,43.333],[10.998,43.347],[11.007,43.369],[10.995,43.404],[10.952,43.452],[10.885,43.46],[10.86,43.472],[10.844,43.499],[10.835,43.531],[10.836,43.584],[10.82,43.613],[10.829,43.623],[10.889,43.628],[10.911,43.651],[10.907,43.68],[10.866,43.73],[10.793,43.719],[10.776,43.737],[10.728,43.763],[10.688,43.805],[10.655,43.802],[10.623,43.757],[10.597,43.76],[10.556,43.75],[10.541,43.757]]],[[[10.728,42.89],[10.719,42.869],[10.724,42.844],[10.69,42.825],[10.682,42.794],[10.7,42.773],[10.779,42.738],[10.887,42.721],[10.997,42.832],[10.999,42.857],[10.871,42.968],[10.847,42.968],[10.728,42.89]]],[[[11.294,42.408],[11.289,42.44],[11.227,42.499],[11.207,42.507],[11.142,42.501],[11.138,42.479],[11.083,42.481],[11.056,42.461],[11.037,42.433],[11.04,42.396],[11.063,42.367],[11.15,42.324],[11.209,42.33],[11.259,42.375],[11.305,42.37],[11.294,42.408]]],[[[8.549,42.418],[8.517,42.411],[8.484,42.379],[8.506,42.315],[8.532,42.297],[8.555,42.292],[8.562,42.282],[8.506,42.268],[8.489,42.249],[8.49,42.222],[8.516,42.193],[8.506,42.137],[8.546,42.1],[8.594,42.09],[8.628,42.069],[8.659,42.062],[8.621,42.039],[8.603,42.013],[8.565,41.998],[8.542,41.977],[8.539,41.954],[8.557,41.918],[8.538,41.893],[8.533,41.866],[8.55,41.844],[8.589,41.834],[8.628,41.844],[8.648,41.867],[8.707,41.867],[8.697,41.842],[8.661,41.815],[8.657,41.792],[8.612,41.768],[8.609,41.725],[8.63,41.707],[8.661,41.7],[8.69,41.684],[8.733,41.685],[8.76,41.664],[8.743,41.647],[8.724,41.607],[8.724,41.58],[8.745,41.536],[8.786,41.515],[8.808,41.489],[8.901,41.452],[8.934,41.45],[9.032,41.418],[9.043,41.383],[9.059,41.364],[9.094,41.352],[9.118,41.353],[9.155,41.332],[9.196,41.326],[9.235,41.299],[9.27,41.292],[9.328,41.342],[9.325,41.38],[9.309,41.4],[9.34,41.483],[9.374,41.472],[9.399,41.473],[9.432,41.5],[9.433,41.512],[9.42,41.534],[9.428,41.558],[9.418,41.61],[9.447,41.656],[9.46,41.71],[9.453,41.872],[9.467,41.912],[9.466,41.945],[9.592,42.08],[9.608,42.119],[9.612,42.289],[9.586,42.38],[9.596,42.424],[9.583,42.493],[9.587,42.548],[9.562,42.603],[9.5,42.673],[9.521,42.753],[9.542,42.786],[9.545,42.813],[9.526,42.926],[9.51,42.963],[9.516,42.982],[9.511,43.005],[9.444,43.055],[9.416,43.066],[9.385,43.064],[9.311,43.029],[9.288,43.002],[9.297,42.941],[9.271,42.909],[9.276,42.869],[9.256,42.832],[9.287,42.786],[9.287,42.75],[9.225,42.775],[9.159,42.776],[9.102,42.767],[9.022,42.726],[8.997,42.684],[8.962,42.678],[8.915,42.683],[8.853,42.663],[8.833,42.648],[8.777,42.637],[8.753,42.618],[8.732,42.623],[8.695,42.617],[8.659,42.591],[8.653,42.571],[8.657,42.556],[8.636,42.548],[8.617,42.529],[8.596,42.479],[8.598,42.455],[8.566,42.442],[8.549,42.418]]]]}}],"metadata":{"generatedBy":"scripts/build-fief-flat.ts","input":"data/italy_fiefs_1100.geojson","year":1100,"cutPolicy":"keep-smaller","containmentCoverageThreshold":0.9,"minOverlapAreaM2":1000,"sliverAreaLimitM2":1000000000,"resolutions":[{"kind":"sliver","cutName":"March of Tuscany","keptName":"Duchy of Spoleto","overlapKm2":140.55,"coverageOfSmaller":0.0063},{"kind":"sliver","cutName":"March of Tuscany","keptName":"Republic of Genoa","overlapKm2":220.89,"coverageOfSmaller":0.0346},{"kind":"sliver","cutName":"March of Tuscany","keptName":"Republic of Pisa","overlapKm2":4356.3,"coverageOfSmaller":0.2698},{"kind":"sliver","cutName":"Republic of Genoa","keptName":"March of Montferrat","overlapKm2":3.76,"coverageOfSmaller":0.0011}],"source":"OpenHistoricalMap","sourceUrl":"https://www.openhistoricalmap.org/","license":"CC0-1.0","borderPrecision":"史料に基づく復元（概略。測量された境界ではない）"}}