{"type":"FeatureCollection","features":[{"type":"Feature","properties":{"NAME":"County of Asti","OHM_NAME":"County of Asti","ADMIN_LEVEL":4,"OHM_RELATION_ID":2800677,"START_DATE":"1095","END_DATE":"1531"},"geometry":{"type":"MultiPolygon","coordinates":[[[[8.02826,44.79938],[8.19992,44.78476],[8.30704,44.8325],[8.35579,44.94439],[8.33244,44.99491],[8.28026,45.0153],[8.05847,45.07207],[7.98294,45.02355],[7.93213,44.92349],[7.93487,44.86998],[8.02826,44.79938]]]]}},{"type":"Feature","properties":{"NAME":"Duchy of Spoleto","OHM_NAME":"Duchy of Spoleto","ADMIN_LEVEL":4,"OHM_RELATION_ID":2805388,"START_DATE":"0831","END_DATE":"1201"},"geometry":{"type":"MultiPolygon","coordinates":[[[[14.18711,42.55262],[14.10478,42.63698],[14.00437,42.78881],[13.96475,42.90991],[13.92117,42.99692],[13.89023,43.11262],[13.79273,43.30199],[13.74417,43.29206],[13.4967,43.2862],[13.44864,43.3022],[13.41705,43.35215],[13.34289,43.33217],[13.20007,43.34516],[13.14377,43.423],[13.11905,43.43298],[13.03528,43.39008],[12.94876,43.42799],[12.84164,43.39507],[12.64252,43.2872],[12.5766,43.2342],[12.55875,43.18816],[12.48733,43.15911],[12.42416,43.08694],[12.42554,42.94738],[12.46673,42.8981],[12.56973,42.89106],[12.59582,42.82764],[12.55188,42.76214],[12.60784,42.71927],[12.57523,42.56016],[12.50244,42.53892],[12.43652,42.46197],[12.45506,42.39811],[12.51205,42.38188],[12.60612,42.42295],[12.74277,42.38898],[12.88284,42.29763],[12.88421,42.14406],[12.96524,42.1349],[13.04901,42.1746],[13.10394,42.14813],[13.07922,42.11758],[13.14239,42.01155],[13.32641,41.91863],[13.43216,41.82353],[13.57635,41.74365],[13.62579,41.65445],[13.66562,41.70983],[13.70407,41.88081],[13.86337,41.90534],[13.9444,41.84604],[13.99383,41.68163],[14.13734,41.6565],[14.21356,41.70573],[14.32617,41.7539],[14.48685,41.79487],[14.62967,41.80101],[14.77524,41.87161],[14.87961,41.84706],[14.84527,41.93702],[14.99079,42.04291],[14.8862,42.06584],[14.77421,42.11438],[14.76281,42.18611],[14.74073,42.20755],[14.64547,42.23167],[14.55391,42.27364],[14.53672,42.29894],[14.47345,42.34204],[14.46928,42.36674],[14.4579,42.37875],[14.2953,42.46703],[14.18711,42.55262]]]]}},{"type":"Feature","properties":{"NAME":"March of Montferrat","OHM_NAME":"March of Montferrat","ADMIN_LEVEL":6,"OHM_RELATION_ID":2800678,"START_DATE":"1000","END_DATE":"1708"},"geometry":{"type":"MultiPolygon","coordinates":[[[[8.35849,44.46494],[8.39407,44.47909],[8.39915,44.50095],[8.41743,44.51283],[8.44653,44.49877],[8.46926,44.52172],[8.47966,44.51058],[8.57598,44.50721],[8.60105,44.54586],[8.59857,44.5655],[8.60716,44.58258],[8.62111,44.58855],[8.57689,44.72283],[8.56247,44.84565],[8.56316,44.93272],[8.64131,45.04405],[8.63811,45.04931],[8.64697,45.05465],[8.63691,45.06652],[8.6459,45.07489],[8.60848,45.10838],[8.61367,45.12699],[8.5917,45.13134],[8.58008,45.15269],[8.55534,45.15727],[8.52745,45.24395],[8.12782,45.25652],[8.09383,45.24855],[8.0698,45.1997],[7.95135,45.19559],[8.02963,45.13071],[8.05847,45.07207],[8.28026,45.0153],[8.33244,44.99491],[8.35579,44.94439],[8.30704,44.8325],[8.19992,44.78476],[8.02826,44.79938],[8.00766,44.73308],[7.91839,44.70576],[7.87857,44.63935],[7.9129,44.55525],[7.91427,44.45829],[7.96921,44.42299],[8.04336,44.39749],[8.1134,44.49063],[8.26157,44.51944],[8.27188,44.50644],[8.30255,44.50326],[8.32399,44.48764],[8.35005,44.48481],[8.35849,44.46494]]]]}},{"type":"Feature","properties":{"NAME":"Marquisate of Saluzzo","OHM_NAME":"Marquisate of Saluzzo","ADMIN_LEVEL":4,"OHM_RELATION_ID":2892597,"START_DATE":"1190","END_DATE":"1548-02-23"},"geometry":{"type":"MultiPolygon","coordinates":[[[[7.47826,44.75819],[7.44777,44.75528],[7.45107,44.73922],[7.42607,44.72454],[7.34076,44.70589],[7.33646,44.68086],[7.31077,44.68438],[7.28816,44.70565],[7.26381,44.71548],[7.21664,44.71454],[7.14918,44.74308],[7.12921,44.73904],[7.12085,44.7259],[7.06535,44.71383],[7.0771,44.68163],[7.02877,44.69169],[6.98974,44.69038],[6.96283,44.67808],[6.94825,44.6545],[6.91555,44.66005],[6.88199,44.63055],[6.8583,44.62951],[6.85461,44.61491],[6.8389,44.60856],[6.77977,44.53788],[6.79367,44.50336],[6.81427,44.37001],[6.88019,44.36019],[6.91864,44.33858],[6.96121,44.28552],[6.96396,44.23831],[7.02988,44.22454],[7.12601,44.17531],[7.14935,44.19008],[7.19742,44.2752],[7.22282,44.28601],[7.27982,44.28699],[7.33131,44.27176],[7.40959,44.32139],[7.45422,44.33367],[7.43019,44.39896],[7.37732,44.39013],[7.37595,44.46662],[7.35741,44.50336],[7.38144,44.52882],[7.42538,44.52491],[7.43568,44.56161],[7.50023,44.62371],[7.50847,44.65009],[7.46933,44.65742],[7.47826,44.75819]]]]}},{"type":"Feature","properties":{"NAME":"Republic of Ancona","OHM_NAME":"Republic of Ancona","ADMIN_LEVEL":3,"OHM_RELATION_ID":2795688,"START_DATE":"1100","END_DATE":"1532"},"geometry":{"type":"MultiPolygon","coordinates":[[[[13.33912,43.65491],[13.29723,43.61644],[13.26239,43.62017],[13.24419,43.61495],[13.23853,43.60401],[13.23904,43.59307],[13.25809,43.58275],[13.32667,43.61184],[13.34796,43.59917],[13.30513,43.54606],[13.33603,43.46563],[13.54153,43.4353],[13.68892,43.48687],[13.67824,43.50792],[13.68045,43.552],[13.67204,43.56899],[13.61644,43.60026],[13.56116,43.65168],[13.49914,43.66987],[13.45667,43.65122],[13.36991,43.68649],[13.33912,43.65491]]]]}},{"type":"Feature","properties":{"NAME":"Republic of Florence","OHM_NAME":"Republic of Florence","ADMIN_LEVEL":4,"OHM_RELATION_ID":2800634,"START_DATE":"1115","END_DATE":"1405"},"geometry":{"type":"MultiPolygon","coordinates":[[[[11.05568,43.57815],[11.19404,43.41689],[11.40931,43.43796],[11.61461,43.52652],[11.55933,43.62216],[11.43368,43.75659],[11.57272,43.88998],[11.41183,43.9909],[11.3269,43.97997],[11.12795,44.01924],[11.10392,43.93548],[11.16005,43.90482],[11.10409,43.81818],[10.87887,43.76502],[10.93159,43.65339],[11.05568,43.57815]]]]}},{"type":"Feature","properties":{"NAME":"Republic of Genoa","OHM_NAME":"Republic of Genoa","ADMIN_LEVEL":4,"OHM_RELATION_ID":2750806,"START_DATE":"1192","END_DATE":"1259"},"geometry":{"type":"MultiPolygon","coordinates":[[[[8.09073,44.17314],[8.06731,44.14469],[8.04293,44.14283],[8.01401,44.15582],[7.97963,44.13846],[8.0126,44.12012],[8.00269,44.11663],[8.01225,44.11103],[8.00658,44.10232],[7.97128,44.11279],[7.94252,44.10059],[7.92601,44.1118],[7.88393,44.10588],[7.88154,44.11373],[7.81483,44.12399],[7.76473,44.14392],[7.72579,44.12618],[7.71458,44.10663],[7.73284,44.08351],[7.75451,44.08546],[7.73608,44.07623],[7.72761,44.05979],[7.71175,44.06064],[7.70292,44.0434],[7.6654,44.03108],[7.66162,44.02232],[7.67016,43.99849],[7.75173,43.95797],[7.75875,43.94253],[7.74261,43.90977],[7.72751,43.90432],[7.7354,43.87612],[7.71006,43.85491],[7.71378,43.83898],[7.68701,43.83332],[7.65163,43.84468],[7.61365,43.83888],[7.60355,43.86209],[7.58453,43.87262],[7.57936,43.89083],[7.55905,43.89718],[7.51009,43.88203],[7.49806,43.87185],[7.49591,43.85338],[7.50776,43.84184],[7.52951,43.78907],[7.53851,43.74613],[7.58948,43.75342],[7.68964,43.74253],[7.71959,43.75904],[7.75234,43.76069],[7.78904,43.77857],[7.84116,43.78085],[7.88425,43.79961],[7.96645,43.81332],[8.10101,43.86162],[8.12645,43.88665],[8.21333,43.9328],[8.22381,43.9532],[8.21367,43.98015],[8.27425,44.03514],[8.27652,44.07474],[8.29338,44.09855],[8.31867,44.1218],[8.39975,44.14523],[8.36557,44.18996],[8.40034,44.22755],[8.42158,44.23348],[8.47193,44.20946],[8.49953,44.2403],[8.50486,44.26805],[8.54913,44.29966],[8.75151,44.38709],[9.09726,44.33323],[9.09637,44.31463],[9.11604,44.29273],[9.20574,44.2642],[9.23721,44.26604],[9.27307,44.29204],[9.33193,44.26815],[9.34664,44.24486],[9.37222,44.22537],[9.46503,44.19855],[9.52,44.17254],[9.59888,44.10968],[9.63154,44.09865],[9.65738,44.10286],[9.71106,44.06215],[9.79085,44.02818],[9.82605,44.00057],[9.87648,44.00497],[9.89864,44.03037],[9.94451,44.00427],[9.99076,44.00092],[10.03194,44.06396],[10.07091,44.09308],[10.05815,44.10805],[10.02837,44.11903],[10.00512,44.1106],[9.99339,44.09269],[9.98356,44.09923],[9.99358,44.10462],[9.99506,44.11896],[9.97465,44.13755],[9.98077,44.14342],[9.97412,44.16682],[9.89215,44.16733],[9.93269,44.19604],[9.9149,44.19932],[9.90868,44.20848],[9.89121,44.20781],[9.86608,44.18337],[9.85247,44.19694],[9.82476,44.19796],[9.82096,44.22474],[9.80225,44.20574],[9.76277,44.20614],[9.76537,44.21202],[9.75445,44.21967],[9.75937,44.23415],[9.74765,44.25357],[9.78073,44.29412],[9.7556,44.32081],[9.72946,44.32833],[9.71887,44.35492],[9.69937,44.36637],[9.67506,44.36407],[9.65538,44.41231],[9.63827,44.41453],[9.60573,44.43488],[9.58491,44.42932],[9.55845,44.43863],[9.54094,44.42563],[9.49468,44.42362],[9.47903,44.40926],[9.46395,44.42477],[9.44292,44.41655],[9.43869,44.4293],[9.45767,44.44248],[9.47134,44.46864],[9.46912,44.48142],[9.49622,44.48297],[9.5052,44.52934],[9.48029,44.56297],[9.40867,44.56002],[9.42103,44.57359],[9.4172,44.59633],[9.39614,44.60997],[9.40439,44.64192],[9.36633,44.69043],[9.25974,44.67988],[9.23637,44.71498],[9.23204,44.70161],[9.24295,44.68667],[9.20032,44.6864],[9.16556,44.69259],[9.12789,44.72752],[9.07809,44.72177],[9.02911,44.74972],[9.0076,44.74961],[9.00381,44.7434],[9.02149,44.72893],[9.01943,44.71625],[9.00363,44.70909],[8.98822,44.71538],[8.94814,44.70085],[8.94448,44.70831],[8.89834,44.69798],[8.87215,44.70527],[8.84555,44.69489],[8.82749,44.71648],[8.8251,44.73078],[8.84687,44.76136],[8.84712,44.79828],[8.83027,44.8042],[8.79769,44.78275],[8.76559,44.78513],[8.75875,44.80047],[8.74409,44.80693],[8.73067,44.80492],[8.72193,44.793],[8.75974,44.74563],[8.79313,44.72329],[8.78803,44.71356],[8.77087,44.71625],[8.76279,44.69122],[8.78061,44.68302],[8.78934,44.66395],[8.81978,44.64017],[8.79393,44.61786],[8.80675,44.59671],[8.80378,44.58005],[8.81824,44.57115],[8.82574,44.55883],[8.82151,44.54752],[8.82827,44.54579],[8.79763,44.52538],[8.79986,44.5023],[8.7857,44.48754],[8.77119,44.48947],[8.76477,44.52966],[8.75216,44.52552],[8.7487,44.55015],[8.73894,44.55023],[8.72462,44.57862],[8.69718,44.57973],[8.67285,44.5967],[8.68452,44.61076],[8.67199,44.62078],[8.67452,44.64011],[8.663,44.656],[8.61771,44.65084],[8.60301,44.64289],[8.60062,44.63216],[8.61774,44.60831],[8.61339,44.60209],[8.62302,44.59689],[8.61876,44.57663],[8.5968,44.55525],[8.61191,44.54791],[8.58685,44.52515],[8.57174,44.52442],[8.57616,44.50923],[8.5501,44.50351],[8.53638,44.51242],[8.47406,44.5107],[8.4709,44.52218],[8.45938,44.51812],[8.44841,44.49866],[8.46098,44.49278],[8.46392,44.469],[8.44443,44.43873],[8.37691,44.4077],[8.34394,44.35061],[8.35537,44.33206],[8.33897,44.31992],[8.33761,44.29901],[8.31305,44.26241],[8.30527,44.25671],[8.27215,44.27228],[8.24781,44.27262],[8.27074,44.3023],[8.27178,44.31815],[8.31648,44.32667],[8.31794,44.34349],[8.28865,44.36692],[8.26738,44.35246],[8.25461,44.2998],[8.23228,44.29523],[8.23466,44.30556],[8.22329,44.32285],[8.21177,44.32459],[8.15617,44.272],[8.10173,44.2811],[8.06316,44.25337],[8.07736,44.23458],[8.06826,44.22749],[8.07592,44.20412],[8.14819,44.20636],[8.17026,44.21421],[8.17888,44.20199],[8.1769,44.18863],[8.18756,44.18405],[8.151,44.16472],[8.09073,44.17314]],[[8.11855,44.08968],[8.13478,44.09153],[8.13915,44.10423],[8.15074,44.10195],[8.14104,44.09295],[8.15349,44.07427],[8.15048,44.06773],[8.09787,44.07359],[8.08319,44.08931],[8.10551,44.09578],[8.11855,44.08968]],[[8.13778,44.15179],[8.1516,44.16029],[8.16464,44.15548],[8.17906,44.14132],[8.17237,44.14144],[8.19168,44.1335],[8.19683,44.12265],[8.19014,44.11039],[8.14816,44.11323],[8.14293,44.12555],[8.15289,44.13904],[8.13778,44.15179]]]]}},{"type":"Feature","properties":{"NAME":"Republic of Lucca","OHM_NAME":"Republic of Lucca","ADMIN_LEVEL":4,"OHM_RELATION_ID":2853272,"START_DATE":"1160","END_DATE":"1399"},"geometry":{"type":"MultiPolygon","coordinates":[[[[10.53272,43.75957],[10.55597,43.74952],[10.59546,43.76366],[10.6097,43.75461],[10.62311,43.75691],[10.6451,43.79487],[10.67142,43.81545],[10.63588,43.83081],[10.65125,43.85403],[10.64847,43.86216],[10.67275,43.86975],[10.65842,43.91641],[10.66154,43.92732],[10.70485,43.94272],[10.70952,43.95514],[10.67505,43.98507],[10.68867,43.99454],[10.70669,43.9838],[10.72678,43.98405],[10.74497,44.00979],[10.73596,44.03824],[10.72053,44.04215],[10.72274,44.08197],[10.70661,44.09307],[10.66536,44.10956],[10.64597,44.10623],[10.62464,44.12056],[10.60352,44.11403],[10.5734,44.11994],[10.54464,44.10651],[10.52997,44.07408],[10.51074,44.06199],[10.49688,44.04047],[10.48295,44.03678],[10.46162,44.04607],[10.44729,44.07032],[10.43608,44.07432],[10.409,44.05216],[10.4277,44.02378],[10.44666,44.03478],[10.46721,44.02781],[10.46075,44.02235],[10.47287,44.01138],[10.46705,44.00183],[10.41765,43.99149],[10.3913,44.00084],[10.36388,43.99367],[10.34976,43.98504],[10.35584,43.97511],[10.27586,43.95664],[10.2788,43.96171],[10.22181,43.91613],[10.16659,43.8927],[10.18357,43.87085],[10.20922,43.80719],[10.30707,43.82962],[10.38092,43.81267],[10.41547,43.82406],[10.42528,43.83456],[10.43925,43.80785],[10.4528,43.80538],[10.43933,43.78285],[10.45152,43.7675],[10.50679,43.7558],[10.53272,43.75957]]]]}},{"type":"Feature","properties":{"NAME":"Republic of Pisa","OHM_NAME":"Republic of Pisa (1399-1406)","ADMIN_LEVEL":4,"OHM_RELATION_ID":2853298,"START_DATE":"1184","END_DATE":"1207"},"geometry":{"type":"MultiPolygon","coordinates":[[[[10.54143,43.75655],[10.5255,43.76191],[10.50111,43.75345],[10.45152,43.7675],[10.43991,43.7896],[10.45136,43.80282],[10.42086,43.83235],[10.38127,43.81404],[10.30859,43.82901],[10.20922,43.80719],[10.22982,43.69992],[10.2215,43.68833],[10.22121,43.66793],[10.23574,43.63868],[10.24666,43.57732],[10.24119,43.55283],[10.25516,43.51665],[10.27018,43.50006],[10.28588,43.45727],[10.31444,43.43458],[10.3379,43.42669],[10.36517,43.37839],[10.38674,43.36717],[10.4137,43.30768],[10.46009,43.26989],[10.47835,43.22779],[10.48988,43.14419],[10.48428,43.06801],[10.47616,43.03782],[10.43998,43.00647],[10.43354,42.99073],[10.43819,42.94618],[10.46328,42.90513],[10.52962,42.88368],[10.57242,42.89098],[10.59697,42.91577],[10.68547,42.90844],[10.73543,42.97793],[10.73837,43.0111],[10.7478,43.01659],[10.77984,43.00389],[10.79095,43.01476],[10.78775,43.05568],[10.779,43.06709],[10.72433,43.07555],[10.71728,43.10848],[10.73739,43.1456],[10.77694,43.14144],[10.80082,43.15983],[10.84184,43.15254],[10.91165,43.16256],[10.91229,43.1741],[10.93408,43.20256],[10.92929,43.23206],[10.93527,43.24048],[10.98097,43.23463],[10.98891,43.2399],[10.99447,43.26942],[10.96159,43.29778],[10.95344,43.3176],[10.96039,43.33305],[10.99813,43.34722],[11.00686,43.36892],[10.99523,43.40388],[10.95212,43.45223],[10.88537,43.45991],[10.86048,43.472],[10.8438,43.49911],[10.83523,43.53124],[10.83635,43.58415],[10.81969,43.61344],[10.82892,43.62273],[10.88937,43.62796],[10.91057,43.65128],[10.90726,43.68012],[10.8659,43.73041],[10.79348,43.71898],[10.77566,43.7371],[10.72794,43.76322],[10.68774,43.8052],[10.65501,43.80245],[10.62311,43.75691],[10.59717,43.75981],[10.55597,43.74952],[10.54143,43.75655]]],[[[10.72799,42.89005],[10.71897,42.86882],[10.72353,42.84414],[10.69027,42.82515],[10.68221,42.79423],[10.69967,42.77326],[10.77896,42.73824],[10.88731,42.72106],[10.99663,42.8323],[10.99937,42.85722],[10.87095,42.96813],[10.84655,42.96782],[10.72799,42.89005]]],[[[11.29406,42.40833],[11.28948,42.43993],[11.227,42.49906],[11.20683,42.5071],[11.14185,42.50078],[11.13821,42.4794],[11.08341,42.48081],[11.05597,42.46131],[11.03731,42.4331],[11.03961,42.39577],[11.06328,42.3672],[11.14977,42.3243],[11.20895,42.33013],[11.25916,42.37457],[11.30484,42.36965],[11.29406,42.40833]]],[[[8.54945,42.41847],[8.51655,42.41137],[8.48397,42.37949],[8.50594,42.31478],[8.5318,42.29699],[8.55466,42.29217],[8.56195,42.28206],[8.50628,42.26784],[8.48872,42.24876],[8.48983,42.22173],[8.51586,42.19309],[8.50614,42.13659],[8.54582,42.10049],[8.59354,42.09013],[8.62832,42.06882],[8.65857,42.0615],[8.62078,42.03915],[8.60295,42.01255],[8.56458,41.9984],[8.54154,41.97695],[8.53911,41.95419],[8.55731,41.91785],[8.53833,41.89262],[8.53336,41.86585],[8.55042,41.84418],[8.58909,41.83412],[8.6283,41.84373],[8.64784,41.86687],[8.70701,41.86744],[8.69705,41.84227],[8.66123,41.81546],[8.65685,41.79184],[8.61245,41.76773],[8.60936,41.72541],[8.63,41.70685],[8.66148,41.70033],[8.68963,41.68429],[8.73329,41.68457],[8.76035,41.66373],[8.74304,41.64673],[8.72434,41.6069],[8.72357,41.57972],[8.74475,41.53646],[8.78568,41.51506],[8.80763,41.48857],[8.90123,41.45178],[8.93395,41.45022],[9.0315,41.41766],[9.04285,41.38268],[9.05902,41.36354],[9.09427,41.35152],[9.11814,41.3531],[9.15515,41.33177],[9.19629,41.32611],[9.23461,41.29868],[9.26983,41.29181],[9.32845,41.34243],[9.32549,41.38038],[9.30877,41.39951],[9.34026,41.48275],[9.37396,41.47204],[9.39926,41.4731],[9.43168,41.50028],[9.43292,41.51245],[9.42049,41.53402],[9.42843,41.55788],[9.41788,41.61],[9.44651,41.65627],[9.45958,41.71038],[9.45252,41.87165],[9.46664,41.91158],[9.46579,41.94509],[9.59222,42.08014],[9.60774,42.11941],[9.61235,42.28919],[9.58579,42.38017],[9.59647,42.42447],[9.58294,42.49343],[9.58659,42.54766],[9.56214,42.60265],[9.50028,42.67336],[9.52088,42.75311],[9.5424,42.78594],[9.54526,42.81327],[9.52572,42.92581],[9.50963,42.96347],[9.51635,42.98205],[9.51066,43.00464],[9.44363,43.05547],[9.4162,43.06593],[9.38518,43.06376],[9.3108,43.0294],[9.28809,43.00238],[9.29746,42.94051],[9.2706,42.90852],[9.27577,42.86886],[9.25622,42.83207],[9.28721,42.78635],[9.287,42.75001],[9.22455,42.77453],[9.15851,42.7756],[9.10196,42.76718],[9.02247,42.7261],[8.99723,42.6843],[8.96227,42.67791],[8.91522,42.68264],[8.85324,42.66336],[8.83284,42.64761],[8.77737,42.63678],[8.7529,42.61775],[8.73201,42.62301],[8.69504,42.61688],[8.65937,42.5906],[8.65304,42.5713],[8.65709,42.55556],[8.63601,42.54781],[8.61659,42.52903],[8.59636,42.47932],[8.59808,42.45504],[8.56553,42.44218],[8.54945,42.41847]]]]}},{"type":"Feature","properties":{"NAME":"Republic of Siena","OHM_NAME":"Republic of Siena","ADMIN_LEVEL":4,"OHM_RELATION_ID":2750729,"START_DATE":"1125","END_DATE":"1250"},"geometry":{"type":"MultiPolygon","coordinates":[[[[11.33017,43.35864],[11.28914,43.35864],[11.25326,43.34665],[11.19061,43.2842],[11.20434,43.26296],[11.41823,43.12354],[11.49204,43.11477],[11.53736,43.13356],[11.53942,43.1849],[11.48277,43.25371],[11.33017,43.35864]]]]}}],"metadata":{"source":"OpenHistoricalMap","sourceUrl":"https://www.openhistoricalmap.org/","license":"CC0-1.0","year":1200,"featureCount":10,"missingWays":{},"unclosedRings":{},"droppedInnerRings":{},"droppedPartsOutsideBbox":{},"relationsWithoutGeometry":[],"borderPrecision":"史料に基づく復元（概略。測量された境界ではない）"}}