{"type":"FeatureCollection","features":[{"type":"Feature","properties":{"NAME":"County of Asti","OHM_NAME":"County of Asti","ADMIN_LEVEL":4,"OHM_RELATION_ID":2800677,"START_DATE":"1095","END_DATE":"1531"},"geometry":{"type":"MultiPolygon","coordinates":[[[[8.028,44.799],[8.2,44.785],[8.307,44.833],[8.356,44.944],[8.332,44.995],[8.28,45.015],[8.058,45.072],[7.983,45.024],[7.932,44.923],[7.935,44.87],[8.028,44.799]]]]}},{"type":"Feature","properties":{"NAME":"County of Guastalla","OHM_NAME":"County of Guastalla","ADMIN_LEVEL":4,"OHM_RELATION_ID":2826403,"START_DATE":"1428","END_DATE":"1621"},"geometry":{"type":"MultiPolygon","coordinates":[[[[10.877,44.917],[10.835,44.936],[10.744,44.949],[10.742,44.977],[10.728,44.992],[10.714,44.987],[10.7,44.964],[10.689,44.965],[10.693,44.977],[10.649,44.961],[10.634,44.926],[10.649,44.903],[10.639,44.881],[10.646,44.864],[10.641,44.853],[10.686,44.878],[10.729,44.886],[10.743,44.898],[10.769,44.882],[10.787,44.898],[10.813,44.894],[10.874,44.905],[10.877,44.917]]]]}},{"type":"Feature","properties":{"NAME":"County of Pitigliano","OHM_NAME":"County of Pitigliano","ADMIN_LEVEL":4,"OHM_RELATION_ID":2751172,"START_DATE":"1336","END_DATE":"1604"},"geometry":{"type":"MultiPolygon","coordinates":[[[[11.7,42.686],[11.718,42.664],[11.711,42.658],[11.667,42.655],[11.612,42.622],[11.604,42.6],[11.606,42.568],[11.613,42.561],[11.671,42.577],[11.699,42.602],[11.735,42.616],[11.754,42.643],[11.787,42.651],[11.789,42.711],[11.807,42.743],[11.79,42.755],[11.762,42.752],[11.732,42.737],[11.7,42.686]]]]}},{"type":"Feature","properties":{"NAME":"County of Santa Fiora","OHM_NAME":"County of Santa Fiora","ADMIN_LEVEL":4,"OHM_RELATION_ID":2852381,"START_DATE":"1274","END_DATE":"1806"},"geometry":{"type":"MultiPolygon","coordinates":[[[[11.747,42.798],[11.61,42.815],[11.602,42.85],[11.554,42.847],[11.532,42.824],[11.546,42.77],[11.7,42.686],[11.732,42.737],[11.762,42.752],[11.79,42.755],[11.774,42.781],[11.747,42.798]]]]}},{"type":"Feature","properties":{"NAME":"County of Sovana","OHM_NAME":"County of Sovana","ADMIN_LEVEL":4,"OHM_RELATION_ID":2852382,"START_DATE":"1274","END_DATE":"1806"},"geometry":{"type":"MultiPolygon","coordinates":[[[[11.475,42.422],[11.498,42.434],[11.599,42.445],[11.607,42.46],[11.608,42.487],[11.566,42.516],[11.586,42.536],[11.588,42.566],[11.601,42.57],[11.612,42.622],[11.667,42.655],[11.711,42.658],[11.718,42.664],[11.7,42.686],[11.643,42.696],[11.594,42.676],[11.405,42.483],[11.405,42.447],[11.475,42.422]]]]}},{"type":"Feature","properties":{"NAME":"Duchy of Ferrara","OHM_NAME":"Duchy of Ferrara (1471-1597)","ADMIN_LEVEL":4,"OHM_RELATION_ID":2750992,"START_DATE":"1471","END_DATE":"1597"},"geometry":{"type":"MultiPolygon","coordinates":[[[[11.632,44.673],[11.673,44.634],[11.688,44.63],[11.7,44.637],[11.723,44.636],[11.727,44.653],[11.8,44.635],[11.795,44.632],[11.805,44.624],[11.787,44.607],[11.786,44.585],[11.75,44.58],[11.77,44.565],[11.79,44.566],[11.789,44.555],[11.827,44.561],[11.852,44.556],[11.88,44.58],[11.994,44.6],[12.002,44.6],[12.029,44.559],[12.055,44.551],[12.178,44.564],[12.224,44.584],[12.269,44.63],[12.319,44.64],[12.301,44.661],[12.29,44.696],[12.304,44.763],[12.392,44.748],[12.443,44.772],[12.354,44.816],[12.338,44.851],[12.294,44.861],[12.282,44.908],[12.293,44.93],[12.269,44.942],[12.237,44.974],[12.075,45.019],[12.068,45.007],[12.091,44.989],[12.06,44.977],[12.023,45.007],[11.999,44.998],[12.003,45.012],[11.927,44.996],[11.89,45.03],[11.835,45.013],[11.849,44.997],[11.839,44.973],[11.811,44.978],[11.787,44.964],[11.744,44.958],[11.724,44.944],[11.545,44.983],[11.446,45.069],[11.403,45.053],[11.36,45.058],[11.356,45.07],[11.322,45.08],[11.318,45.089],[11.268,45.093],[11.226,45.083],[11.204,45.1],[11.205,45.109],[11.177,45.097],[11.176,45.088],[11.188,45.086],[11.175,45.074],[11.174,45.063],[11.216,45.057],[11.234,45.044],[11.268,45.054],[11.263,45.031],[11.276,45.017],[11.303,45.017],[11.326,44.995],[11.422,44.965],[11.427,44.955],[11.404,44.948],[11.377,44.958],[11.357,44.95],[11.328,44.962],[11.306,44.962],[11.285,44.957],[11.272,44.938],[11.249,44.95],[11.261,44.934],[11.236,44.907],[11.327,44.875],[11.35,44.874],[11.369,44.841],[11.347,44.83],[11.312,44.827],[11.265,44.782],[11.26,44.767],[11.273,44.749],[11.258,44.712],[11.287,44.712],[11.355,44.77],[11.388,44.779],[11.402,44.767],[11.455,44.76],[11.582,44.708],[11.593,44.712],[11.632,44.673]]]]}},{"type":"Feature","properties":{"NAME":"Duchy of Massa and Carrara","OHM_NAME":"Duchy of Massa and Carrara","ADMIN_LEVEL":4,"OHM_RELATION_ID":2852271,"START_DATE":"1473-02-22","END_DATE":"1648"},"geometry":{"type":"MultiPolygon","coordinates":[[[[10.047,44.115],[10.067,44.099],[10.069,44.089],[10.033,44.065],[9.992,44.001],[10.002,44.004],[10.047,43.991],[10.096,43.959],[10.151,43.988],[10.149,44.012],[10.168,44.033],[10.185,44.039],[10.2,44.035],[10.224,44.052],[10.243,44.086],[10.233,44.107],[10.214,44.119],[10.19,44.122],[10.151,44.107],[10.137,44.119],[10.06,44.13],[10.047,44.115]]]]}},{"type":"Feature","properties":{"NAME":"Duchy of Milan","OHM_NAME":"Duchy of Milan","ADMIN_LEVEL":4,"OHM_RELATION_ID":2800654,"START_DATE":"1500","END_DATE":"1512"},"geometry":{"type":"MultiPolygon","coordinates":[[[[10.412,45.044],[10.418,45.065],[10.411,45.087],[10.463,45.094],[10.459,45.123],[10.492,45.132],[10.479,45.145],[10.437,45.146],[10.421,45.141],[10.418,45.13],[10.389,45.143],[10.378,45.139],[10.356,45.165],[10.313,45.188],[10.312,45.199],[10.321,45.209],[10.284,45.228],[10.267,45.251],[10.251,45.253],[10.246,45.244],[10.227,45.24],[10.217,45.231],[10.222,45.229],[10.153,45.24],[10.126,45.247],[10.077,45.278],[10.008,45.295],[9.911,45.338],[9.886,45.371],[9.891,45.463],[9.877,45.475],[9.853,45.532],[9.768,45.515],[9.771,45.504],[9.756,45.5],[9.75,45.483],[9.73,45.478],[9.764,45.454],[9.771,45.437],[9.768,45.412],[9.749,45.405],[9.745,45.384],[9.767,45.377],[9.77,45.363],[9.791,45.355],[9.78,45.353],[9.787,45.346],[9.759,45.343],[9.735,45.33],[9.729,45.314],[9.737,45.302],[9.73,45.287],[9.734,45.271],[9.697,45.256],[9.686,45.265],[9.663,45.255],[9.683,45.266],[9.673,45.274],[9.651,45.275],[9.662,45.281],[9.659,45.292],[9.639,45.268],[9.625,45.298],[9.606,45.286],[9.603,45.296],[9.612,45.303],[9.59,45.355],[9.56,45.374],[9.568,45.415],[9.585,45.423],[9.579,45.439],[9.642,45.457],[9.662,45.437],[9.682,45.441],[9.69,45.459],[9.699,45.46],[9.724,45.495],[9.695,45.507],[9.69,45.549],[9.673,45.564],[9.632,45.558],[9.597,45.57],[9.56,45.596],[9.539,45.582],[9.515,45.626],[9.497,45.631],[9.486,45.667],[9.451,45.684],[9.459,45.702],[9.447,45.731],[9.457,45.745],[9.446,45.761],[9.468,45.767],[9.45,45.783],[9.475,45.783],[9.484,45.793],[9.495,45.793],[9.493,45.807],[9.473,45.825],[9.475,45.841],[9.467,45.849],[9.51,45.876],[9.54,45.946],[9.53,45.961],[9.503,45.97],[9.491,46.012],[9.553,46.015],[9.626,46.052],[9.75,46.062],[9.889,46.045],[9.927,46.063],[10.097,46.091],[10.097,46.057],[10.17,46.057],[10.183,46.08],[10.154,46.135],[10.161,46.158],[10.178,46.173],[10.291,46.221],[10.318,46.277],[10.331,46.288],[10.367,46.293],[10.446,46.348],[10.471,46.355],[10.498,46.335],[10.513,46.335],[10.52,46.356],[10.54,46.355],[10.541,46.363],[10.567,46.378],[10.608,46.379],[10.633,46.402],[10.618,46.417],[10.622,46.448],[10.601,46.469],[10.578,46.473],[10.546,46.493],[10.477,46.496],[10.458,46.511],[10.453,46.53],[10.419,46.551],[10.4,46.545],[10.355,46.555],[10.338,46.543],[10.325,46.552],[10.296,46.55],[10.287,46.57],[10.272,46.576],[10.246,46.575],[10.242,46.591],[10.256,46.608],[10.24,46.635],[10.215,46.617],[10.188,46.626],[10.132,46.606],[10.102,46.61],[10.101,46.583],[10.083,46.575],[10.085,46.567],[10.068,46.55],[10.044,46.538],[10.054,46.523],[10.043,46.507],[10.043,46.478],[10.054,46.465],[10.042,46.443],[10.08,46.421],[10.143,46.428],[10.149,46.413],[10.165,46.409],[10.164,46.391],[10.129,46.379],[10.129,46.361],[10.108,46.351],[10.106,46.342],[10.116,46.316],[10.153,46.294],[10.172,46.267],[10.148,46.251],[10.151,46.24],[10.145,46.231],[10.109,46.258],[10.069,46.261],[10.059,46.253],[10.051,46.267],[10.035,46.275],[9.997,46.284],[9.992,46.296],[10.001,46.302],[10,46.313],[9.98,46.323],[9.995,46.349],[9.964,46.364],[9.953,46.379],[9.924,46.367],[9.907,46.381],[9.868,46.362],[9.833,46.361],[9.779,46.335],[9.737,46.351],[9.723,46.341],[9.718,46.322],[9.726,46.313],[9.71,46.292],[9.679,46.302],[9.632,46.286],[9.553,46.304],[9.518,46.327],[9.498,46.363],[9.465,46.374],[9.467,46.398],[9.454,46.421],[9.464,46.474],[9.463,46.481],[9.45,46.48],[9.461,46.485],[9.461,46.505],[9.434,46.498],[9.414,46.468],[9.391,46.473],[9.368,46.494],[9.373,46.504],[9.364,46.509],[9.321,46.505],[9.282,46.496],[9.278,46.462],[9.247,46.447],[9.248,46.433],[9.281,46.411],[9.276,46.395],[9.284,46.386],[9.277,46.372],[9.281,46.36],[9.298,46.352],[9.293,46.338],[9.3,46.327],[9.282,46.309],[9.285,46.297],[9.259,46.278],[9.249,46.234],[9.225,46.23],[9.214,46.211],[9.202,46.208],[9.194,46.178],[9.184,46.171],[9.161,46.171],[9.1,46.127],[9.079,46.121],[9.064,46.134],[9.053,46.122],[9.006,46.129],[8.984,46.114],[8.927,46.142],[8.936,46.209],[8.9,46.308],[8.885,46.305],[8.872,46.32],[8.848,46.327],[8.862,46.35],[8.852,46.35],[8.832,46.367],[8.829,46.378],[8.81,46.388],[8.744,46.406],[8.736,46.429],[8.705,46.445],[8.711,46.458],[8.703,46.474],[8.582,46.499],[8.558,46.491],[8.557,46.478],[8.539,46.467],[8.524,46.475],[8.462,46.451],[8.45,46.462],[8.434,46.464],[8.367,46.452],[8.326,46.427],[8.304,46.423],[8.29,46.409],[8.316,46.398],[8.313,46.377],[8.284,46.364],[8.264,46.365],[8.266,46.352],[8.224,46.334],[8.222,46.323],[8.199,46.302],[8.16,46.296],[8.141,46.302],[8.086,46.267],[8.085,46.256],[8.107,46.25],[8.115,46.236],[8.139,46.226],[8.153,46.191],[8.165,46.183],[8.151,46.165],[8.154,46.146],[8.115,46.13],[8.11,46.113],[8.036,46.101],[8.022,46.07],[8.034,46.044],[8.016,46.033],[8.013,46.016],[8.001,46.012],[7.989,45.996],[7.909,45.997],[7.88,45.975],[7.869,45.937],[7.877,45.926],[7.861,45.91],[7.868,45.906],[7.865,45.882],[7.874,45.855],[7.863,45.839],[7.873,45.827],[7.862,45.82],[7.862,45.791],[7.886,45.759],[7.931,45.742],[7.927,45.737],[7.938,45.725],[7.953,45.72],[7.999,45.719],[8.014,45.733],[8.06,45.74],[8.065,45.724],[8.076,45.719],[8.082,45.738],[8.096,45.738],[8.115,45.753],[8.182,45.751],[8.188,45.729],[8.253,45.693],[8.301,45.655],[8.328,45.647],[8.295,45.64],[8.258,45.604],[8.276,45.563],[8.297,45.553],[8.292,45.541],[8.278,45.533],[8.278,45.519],[8.221,45.476],[8.218,45.454],[8.203,45.446],[8.186,45.451],[8.169,45.436],[8.162,45.426],[8.168,45.412],[8.145,45.407],[8.124,45.375],[8.017,45.401],[8.008,45.385],[8.024,45.362],[8.021,45.33],[8.05,45.317],[8.018,45.284],[7.98,45.262],[7.988,45.24],[8.004,45.217],[8.042,45.205],[8.051,45.185],[8.105,45.186],[8.143,45.177],[8.143,45.171],[8.172,45.16],[8.199,45.176],[8.221,45.165],[8.269,45.178],[8.335,45.171],[8.37,45.197],[8.405,45.205],[8.44,45.195],[8.497,45.198],[8.502,45.181],[8.557,45.167],[8.553,45.16],[8.583,45.15],[8.592,45.131],[8.614,45.127],[8.608,45.108],[8.646,45.075],[8.637,45.067],[8.647,45.056],[8.563,44.933],[8.562,44.846],[8.577,44.723],[8.621,44.589],[8.725,44.579],[8.765,44.53],[8.772,44.489],[8.788,44.488],[8.8,44.502],[8.795,44.523],[8.802,44.533],[8.828,44.546],[8.822,44.548],[8.826,44.559],[8.818,44.571],[8.804,44.58],[8.807,44.597],[8.794,44.618],[8.82,44.64],[8.789,44.664],[8.781,44.683],[8.763,44.691],[8.771,44.716],[8.788,44.714],[8.793,44.723],[8.76,44.746],[8.722,44.793],[8.731,44.805],[8.744,44.807],[8.759,44.8],[8.766,44.785],[8.798,44.783],[8.83,44.804],[8.847,44.798],[8.847,44.761],[8.825,44.731],[8.827,44.716],[8.846,44.695],[8.872,44.705],[8.898,44.698],[8.944,44.708],[8.948,44.701],[8.988,44.715],[9.004,44.709],[9.019,44.716],[9.021,44.729],[9.004,44.743],[9.008,44.75],[9.029,44.75],[9.078,44.722],[9.128,44.728],[9.166,44.693],[9.214,44.684],[9.239,44.686],[9.232,44.702],[9.236,44.715],[9.26,44.68],[9.366,44.69],[9.399,44.655],[9.406,44.634],[9.396,44.613],[9.421,44.593],[9.423,44.575],[9.409,44.56],[9.48,44.563],[9.493,44.556],[9.488,44.547],[9.505,44.529],[9.496,44.483],[9.469,44.481],[9.471,44.469],[9.439,44.429],[9.438,44.418],[9.472,44.424],[9.479,44.409],[9.495,44.424],[9.541,44.426],[9.558,44.439],[9.585,44.429],[9.606,44.435],[9.638,44.415],[9.655,44.412],[9.675,44.364],[9.684,44.362],[9.718,44.383],[9.745,44.381],[9.744,44.389],[9.76,44.39],[9.754,44.392],[9.756,44.407],[9.817,44.452],[9.819,44.466],[9.924,44.473],[9.971,44.465],[9.981,44.445],[10.001,44.444],[10.007,44.431],[9.99,44.404],[10.021,44.383],[10.099,44.346],[10.143,44.354],[10.15,44.368],[10.22,44.406],[10.263,44.451],[10.324,44.479],[10.344,44.526],[10.363,44.543],[10.383,44.545],[10.402,44.564],[10.398,44.608],[10.416,44.632],[10.417,44.675],[10.448,44.719],[10.427,44.74],[10.435,44.753],[10.431,44.764],[10.475,44.768],[10.485,44.784],[10.534,44.807],[10.538,44.815],[10.53,44.817],[10.538,44.831],[10.584,44.843],[10.567,44.847],[10.583,44.877],[10.498,44.882],[10.483,44.854],[10.473,44.855],[10.468,44.856],[10.473,44.876],[10.462,44.887],[10.463,44.896],[10.491,44.905],[10.491,44.911],[10.508,44.92],[10.494,44.933],[10.467,44.938],[10.474,44.947],[10.496,44.947],[10.507,44.972],[10.523,44.97],[10.531,44.981],[10.597,45.004],[10.567,45],[10.556,45.007],[10.511,44.983],[10.458,44.981],[10.464,45.015],[10.511,45.018],[10.52,45.04],[10.534,45.045],[10.54,45.055],[10.533,45.075],[10.498,45.075],[10.491,45.083],[10.495,45.068],[10.488,45.056],[10.462,45.058],[10.445,45.046],[10.412,45.044]]]]}},{"type":"Feature","properties":{"NAME":"Duchy of Mirandola","OHM_NAME":"Duchy of Mirandola","ADMIN_LEVEL":4,"OHM_RELATION_ID":2852272,"START_DATE":"1310","END_DATE":"1648-10-24"},"geometry":{"type":"MultiPolygon","coordinates":[[[[11.246,44.951],[11.153,44.933],[11.12,44.954],[11.073,44.963],[11.059,44.949],[10.99,44.952],[10.968,44.936],[10.951,44.933],[10.95,44.92],[10.954,44.894],[10.977,44.86],[11.122,44.864],[11.221,44.883],[11.261,44.934],[11.246,44.951]]]]}},{"type":"Feature","properties":{"NAME":"Duchy of Modena and Reggio","OHM_NAME":"Duchy of Modena and Reggio","ADMIN_LEVEL":4,"OHM_RELATION_ID":2751113,"START_DATE":"1452-05-18","END_DATE":"1597"},"geometry":{"type":"MultiPolygon","coordinates":[[[[10.631,44.924],[10.602,44.916],[10.568,44.925],[10.529,44.91],[10.508,44.915],[10.489,44.904],[10.48,44.887],[10.491,44.883],[10.47,44.876],[10.466,44.855],[10.479,44.853],[10.498,44.882],[10.578,44.879],[10.583,44.877],[10.567,44.847],[10.584,44.843],[10.538,44.831],[10.529,44.799],[10.49,44.787],[10.475,44.768],[10.43,44.766],[10.435,44.754],[10.426,44.742],[10.447,44.728],[10.448,44.719],[10.414,44.668],[10.416,44.632],[10.398,44.608],[10.402,44.564],[10.383,44.545],[10.363,44.543],[10.344,44.526],[10.324,44.479],[10.263,44.451],[10.22,44.406],[10.15,44.368],[10.143,44.354],[10.185,44.321],[10.199,44.321],[10.208,44.303],[10.225,44.3],[10.251,44.272],[10.308,44.284],[10.318,44.276],[10.381,44.264],[10.427,44.229],[10.464,44.231],[10.484,44.223],[10.485,44.205],[10.523,44.175],[10.52,44.167],[10.527,44.156],[10.542,44.15],[10.559,44.167],[10.599,44.145],[10.58,44.13],[10.587,44.117],[10.631,44.116],[10.641,44.129],[10.661,44.132],[10.663,44.153],[10.69,44.157],[10.758,44.153],[10.781,44.131],[10.813,44.116],[10.808,44.154],[10.821,44.182],[10.856,44.208],[10.85,44.228],[10.89,44.225],[10.897,44.207],[10.908,44.206],[10.94,44.225],[10.957,44.227],[10.97,44.26],[10.951,44.287],[10.953,44.297],[11.021,44.308],[11.034,44.315],[11.04,44.332],[11.025,44.369],[11.049,44.416],[11.038,44.427],[10.996,44.429],[10.99,44.44],[11.047,44.466],[11.066,44.5],[11.05,44.549],[11.057,44.571],[11.044,44.575],[11.043,44.587],[11.015,44.607],[11.005,44.629],[10.984,44.628],[10.991,44.638],[10.983,44.644],[10.985,44.657],[10.999,44.659],[11.049,44.642],[11.054,44.655],[11.074,44.648],[11.116,44.707],[11.134,44.787],[11.208,44.804],[11.293,44.803],[11.312,44.827],[11.347,44.83],[11.369,44.841],[11.348,44.873],[11.236,44.907],[11.261,44.934],[11.246,44.951],[11.153,44.933],[11.12,44.954],[11.073,44.963],[11.059,44.949],[10.998,44.954],[10.942,44.924],[10.917,44.924],[10.884,44.909],[10.875,44.901],[10.882,44.874],[10.872,44.866],[10.84,44.868],[10.842,44.903],[10.817,44.895],[10.789,44.9],[10.77,44.882],[10.744,44.897],[10.731,44.886],[10.686,44.878],[10.642,44.853],[10.646,44.867],[10.639,44.881],[10.648,44.909],[10.631,44.924]]]]}},{"type":"Feature","properties":{"NAME":"Lordship of Piombino","OHM_NAME":"Lordship of Piombino","ADMIN_LEVEL":4,"OHM_RELATION_ID":2852270,"START_DATE":"1399","END_DATE":"1594"},"geometry":{"type":"MultiPolygon","coordinates":[[[[10.892,42.72],[10.997,42.832],[10.999,42.857],[10.871,42.968],[10.847,42.968],[10.728,42.89],[10.719,42.869],[10.724,42.844],[10.69,42.825],[10.682,42.794],[10.7,42.773],[10.756,42.745],[10.892,42.72]]],[[[10.722,43.084],[10.683,43.088],[10.657,43.078],[10.693,43.021],[10.607,43],[10.585,43.004],[10.53,43.045],[10.479,43.048],[10.434,42.991],[10.438,42.946],[10.454,42.913],[10.498,42.89],[10.53,42.884],[10.572,42.891],[10.597,42.916],[10.685,42.908],[10.735,42.978],[10.738,43.011],[10.748,43.017],[10.78,43.004],[10.791,43.015],[10.788,43.056],[10.779,43.067],[10.737,43.071],[10.722,43.084]]],[[[10.078,42.826],[10.051,42.793],[10.058,42.746],[10.088,42.713],[10.138,42.69],[10.192,42.695],[10.243,42.687],[10.276,42.697],[10.332,42.698],[10.385,42.672],[10.428,42.669],[10.474,42.688],[10.487,42.711],[10.478,42.754],[10.487,42.772],[10.485,42.817],[10.496,42.839],[10.495,42.856],[10.47,42.885],[10.436,42.908],[10.409,42.912],[10.377,42.902],[10.339,42.86],[10.256,42.869],[10.215,42.848],[10.13,42.847],[10.078,42.826]]]]}},{"type":"Feature","properties":{"NAME":"Lordship of Rimini","OHM_NAME":"Lordship of Rimini","ADMIN_LEVEL":3,"OHM_RELATION_ID":2800702,"START_DATE":"1295","END_DATE":"1500"},"geometry":{"type":"MultiPolygon","coordinates":[[[[11.97,44.179],[11.933,44.144],[11.945,44.14],[11.946,44.122],[11.939,44.118],[11.931,44.135],[11.913,44.131],[11.924,44.093],[11.917,44.072],[11.927,44.056],[11.951,44.051],[11.924,44.039],[11.93,44.028],[11.923,44.017],[11.926,44.001],[11.93,43.989],[11.956,43.975],[11.956,43.963],[11.936,43.962],[11.928,43.972],[11.914,43.968],[11.916,43.952],[11.909,43.947],[11.93,43.937],[11.953,43.906],[11.984,43.907],[12.007,43.916],[12.011,43.939],[12.029,43.942],[12.03,43.925],[12.049,43.919],[12.043,43.935],[12.063,43.955],[12.093,43.956],[12.133,43.935],[12.15,43.961],[12.165,43.957],[12.156,43.943],[12.174,43.934],[12.169,43.924],[12.153,43.922],[12.148,43.937],[12.125,43.92],[12.111,43.92],[12.108,43.914],[12.119,43.903],[12.113,43.9],[12.093,43.898],[12.095,43.912],[12.087,43.913],[12.071,43.905],[12.068,43.889],[12.083,43.892],[12.088,43.867],[12.122,43.875],[12.114,43.884],[12.123,43.901],[12.127,43.887],[12.153,43.868],[12.138,43.848],[12.151,43.838],[12.148,43.829],[12.131,43.827],[12.119,43.802],[12.102,43.79],[12.096,43.765],[12.108,43.754],[12.138,43.753],[12.162,43.762],[12.192,43.735],[12.209,43.757],[12.228,43.76],[12.248,43.752],[12.257,43.761],[12.283,43.765],[12.29,43.787],[12.286,43.795],[12.316,43.806],[12.353,43.801],[12.367,43.812],[12.383,43.814],[12.398,43.826],[12.394,43.861],[12.401,43.873],[12.446,43.872],[12.462,43.888],[12.44,43.906],[12.41,43.902],[12.408,43.922],[12.415,43.929],[12.404,43.955],[12.435,43.957],[12.508,43.991],[12.516,43.986],[12.506,43.971],[12.516,43.941],[12.494,43.92],[12.487,43.896],[12.499,43.873],[12.518,43.881],[12.541,43.865],[12.562,43.871],[12.564,43.883],[12.588,43.884],[12.622,43.825],[12.681,43.828],[12.682,43.851],[12.726,43.863],[12.734,43.871],[12.723,43.881],[12.732,43.901],[12.728,43.92],[12.774,44.002],[12.722,44.017],[12.606,44.11],[12.574,44.117],[12.432,44.242],[12.383,44.227],[12.347,44.192],[12.287,44.229],[12.263,44.232],[12.219,44.215],[12.201,44.23],[12.209,44.256],[12.174,44.243],[12.103,44.272],[12.108,44.288],[12.064,44.302],[12.043,44.328],[12.032,44.33],[11.974,44.255],[11.915,44.209],[11.935,44.203],[11.936,44.193],[11.963,44.207],[11.97,44.179]]]]}},{"type":"Feature","properties":{"NAME":"March of Montferrat","OHM_NAME":"March of Montferrat","ADMIN_LEVEL":6,"OHM_RELATION_ID":2800678,"START_DATE":"1000","END_DATE":"1708"},"geometry":{"type":"MultiPolygon","coordinates":[[[[8.358,44.465],[8.394,44.479],[8.399,44.501],[8.417,44.513],[8.447,44.499],[8.469,44.522],[8.48,44.511],[8.576,44.507],[8.601,44.546],[8.599,44.565],[8.607,44.583],[8.621,44.589],[8.577,44.723],[8.562,44.846],[8.563,44.933],[8.641,45.044],[8.638,45.049],[8.647,45.055],[8.637,45.067],[8.646,45.075],[8.608,45.108],[8.614,45.127],[8.592,45.131],[8.58,45.153],[8.555,45.157],[8.527,45.244],[8.128,45.257],[8.094,45.249],[8.07,45.2],[7.951,45.196],[8.03,45.131],[8.058,45.072],[8.28,45.015],[8.332,44.995],[8.356,44.944],[8.307,44.833],[8.2,44.785],[8.028,44.799],[8.008,44.733],[7.918,44.706],[7.879,44.639],[7.913,44.555],[7.914,44.458],[7.969,44.423],[8.043,44.397],[8.113,44.491],[8.262,44.519],[8.272,44.506],[8.303,44.503],[8.324,44.488],[8.35,44.485],[8.358,44.465]]]]}},{"type":"Feature","properties":{"NAME":"Margraviate of Mantua","OHM_NAME":"Margraviate of Mantua","ADMIN_LEVEL":4,"OHM_RELATION_ID":2852514,"START_DATE":"1478-06-11","END_DATE":"1529"},"geometry":{"type":"Polygon","coordinates":[[[10.558,45.024],[10.557,45.017],[10.602,45.012],[10.601,45.005],[10.561,44.994],[10.523,44.972],[10.51,44.972],[10.497,44.949],[10.471,44.945],[10.486,44.924],[10.522,44.91],[10.568,44.925],[10.602,44.916],[10.624,44.921],[10.644,44.936],[10.654,44.966],[10.697,44.977],[10.688,44.966],[10.697,44.962],[10.712,44.974],[10.714,44.987],[10.726,44.992],[10.742,44.977],[10.743,44.953],[10.8,44.943],[10.808,44.934],[10.835,44.936],[10.848,44.925],[10.864,44.93],[10.876,44.922],[10.873,44.909],[10.842,44.903],[10.84,44.868],[10.86,44.865],[10.882,44.874],[10.875,44.89],[10.888,44.915],[10.917,44.924],[10.941,44.922],[10.997,44.955],[11.055,44.95],[11.073,44.963],[11.104,44.958],[11.149,44.934],[11.244,44.951],[11.271,44.941],[11.302,44.962],[11.328,44.962],[11.357,44.95],[11.372,44.958],[11.406,44.948],[11.427,44.955],[11.422,44.965],[11.33,44.993],[11.306,45.016],[11.279,45.017],[11.265,45.03],[11.271,45.05],[11.263,45.056],[11.236,45.043],[11.211,45.058],[11.175,45.06],[11.175,45.074],[11.188,45.083],[11.176,45.088],[11.177,45.097],[11.205,45.109],[11.147,45.126],[11.138,45.124],[11.127,45.103],[11.102,45.113],[11.095,45.1],[11.075,45.098],[11.04,45.114],[11.029,45.127],[11.044,45.134],[11.042,45.143],[11.05,45.15],[11.032,45.15],[11.028,45.159],[11.01,45.149],[10.993,45.153],[10.998,45.184],[10.991,45.196],[10.933,45.214],[10.936,45.233],[10.846,45.257],[10.83,45.285],[10.783,45.316],[10.737,45.287],[10.728,45.292],[10.731,45.316],[10.71,45.316],[10.71,45.345],[10.727,45.358],[10.696,45.385],[10.704,45.402],[10.702,45.423],[10.662,45.419],[10.638,45.386],[10.584,45.383],[10.58,45.364],[10.539,45.312],[10.504,45.305],[10.465,45.335],[10.466,45.325],[10.429,45.321],[10.424,45.297],[10.435,45.274],[10.504,45.275],[10.514,45.258],[10.513,45.241],[10.495,45.228],[10.495,45.219],[10.505,45.216],[10.483,45.194],[10.488,45.19],[10.479,45.188],[10.486,45.179],[10.458,45.174],[10.451,45.187],[10.423,45.184],[10.396,45.195],[10.404,45.169],[10.391,45.183],[10.374,45.185],[10.384,45.193],[10.361,45.215],[10.344,45.211],[10.344,45.204],[10.318,45.205],[10.309,45.192],[10.364,45.162],[10.378,45.139],[10.387,45.144],[10.416,45.13],[10.422,45.132],[10.419,45.14],[10.458,45.148],[10.479,45.145],[10.492,45.132],[10.458,45.12],[10.463,45.094],[10.417,45.092],[10.412,45.046],[10.42,45.041],[10.467,45.059],[10.494,45.057],[10.49,45.082],[10.533,45.075],[10.541,45.063],[10.531,45.051],[10.558,45.024]]]}},{"type":"Feature","properties":{"NAME":"Marquisate of Saluzzo","OHM_NAME":"Marquisate of Saluzzo","ADMIN_LEVEL":4,"OHM_RELATION_ID":2892597,"START_DATE":"1190","END_DATE":"1548-02-23"},"geometry":{"type":"MultiPolygon","coordinates":[[[[7.478,44.758],[7.448,44.755],[7.451,44.739],[7.426,44.725],[7.341,44.706],[7.336,44.681],[7.311,44.684],[7.288,44.706],[7.264,44.715],[7.217,44.715],[7.149,44.743],[7.129,44.739],[7.121,44.726],[7.065,44.714],[7.077,44.682],[7.029,44.692],[6.99,44.69],[6.963,44.678],[6.948,44.654],[6.916,44.66],[6.882,44.631],[6.858,44.63],[6.855,44.615],[6.839,44.609],[6.78,44.538],[6.794,44.503],[6.814,44.37],[6.88,44.36],[6.919,44.339],[6.961,44.286],[6.964,44.238],[7.03,44.225],[7.126,44.175],[7.149,44.19],[7.197,44.275],[7.223,44.286],[7.28,44.287],[7.331,44.272],[7.41,44.321],[7.454,44.334],[7.43,44.399],[7.377,44.39],[7.376,44.467],[7.357,44.503],[7.381,44.529],[7.425,44.525],[7.436,44.562],[7.5,44.624],[7.508,44.65],[7.469,44.657],[7.478,44.758]]]]}},{"type":"Feature","properties":{"NAME":"Principality of Oneglia","OHM_NAME":"Principality of Oneglia (1488-1576)","ADMIN_LEVEL":3,"OHM_RELATION_ID":2835534,"START_DATE":"1488","END_DATE":"1576"},"geometry":{"type":"MultiPolygon","coordinates":[[[[8.138,44.152],[8.153,44.142],[8.144,44.135],[8.148,44.113],[8.178,44.108],[8.197,44.123],[8.185,44.136],[8.169,44.139],[8.175,44.141],[8.159,44.159],[8.138,44.152]]],[[[8.318,44.121],[8.256,44.152],[8.235,44.143],[8.247,44.118],[8.291,44.097],[8.311,44.108],[8.318,44.121]]],[[[8.119,44.09],[8.106,44.096],[8.082,44.092],[8.098,44.074],[8.12,44.075],[8.141,44.065],[8.151,44.07],[8.144,44.082],[8.119,44.09]]],[[[8.007,43.999],[7.975,44.02],[7.926,43.999],[7.914,44.005],[7.926,44.025],[7.902,44.039],[7.8,44.038],[7.811,44.006],[7.848,43.987],[7.85,43.973],[7.83,43.966],[7.843,43.948],[7.876,43.935],[7.88,43.926],[7.908,43.92],[7.963,43.915],[7.991,43.924],[8.018,43.897],[8.034,43.892],[8.062,43.848],[8.096,43.856],[8.034,43.933],[8.018,43.975],[8.037,43.983],[8.083,43.984],[8.095,44.002],[8.09,44.013],[8.108,44.017],[8.121,44.038],[8.1,44.044],[8.075,44.032],[8.069,44.017],[8.024,44.017],[8.007,43.999]]]]}},{"type":"Feature","properties":{"NAME":"Republic of Ancona","OHM_NAME":"Republic of Ancona","ADMIN_LEVEL":3,"OHM_RELATION_ID":2795688,"START_DATE":"1100","END_DATE":"1532"},"geometry":{"type":"MultiPolygon","coordinates":[[[[13.339,43.655],[13.297,43.616],[13.262,43.62],[13.244,43.615],[13.239,43.604],[13.239,43.593],[13.258,43.583],[13.327,43.612],[13.348,43.599],[13.305,43.546],[13.336,43.466],[13.542,43.435],[13.689,43.487],[13.678,43.508],[13.68,43.552],[13.672,43.569],[13.616,43.6],[13.561,43.652],[13.499,43.67],[13.457,43.651],[13.37,43.686],[13.339,43.655]]]]}},{"type":"Feature","properties":{"NAME":"Republic of Florence","OHM_NAME":"Duchy of Florence","ADMIN_LEVEL":4,"OHM_RELATION_ID":2800633,"START_DATE":"1406","END_DATE":"1555"},"geometry":{"type":"MultiPolygon","coordinates":[[[[10.209,43.807],[10.23,43.7],[10.221,43.688],[10.221,43.668],[10.236,43.639],[10.247,43.577],[10.241,43.553],[10.255,43.517],[10.27,43.5],[10.286,43.457],[10.314,43.435],[10.338,43.427],[10.365,43.378],[10.392,43.36],[10.414,43.308],[10.46,43.27],[10.476,43.235],[10.49,43.144],[10.479,43.048],[10.53,43.045],[10.585,43.004],[10.607,43],[10.693,43.021],[10.657,43.078],[10.683,43.088],[10.722,43.084],[10.717,43.108],[10.737,43.146],[10.777,43.141],[10.801,43.16],[10.842,43.153],[10.912,43.163],[10.912,43.174],[10.934,43.203],[10.929,43.232],[10.935,43.24],[10.981,43.235],[10.989,43.24],[10.994,43.269],[10.957,43.304],[10.96,43.333],[11.194,43.417],[11.409,43.438],[11.799,43.203],[11.922,43.138],[11.945,43.168],[11.961,43.166],[11.956,43.176],[12.006,43.194],[12.023,43.242],[12.037,43.255],[12.092,43.245],[12.122,43.26],[12.158,43.263],[12.213,43.291],[12.215,43.3],[12.203,43.318],[12.194,43.318],[12.169,43.296],[12.143,43.298],[12.133,43.357],[12.081,43.372],[12.075,43.407],[12.037,43.417],[12.057,43.437],[12.134,43.481],[12.13,43.496],[12.098,43.511],[12.098,43.518],[12.137,43.532],[12.214,43.611],[12.186,43.642],[12.24,43.661],[12.25,43.669],[12.244,43.681],[12.273,43.676],[12.299,43.688],[12.306,43.698],[12.301,43.72],[12.31,43.73],[12.321,43.694],[12.316,43.678],[12.331,43.674],[12.336,43.678],[12.33,43.704],[12.356,43.704],[12.37,43.707],[12.37,43.713],[12.327,43.751],[12.283,43.765],[12.257,43.761],[12.248,43.752],[12.228,43.76],[12.209,43.757],[12.196,43.735],[12.172,43.749],[12.164,43.762],[12.124,43.749],[12.096,43.765],[12.105,43.795],[12.118,43.798],[12.131,43.827],[12.148,43.829],[12.143,43.863],[12.153,43.868],[12.127,43.887],[12.123,43.901],[12.114,43.884],[12.122,43.875],[12.09,43.865],[12.085,43.89],[12.068,43.889],[12.071,43.902],[12.084,43.914],[12.098,43.908],[12.093,43.898],[12.118,43.902],[12.108,43.911],[12.11,43.918],[12.131,43.923],[12.136,43.934],[12.148,43.937],[12.151,43.921],[12.167,43.925],[12.175,43.933],[12.158,43.94],[12.16,43.959],[12.145,43.959],[12.133,43.935],[12.093,43.956],[12.058,43.954],[12.041,43.939],[12.051,43.928],[12.045,43.919],[12.03,43.921],[12.031,43.941],[12.015,43.938],[12.003,43.911],[11.984,43.907],[11.946,43.909],[11.949,43.915],[11.932,43.926],[11.93,43.937],[11.912,43.94],[11.914,43.968],[11.928,43.972],[11.94,43.961],[11.956,43.963],[11.956,43.975],[11.922,44],[11.93,44.028],[11.924,44.039],[11.946,44.046],[11.95,44.057],[11.927,44.056],[11.917,44.072],[11.926,44.089],[11.915,44.101],[11.918,44.122],[11.91,44.128],[11.928,44.132],[11.939,44.118],[11.946,44.122],[11.933,44.144],[11.968,44.171],[11.97,44.194],[11.963,44.207],[11.951,44.209],[11.936,44.193],[11.935,44.203],[11.915,44.209],[11.89,44.174],[11.825,44.195],[11.789,44.187],[11.764,44.197],[11.729,44.167],[11.72,44.132],[11.634,44.118],[11.588,44.129],[11.611,44.152],[11.604,44.163],[11.572,44.174],[11.551,44.163],[11.496,44.166],[11.419,44.232],[11.396,44.234],[11.37,44.21],[11.334,44.207],[11.291,44.171],[11.204,44.159],[11.2,44.141],[11.255,44.119],[11.264,44.104],[11.246,44.098],[11.128,44.11],[11.09,44.09],[11.041,44.092],[11.008,44.104],[11.001,44.113],[11.017,44.134],[10.997,44.136],[10.943,44.081],[10.921,44.066],[10.899,44.064],[10.796,43.816],[10.662,43.806],[10.645,43.795],[10.623,43.757],[10.597,43.76],[10.556,43.75],[10.526,43.762],[10.501,43.753],[10.452,43.767],[10.44,43.79],[10.451,43.803],[10.439,43.808],[10.427,43.831],[10.381,43.814],[10.309,43.829],[10.209,43.807]],[[12.054,43.856],[12.056,43.863],[12.087,43.855],[12.063,43.847],[12.054,43.856]]],[[[12.169,43.793],[12.186,43.783],[12.185,43.774],[12.199,43.772],[12.215,43.783],[12.245,43.785],[12.226,43.81],[12.217,43.803],[12.186,43.804],[12.177,43.811],[12.169,43.793]]]]}},{"type":"Feature","properties":{"NAME":"Republic of Genoa","OHM_NAME":"Republic of Genoa","ADMIN_LEVEL":4,"OHM_RELATION_ID":2851369,"START_DATE":"1475","END_DATE":"1540"},"geometry":{"type":"MultiPolygon","coordinates":[[[[8.091,44.173],[8.067,44.145],[8.043,44.143],[8.014,44.156],[7.98,44.138],[8.013,44.12],[8.003,44.117],[8.012,44.111],[8.007,44.102],[7.971,44.113],[7.943,44.101],[7.926,44.112],[7.884,44.106],[7.882,44.114],[7.815,44.124],[7.765,44.144],[7.726,44.126],[7.715,44.107],[7.733,44.084],[7.755,44.085],[7.736,44.076],[7.728,44.06],[7.712,44.061],[7.703,44.043],[7.665,44.031],[7.662,44.022],[7.67,43.998],[7.752,43.958],[7.759,43.943],[7.743,43.91],[7.728,43.904],[7.735,43.876],[7.71,43.855],[7.714,43.839],[7.687,43.833],[7.652,43.845],[7.614,43.839],[7.604,43.862],[7.585,43.873],[7.579,43.891],[7.559,43.897],[7.51,43.882],[7.498,43.872],[7.496,43.853],[7.508,43.842],[7.53,43.789],[7.539,43.746],[7.589,43.753],[7.69,43.743],[7.72,43.759],[7.752,43.761],[7.789,43.779],[7.841,43.781],[7.884,43.8],[7.928,43.802],[8.058,43.846],[8.034,43.892],[8.018,43.897],[7.991,43.923],[7.963,43.915],[7.909,43.92],[7.881,43.924],[7.876,43.933],[7.845,43.945],[7.833,43.963],[7.85,43.973],[7.848,43.984],[7.807,44.011],[7.8,44.038],[7.902,44.039],[7.926,44.027],[7.917,44.004],[7.929,43.999],[7.975,44.02],[8.002,44],[8.012,44.001],[8.028,44.015],[8.05,44.012],[8.072,44.019],[8.086,44.038],[8.105,44.045],[8.121,44.038],[8.113,44.022],[8.093,44.016],[8.086,43.986],[8.016,43.977],[8.054,43.905],[8.094,43.859],[8.101,43.862],[8.126,43.887],[8.213,43.933],[8.224,43.953],[8.214,43.98],[8.274,44.035],[8.277,44.075],[8.293,44.099],[8.319,44.122],[8.4,44.145],[8.366,44.19],[8.4,44.228],[8.422,44.233],[8.472,44.209],[8.5,44.24],[8.505,44.268],[8.549,44.3],[8.752,44.387],[9.097,44.333],[9.096,44.315],[9.116,44.293],[9.206,44.264],[9.237,44.266],[9.273,44.292],[9.332,44.268],[9.347,44.245],[9.372,44.225],[9.465,44.199],[9.52,44.173],[9.599,44.11],[9.632,44.099],[9.657,44.103],[9.711,44.062],[9.791,44.028],[9.826,44.001],[9.876,44.005],[9.899,44.03],[9.945,44.004],[9.991,44.001],[10.032,44.064],[10.071,44.093],[10.058,44.108],[10.028,44.119],[10.005,44.111],[9.993,44.093],[9.984,44.099],[9.994,44.105],[9.995,44.119],[9.975,44.138],[9.981,44.143],[9.974,44.167],[9.892,44.167],[9.933,44.196],[9.915,44.199],[9.909,44.208],[9.891,44.208],[9.866,44.183],[9.852,44.197],[9.825,44.198],[9.821,44.225],[9.802,44.206],[9.763,44.206],[9.765,44.212],[9.754,44.22],[9.759,44.234],[9.748,44.254],[9.781,44.294],[9.756,44.321],[9.729,44.328],[9.719,44.355],[9.699,44.366],[9.675,44.364],[9.655,44.412],[9.638,44.415],[9.606,44.435],[9.585,44.429],[9.558,44.439],[9.541,44.426],[9.495,44.424],[9.479,44.409],[9.464,44.425],[9.443,44.417],[9.439,44.429],[9.458,44.442],[9.471,44.469],[9.469,44.481],[9.496,44.483],[9.505,44.529],[9.48,44.563],[9.409,44.56],[9.421,44.574],[9.417,44.596],[9.396,44.61],[9.404,44.642],[9.366,44.69],[9.26,44.68],[9.236,44.715],[9.232,44.702],[9.243,44.687],[9.2,44.686],[9.166,44.693],[9.128,44.728],[9.078,44.722],[9.029,44.75],[9.008,44.75],[9.004,44.743],[9.021,44.729],[9.019,44.716],[9.004,44.709],[8.988,44.715],[8.948,44.701],[8.944,44.708],[8.898,44.698],[8.872,44.705],[8.846,44.695],[8.827,44.716],[8.825,44.731],[8.847,44.761],[8.847,44.798],[8.83,44.804],[8.798,44.783],[8.766,44.785],[8.759,44.8],[8.744,44.807],[8.731,44.805],[8.722,44.793],[8.76,44.746],[8.793,44.723],[8.788,44.714],[8.771,44.716],[8.763,44.691],[8.781,44.683],[8.789,44.664],[8.82,44.64],[8.794,44.618],[8.807,44.597],[8.804,44.58],[8.818,44.571],[8.826,44.559],[8.822,44.548],[8.828,44.546],[8.798,44.525],[8.8,44.502],[8.786,44.488],[8.771,44.489],[8.765,44.53],[8.752,44.526],[8.749,44.55],[8.739,44.55],[8.725,44.579],[8.697,44.58],[8.673,44.597],[8.685,44.611],[8.672,44.621],[8.675,44.64],[8.663,44.656],[8.618,44.651],[8.603,44.643],[8.601,44.632],[8.618,44.608],[8.613,44.602],[8.623,44.597],[8.619,44.577],[8.597,44.555],[8.612,44.548],[8.587,44.525],[8.572,44.524],[8.576,44.509],[8.55,44.504],[8.536,44.512],[8.474,44.511],[8.471,44.522],[8.459,44.518],[8.448,44.499],[8.461,44.493],[8.464,44.469],[8.444,44.439],[8.377,44.408],[8.344,44.351],[8.355,44.332],[8.339,44.32],[8.338,44.299],[8.313,44.262],[8.305,44.257],[8.272,44.272],[8.248,44.273],[8.271,44.302],[8.272,44.318],[8.316,44.327],[8.318,44.343],[8.289,44.367],[8.267,44.352],[8.255,44.3],[8.232,44.295],[8.235,44.306],[8.223,44.323],[8.212,44.325],[8.156,44.272],[8.102,44.281],[8.063,44.253],[8.077,44.235],[8.068,44.227],[8.076,44.204],[8.148,44.206],[8.17,44.214],[8.179,44.202],[8.177,44.189],[8.188,44.184],[8.151,44.165],[8.091,44.173]],[[8.119,44.09],[8.135,44.092],[8.139,44.104],[8.151,44.102],[8.141,44.093],[8.153,44.074],[8.15,44.068],[8.098,44.074],[8.083,44.089],[8.106,44.096],[8.119,44.09]],[[8.138,44.152],[8.152,44.16],[8.165,44.155],[8.179,44.141],[8.172,44.141],[8.192,44.133],[8.197,44.123],[8.19,44.11],[8.148,44.113],[8.143,44.126],[8.153,44.139],[8.138,44.152]]],[[[9.235,41.299],[9.27,41.292],[9.328,41.342],[9.325,41.38],[9.309,41.4],[9.34,41.483],[9.374,41.472],[9.399,41.473],[9.432,41.5],[9.433,41.512],[9.42,41.534],[9.428,41.558],[9.418,41.61],[9.447,41.656],[9.46,41.71],[9.453,41.872],[9.467,41.912],[9.466,41.945],[9.592,42.08],[9.608,42.119],[9.612,42.289],[9.586,42.38],[9.596,42.424],[9.583,42.493],[9.587,42.548],[9.562,42.603],[9.5,42.673],[9.521,42.753],[9.545,42.797],[9.526,42.926],[9.51,42.963],[9.516,42.994],[9.502,43.014],[9.444,43.055],[9.416,43.066],[9.385,43.064],[9.358,43.046],[9.331,43.041],[9.3,43.02],[9.288,43.002],[9.297,42.941],[9.271,42.909],[9.276,42.869],[9.256,42.832],[9.287,42.786],[9.287,42.75],[9.225,42.775],[9.159,42.776],[9.102,42.767],[9.022,42.726],[8.997,42.684],[8.962,42.678],[8.915,42.683],[8.853,42.663],[8.833,42.648],[8.777,42.637],[8.753,42.618],[8.732,42.623],[8.695,42.617],[8.659,42.591],[8.653,42.571],[8.657,42.556],[8.636,42.548],[8.617,42.529],[8.596,42.479],[8.598,42.455],[8.566,42.442],[8.549,42.418],[8.502,42.402],[8.484,42.379],[8.506,42.315],[8.532,42.297],[8.555,42.292],[8.562,42.282],[8.506,42.268],[8.489,42.249],[8.49,42.222],[8.516,42.193],[8.506,42.137],[8.546,42.1],[8.594,42.09],[8.628,42.069],[8.659,42.061],[8.621,42.039],[8.603,42.013],[8.565,41.998],[8.542,41.977],[8.539,41.954],[8.557,41.918],[8.538,41.893],[8.533,41.866],[8.55,41.844],[8.589,41.834],[8.628,41.844],[8.648,41.867],[8.707,41.867],[8.697,41.842],[8.661,41.815],[8.657,41.792],[8.612,41.768],[8.609,41.725],[8.63,41.707],[8.661,41.7],[8.69,41.684],[8.733,41.685],[8.76,41.664],[8.743,41.647],[8.724,41.607],[8.724,41.58],[8.745,41.536],[8.786,41.515],[8.808,41.489],[8.901,41.452],[8.934,41.45],[9.032,41.418],[9.043,41.383],[9.059,41.364],[9.094,41.352],[9.118,41.353],[9.155,41.332],[9.196,41.326],[9.235,41.299]]]]}},{"type":"Feature","properties":{"NAME":"Republic of Lucca","OHM_NAME":"Republic of Lucca","ADMIN_LEVEL":4,"OHM_RELATION_ID":2750003,"START_DATE":"1430","END_DATE":"1648-10-24"},"geometry":{"type":"MultiPolygon","coordinates":[[[[10.533,43.76],[10.556,43.75],[10.595,43.764],[10.61,43.755],[10.623,43.757],[10.645,43.795],[10.671,43.815],[10.636,43.831],[10.651,43.854],[10.648,43.862],[10.673,43.87],[10.658,43.916],[10.662,43.927],[10.705,43.943],[10.71,43.955],[10.675,43.985],[10.689,43.995],[10.707,43.984],[10.727,43.984],[10.745,44.01],[10.736,44.038],[10.721,44.042],[10.723,44.082],[10.707,44.093],[10.665,44.11],[10.646,44.106],[10.625,44.121],[10.604,44.114],[10.573,44.12],[10.545,44.107],[10.53,44.074],[10.511,44.062],[10.497,44.04],[10.483,44.037],[10.462,44.046],[10.447,44.07],[10.436,44.074],[10.409,44.052],[10.428,44.024],[10.447,44.035],[10.467,44.028],[10.461,44.022],[10.473,44.011],[10.467,44.002],[10.418,43.991],[10.391,44.001],[10.364,43.994],[10.35,43.985],[10.356,43.975],[10.276,43.957],[10.279,43.962],[10.222,43.916],[10.167,43.893],[10.184,43.871],[10.209,43.807],[10.307,43.83],[10.381,43.813],[10.415,43.824],[10.425,43.835],[10.439,43.808],[10.453,43.805],[10.439,43.783],[10.452,43.767],[10.507,43.756],[10.533,43.76]]]]}},{"type":"Feature","properties":{"NAME":"Republic of Siena","OHM_NAME":"Republic of Siena","ADMIN_LEVEL":4,"OHM_RELATION_ID":2750802,"START_DATE":"1350","END_DATE":"1555"},"geometry":{"type":"MultiPolygon","coordinates":[[[[11.799,43.203],[11.409,43.438],[11.194,43.417],[10.96,43.333],[10.957,43.304],[10.986,43.28],[10.995,43.253],[10.981,43.235],[10.935,43.24],[10.929,43.232],[10.934,43.203],[10.912,43.174],[10.912,43.163],[10.842,43.153],[10.801,43.16],[10.781,43.144],[10.74,43.148],[10.717,43.108],[10.724,43.076],[10.779,43.067],[10.788,43.056],[10.791,43.015],[10.78,43.004],[10.748,43.017],[10.738,43.011],[10.735,42.978],[10.688,42.908],[10.728,42.89],[10.847,42.968],[10.871,42.968],[10.999,42.857],[10.997,42.832],[10.892,42.72],[10.939,42.696],[10.975,42.634],[11.033,42.609],[11.083,42.538],[11.142,42.508],[11.138,42.479],[11.083,42.481],[11.042,42.445],[11.04,42.396],[11.063,42.367],[11.15,42.324],[11.209,42.33],[11.259,42.375],[11.426,42.345],[11.479,42.426],[11.498,42.434],[11.59,42.442],[11.605,42.452],[11.608,42.487],[11.566,42.516],[11.586,42.536],[11.588,42.566],[11.601,42.57],[11.612,42.622],[11.667,42.655],[11.711,42.658],[11.718,42.664],[11.7,42.686],[11.72,42.723],[11.762,42.752],[11.79,42.755],[11.774,42.781],[11.747,42.798],[11.75,42.806],[11.775,42.821],[11.808,42.813],[11.841,42.836],[11.895,42.835],[11.892,42.843],[11.913,42.85],[11.951,42.893],[11.932,42.927],[11.972,43.022],[11.975,43.059],[11.958,43.075],[11.937,43.063],[11.93,43.069],[11.918,43.122],[11.922,43.138],[11.799,43.203]]]]}}],"metadata":{"source":"OpenHistoricalMap","sourceUrl":"https://www.openhistoricalmap.org/","license":"CC0-1.0","year":1500,"featureCount":21,"missingWays":{},"unclosedRings":{},"droppedInnerRings":{},"droppedPartsOutsideBbox":{"2851369":1},"relationsWithoutGeometry":[],"borderPrecision":"史料に基づく復元（概略。測量された境界ではない）"}}