{"type":"FeatureCollection","features":[{"type":"Feature","bbox":[5.156993,43.665778,16.183482,48.154853],"properties":{"name":"ALPS","scalerank":1,"min_label":2},"geometry":{"type":"Polygon","coordinates":[[[15.315,46.432],[15.267,46.402],[15.205,46.38],[14.992,46.32],[14.901,46.306],[14.808,46.306],[14.39,46.382],[14.053,46.415],[13.716,46.407],[13.4,46.342],[12.024,45.953],[11.809,45.917],[11.603,45.864],[11.433,45.76],[11.29,45.6],[11.213,45.562],[11.086,45.561],[9.322,45.915],[8.768,45.93],[8.315,45.807],[7.948,45.615],[7.654,45.419],[7.468,45.195],[7.412,44.905],[7.447,44.594],[7.537,44.309],[7.51,44.079],[7.297,43.906],[7.014,43.788],[6.778,43.725],[6.401,43.666],[6.055,43.67],[5.724,43.764],[5.388,43.975],[5.173,44.308],[5.157,44.698],[5.257,45.061],[5.388,45.316],[5.503,45.477],[5.627,45.631],[5.79,45.794],[6.516,46.418],[6.87,46.68],[7.435,47.009],[8.011,47.268],[8.577,47.456],[9.078,47.584],[11.118,47.968],[11.668,48.014],[15.115,48.09],[15.531,48.138],[15.826,48.155],[16.029,48.089],[16.146,48.004],[16.183,47.961],[16.162,47.849],[16.102,47.701],[16.012,47.56],[15.901,47.467],[15.773,47.409],[15.522,47.278],[15.405,47.2],[15.326,47.128],[15.297,47.059],[15.301,46.981],[15.373,46.647],[15.368,46.527],[15.315,46.432]]]}},{"type":"Feature","bbox":[56.220103,51.566779,66.909679,68.357611],"properties":{"name":"URAL MOUNTAINS","scalerank":1,"min_label":2},"geometry":{"type":"Polygon","coordinates":[[[57.755,51.7],[57.379,51.567],[57.018,51.607],[56.694,51.773],[56.434,52.04],[56.269,52.382],[56.22,53.103],[56.407,53.788],[56.697,54.371],[56.957,54.784],[57.13,55.241],[57.604,57.598],[57.646,58.166],[57.66,59.364],[57.743,59.97],[57.934,60.609],[58.177,61.219],[58.418,61.738],[58.571,62.255],[58.617,62.833],[58.573,63.789],[58.624,64.108],[58.782,64.431],[59.191,65.082],[59.425,65.356],[59.746,65.532],[60,65.595],[60,63.506],[59.939,63.11],[59.865,62.16],[59.853,61.252],[59.792,60.755],[59.519,59.815],[59.535,59.464],[59.88,58.014],[60,57.635],[60,55.221],[59.66,54.8],[58.727,53.994],[58.525,53.579],[58.463,53.16],[58.46,52.761],[58.36,52.367],[58.104,51.99],[57.755,51.7]]]}},{"type":"Feature","bbox":[37.206693,40.370734,49.463512,45.098639],"properties":{"name":"CAUCASUS MTS.","scalerank":1,"min_label":2},"geometry":{"type":"Polygon","coordinates":[[[37.984,44.988],[38.131,44.993],[38.447,45.024],[39.507,45.064],[40.003,45.029],[40.373,45.028],[40.491,45.011],[40.607,44.973],[40.931,44.815],[41.164,44.744],[41.237,44.708],[41.413,44.561],[41.476,44.518],[41.563,44.474],[42.322,44.17],[42.559,44.093],[42.812,44.042],[43.47,43.987],[44.129,43.856],[44.248,43.819],[44.363,43.769],[44.711,43.583],[44.782,43.532],[44.908,43.42],[44.979,43.369],[45.062,43.325],[45.304,43.276],[45.519,43.321],[45.731,43.397],[45.967,43.444],[46.163,43.416],[46.551,43.28],[46.743,43.267],[46.91,43.268],[47.044,43.215],[47.144,43.107],[47.21,42.942],[47.234,42.698],[47.262,42.629],[47.333,42.568],[47.434,42.521],[47.631,42.454],[47.739,42.407],[48.21,42.153],[48.291,42.096],[48.384,41.953],[48.555,41.855],[48.666,41.679],[48.939,41.435],[49.014,41.347],[49.17,41.13],[49.226,41.026],[49.315,40.929],[49.418,40.742],[49.462,40.558],[49.39,40.415],[49.248,40.371],[49.083,40.376],[48.917,40.411],[48.775,40.453],[48.599,40.517],[47.485,41.036],[47.29,41.149],[46.91,41.401],[46.706,41.505],[46.495,41.561],[46.388,41.567],[46.063,41.56],[45.947,41.571],[45.839,41.595],[45.621,41.676],[45.425,41.775],[45.228,41.889],[45.028,41.986],[44.824,42.036],[44.672,42.052],[44.527,42.081],[44.388,42.125],[44.123,42.239],[43.989,42.261],[42.971,42.264],[42.869,42.276],[42.771,42.3],[42.476,42.413],[42.376,42.433],[41.731,42.471],[41.605,42.501],[41.55,42.532],[41.522,42.561],[41.489,42.659],[41.419,42.738],[41.396,42.745],[41.34,42.797],[40.579,43.212],[40.44,43.273],[40.039,43.422],[39.945,43.469],[39.842,43.496],[39.618,43.655],[39.407,43.843],[39.188,44.011],[38.989,44.147],[38.783,44.272],[38.248,44.54],[38.163,44.571],[37.947,44.618],[37.851,44.699],[37.79,44.683],[37.491,44.821],[37.298,44.886],[37.207,44.97],[37.207,45.025],[37.243,45.071],[37.306,45.099],[37.391,45.098],[37.674,45.023],[37.837,44.997],[37.984,44.988]]]}},{"type":"Feature","bbox":[-10.989247,28.311652,10.468516,37.307502],"properties":{"name":"ATLAS MOUNTAINS","scalerank":2,"min_label":3.5},"geometry":{"type":"Polygon","coordinates":[[[10.442,36.686],[10.469,36.329],[9.966,35.879],[9.939,35.402],[9.953,34.715],[9.992,34.159],[9.595,34.119],[9.291,34.066],[8.656,34.133],[8.167,34.265],[7.73,34.45],[7.042,34.847],[6.526,34.926],[5.64,34.82],[5.256,34.794],[4.687,34.648],[3.907,34.318],[3.166,34.106],[2.993,34],[-6.837,34],[-6.809,34.04],[-6.624,34.106],[-6.28,34.093],[-5.605,34.41],[-5.949,34.939],[-5.869,35.336],[-5.882,35.793],[-5.623,35.829],[-5.522,35.862],[-5.469,35.891],[-5.393,35.905],[-5.338,35.809],[-5.338,35.745],[-5.253,35.615],[-5.19,35.552],[-5.142,35.469],[-5.063,35.438],[-4.837,35.281],[-4.628,35.206],[-4.33,35.161],[-3.982,35.243],[-3.788,35.245],[-3.744,35.261],[-3.7,35.257],[-3.663,35.265],[-3.591,35.228],[-3.395,35.212],[-3.206,35.239],[-3.063,35.317],[-3.004,35.376],[-2.915,35.264],[-2.84,35.128],[-2.731,35.135],[-2.637,35.113],[-2.424,35.123],[-2.018,35.085],[-1.913,35.094],[-1.674,35.183],[-1.484,35.303],[-1.336,35.364],[-1.3,35.401],[-1.266,35.416],[-1.171,35.52],[-1.088,35.579],[-0.917,35.668],[-0.426,35.862],[-0.351,35.863],[-0.189,35.819],[-0.048,35.833],[0.048,35.901],[0.152,36.063],[0.307,36.159],[0.683,36.319],[0.791,36.357],[0.972,36.444],[1.257,36.52],[1.975,36.568],[2.343,36.61],[2.593,36.601],[2.747,36.685],[3.24,36.79],[3.521,36.795],[3.779,36.896],[4.758,36.896],[4.863,36.867],[5.006,36.801],[5.196,36.677],[5.295,36.648],[5.425,36.675],[5.687,36.784],[5.944,36.831],[5.966,36.845],[6.065,36.864],[6.249,36.938],[6.328,37.046],[6.338,37.049],[6.564,37.014],[6.576,37.003],[6.928,36.919],[7.143,36.943],[7.238,36.969],[7.219,37.039],[7.254,37.043],[7.551,37.019],[7.608,37],[7.792,36.88],[7.91,36.856],[7.999,36.878],[8.021,36.871],[8.175,36.913],[8.577,36.937],[8.824,36.998],[8.959,37.089],[9,37.096],[9.675,37.308],[9.827,37.283],[9.784,37.211],[9.83,37.135],[9.896,37.182],[9.879,37.213],[9.876,37.254],[9.984,37.258],[10.085,37.241],[10.192,37.109],[10.189,37.034],[10.334,36.865],[10.293,36.781],[10.412,36.732],[10.418,36.735],[10.442,36.686]]]}},{"type":"Feature","bbox":[-2.350575,31.837226,4.859386,35.673712],"properties":{"name":"ATLAS SAHARIEN","scalerank":3,"min_label":5},"geometry":{"type":"MultiPolygon","coordinates":[[[[1.124,34],[1.401,34],[1.433,34.152],[1.175,34.066],[1.124,34]]],[[[1.541,34],[3.002,34],[3.159,34.099],[3.622,34.232],[3.999,34.357],[4.191,34.496],[4.548,34.715],[4.859,34.893],[4.787,35.145],[4.595,35.316],[4.548,35.515],[4.244,35.674],[3.98,35.608],[3.649,35.31],[3.206,35.072],[2.782,34.807],[2.326,34.701],[1.777,34.291],[1.618,34.033],[1.541,34]]]]}},{"type":"Feature","bbox":[48.184947,35.375067,55.14857,37.853278],"properties":{"name":"ELBURZ MTS.","scalerank":3,"min_label":4},"geometry":{"type":"Polygon","coordinates":[[[52.007,36.568],[52.669,36.615],[52.825,36.648],[52.966,36.691],[53.254,36.808],[53.424,36.858],[53.594,36.87],[53.726,36.862],[53.679,36.853],[53.769,36.818],[53.906,36.813],[53.97,36.818],[54.016,36.85],[54.14,36.856],[54.744,36.948],[54.929,36.958],[55.065,36.912],[55.141,36.797],[55.149,36.602],[55.102,36.449],[55.017,36.362],[54.899,36.31],[54.109,36.037],[53.89,35.974],[53.654,35.922],[53.549,35.884],[53.451,35.822],[53.33,35.702],[53.215,35.572],[53.091,35.46],[52.944,35.394],[52.839,35.38],[52.593,35.38],[52.49,35.393],[52.361,35.44],[52.11,35.58],[51.983,35.633],[51.561,35.732],[51.436,35.782],[51.331,35.848],[51.137,35.996],[51.032,36.055],[50.886,36.113],[50.423,36.259],[50.052,36.417],[49.335,36.788],[48.96,36.939],[48.597,37.035],[48.386,37.121],[48.235,37.253],[48.185,37.426],[48.28,37.634],[48.446,37.791],[48.584,37.853],[48.732,37.848],[48.895,37.766],[49.342,37.469],[49.5,37.388],[49.67,37.325],[50.003,37.23],[50.758,36.851],[51.37,36.651],[52.007,36.568]]]}},{"type":"Feature","bbox":[5.587657,58.518744,24.445689,70.062873],"properties":{"name":"KJØLEN MOUNTAINS","scalerank":3,"min_label":4},"geometry":{"type":"Polygon","coordinates":[[[7.267,58.519],[6.362,58.635],[6.108,58.871],[6.137,58.875],[6.214,58.945],[6.363,59.001],[6.321,59.016],[6.099,58.952],[6.017,58.988],[5.931,59.037],[5.9,59.065],[5.89,59.099],[5.949,59.135],[5.969,59.186],[5.937,59.234],[5.952,59.299],[6.051,59.368],[6.199,59.438],[6.306,59.506],[6.415,59.547],[6.404,59.561],[6.279,59.535],[6.159,59.49],[6.017,59.414],[5.818,59.348],[5.727,59.667],[5.772,59.661],[5.867,59.734],[5.991,59.745],[6.217,59.818],[6.212,59.832],[5.967,59.813],[5.834,59.795],[5.763,59.808],[5.73,59.863],[5.784,59.913],[5.996,60.031],[6.07,60.083],[6.112,60.132],[6.105,60.165],[6.141,60.233],[6.349,60.353],[6.518,60.408],[6.574,60.361],[6.526,60.214],[6.527,60.153],[6.661,60.367],[6.72,60.418],[6.787,60.454],[6.95,60.478],[6.996,60.512],[6.806,60.501],[6.347,60.419],[6.153,60.346],[6.102,60.29],[5.967,60.206],[5.904,60.151],[5.877,60.07],[5.801,60.026],[5.699,60.01],[5.671,59.99],[5.656,60.114],[5.689,60.123],[5.65,60.154],[5.588,60.644],[5.588,60.65],[5.648,60.688],[5.59,60.694],[5.611,61.07],[5.984,61.117],[6.293,61.081],[6.418,61.084],[6.61,61.137],[6.778,61.142],[6.903,61.102],[6.972,61.056],[6.981,60.994],[7.039,60.953],[7.078,60.966],[7.047,61.015],[7.04,61.091],[7.545,61.177],[7.604,61.211],[7.404,61.222],[7.347,61.301],[7.453,61.419],[7.443,61.435],[7.331,61.372],[7.276,61.284],[7.298,61.214],[7.276,61.181],[7.174,61.166],[6.943,61.161],[6.794,61.19],[6.657,61.207],[6.61,61.229],[6.626,61.279],[6.6,61.29],[6.543,61.245],[6.493,61.155],[6.383,61.134],[6.083,61.167],[5.647,61.148],[5.615,61.14],[5.629,61.404],[5.975,61.795],[6.016,61.788],[6.467,61.807],[6.731,61.87],[6.682,61.887],[6.396,61.851],[6.131,61.852],[6.039,61.866],[6.052,61.881],[7.583,62.551],[7.653,62.564],[7.691,62.586],[7.67,62.589],[7.988,62.728],[8.096,62.732],[8.061,62.759],[8.429,62.92],[8.623,62.846],[8.609,62.881],[8.494,62.949],[9.572,63.42],[9.798,63.55],[9.892,63.492],[9.936,63.479],[9.979,63.395],[10.021,63.391],[10.081,63.433],[10.189,63.455],[10.34,63.469],[10.591,63.447],[10.704,63.464],[10.76,63.461],[10.707,63.536],[10.674,63.558],[10.725,63.625],[10.779,63.651],[10.953,63.698],[11.118,63.719],[11.226,63.764],[11.371,63.805],[11.308,63.876],[11.214,63.878],[11.176,63.899],[11.295,63.948],[11.458,64.003],[11.429,64.025],[11.307,64.049],[11.214,64.031],[11.075,63.988],[10.914,63.921],[10.967,63.902],[11.047,63.845],[10.935,63.77],[10.339,63.571],[10.055,63.513],[9.924,63.522],[9.893,63.576],[9.871,63.591],[10.516,63.96],[12.082,65.155],[12.16,65.179],[12.227,65.145],[12.307,65.086],[12.508,65.099],[12.738,65.214],[12.916,65.339],[12.82,65.317],[12.715,65.266],[12.512,65.195],[12.418,65.184],[12.364,65.193],[12.334,65.241],[12.263,65.256],[12.2,65.246],[13.007,65.949],[13.033,65.956],[13.026,65.965],[13.253,66.164],[13.387,66.183],[13.674,66.18],[13.76,66.221],[13.916,66.247],[14.034,66.298],[13.973,66.32],[13.681,66.274],[13.499,66.252],[13.416,66.253],[13.335,66.236],[14.106,66.913],[14.424,67.149],[14.473,67.143],[14.601,67.174],[14.776,67.194],[15.416,67.202],[15.435,67.247],[15.3,67.257],[14.585,67.267],[14.994,67.57],[15.121,67.555],[15.289,67.483],[15.409,67.474],[15.465,67.451],[15.553,67.352],[15.594,67.349],[15.576,67.444],[15.692,67.521],[15.661,67.543],[15.487,67.515],[15.354,67.544],[15.249,67.602],[15.219,67.655],[15.284,67.708],[15.346,67.734],[15.315,67.757],[16.081,68.149],[16.121,68.027],[16.261,67.887],[16.312,67.881],[16.259,68.001],[16.309,68.036],[16.372,68.062],[16.392,68.092],[16.319,68.102],[16.26,68.145],[16.215,68.217],[16.339,68.281],[16.649,68.4],[16.865,68.355],[16.951,68.355],[17.094,68.368],[17.336,68.41],[17.479,68.426],[17.553,68.426],[17.571,68.447],[17.502,68.461],[17.48,68.474],[17.426,68.482],[17.202,68.459],[16.815,68.464],[17.846,68.86],[20.335,69.647],[20.338,69.617],[20.277,69.536],[20.044,69.356],[20.054,69.333],[20.107,69.341],[20.198,69.371],[20.487,69.542],[20.739,69.521],[20.743,69.535],[20.662,69.585],[20.563,69.633],[20.533,69.692],[20.534,69.71],[20.779,69.787],[21.564,69.95],[21.78,69.887],[21.932,69.815],[21.975,69.835],[21.893,70.004],[21.879,70.014],[22.861,70.063],[23.147,70.046],[23.258,69.993],[23.354,69.983],[23.4,70.02],[23.374,70.032],[23.847,70.004],[24.446,69.872],[24.282,69.7],[21.133,68.749],[19.653,68.143],[18.153,67.321],[16.825,66.367],[12.875,62.996],[11.719,62.127],[10.106,61.085],[9.385,60.69],[8.79,60.186],[7.741,58.815],[7.267,58.519]]]}},{"type":"Feature","bbox":[17.483409,44.603522,27.202037,50.067206],"properties":{"name":"CARPATHIAN MOUNTAINS","scalerank":3,"min_label":4},"geometry":{"type":"Polygon","coordinates":[[[20.746,49.94],[20.989,49.937],[21.696,49.988],[22.175,49.941],[22.573,49.837],[22.958,49.679],[23.689,49.287],[24.434,48.807],[24.818,48.597],[25.227,48.474],[25.391,48.438],[25.541,48.385],[25.836,48.25],[26.034,48.141],[26.211,48.008],[26.373,47.851],[26.527,47.673],[26.729,47.402],[26.909,47.11],[27.055,46.801],[27.156,46.481],[27.202,46.103],[27.153,45.746],[26.991,45.44],[26.697,45.218],[26.363,45.103],[26.009,45.044],[25.648,45.025],[25.048,45.026],[23.877,44.863],[23.666,44.821],[23.09,44.65],[22.73,44.604],[22.369,44.617],[22.004,44.691],[21.724,44.846],[21.604,45.081],[21.579,45.376],[21.585,45.711],[21.635,46.044],[21.752,46.4],[21.996,46.993],[22.13,47.205],[22.355,47.406],[22.637,47.573],[23.185,47.768],[23.313,47.867],[23.359,47.991],[23.355,48.146],[23.251,48.325],[23.008,48.496],[22.669,48.633],[22.278,48.71],[21.966,48.708],[21.781,48.637],[21.457,48.351],[21.251,48.232],[21.024,48.154],[20.788,48.104],[20.552,48.069],[20.091,47.969],[19.855,47.947],[19.637,48],[19.392,48.151],[19.274,48.213],[19.126,48.255],[18.601,48.327],[18.349,48.392],[18.112,48.514],[17.73,48.765],[17.553,48.933],[17.483,49.121],[17.594,49.546],[17.868,49.79],[18.277,49.925],[18.791,50.018],[19.31,50.067],[19.768,50.047],[20.611,49.941],[20.746,49.94]]]}},{"type":"Feature","bbox":[8.940318,39.900519,16.197154,45.069709],"properties":{"name":"APPENNINI","scalerank":3,"min_label":4},"geometry":{"type":"Polygon","coordinates":[[[16.035,39.911],[15.984,39.901],[15.939,39.907],[15.898,39.923],[15.739,40.017],[15.532,40.186],[15.404,40.269],[15.367,40.304],[15.044,40.688],[14.864,40.867],[14.662,41.012],[14.448,41.115],[14.191,41.217],[13.931,41.298],[13.515,41.391],[13.313,41.495],[13.111,41.647],[12.916,41.845],[12.836,41.954],[12.769,42.072],[12.663,42.322],[12.622,42.46],[12.557,42.744],[12.509,42.877],[12.488,42.914],[12.231,43.21],[12.117,43.36],[12.056,43.428],[11.979,43.487],[11.41,43.818],[11.202,43.917],[10.985,43.988],[10.386,44.06],[9.992,44.167],[9.344,44.398],[9.143,44.508],[9.005,44.658],[8.94,44.813],[8.96,44.941],[9.185,45.07],[9.509,45.02],[12.334,44.028],[12.859,43.75],[13.238,43.424],[13.496,43.066],[13.657,42.692],[13.839,42.372],[14.111,42.146],[14.421,41.985],[14.715,41.858],[15.037,41.655],[15.419,41.334],[15.787,40.971],[16.064,40.641],[16.156,40.508],[16.186,40.438],[16.197,40.358],[16.196,40.274],[16.189,40.189],[16.172,40.107],[16.138,40.03],[16.075,39.941],[16.035,39.911]]]}},{"type":"Feature","bbox":[-2.286183,41.955024,3.180308,43.474677],"properties":{"name":"PYRENEES","scalerank":3,"min_label":4},"geometry":{"type":"Polygon","coordinates":[[[-0.009,43.308],[2.014,42.955],[2.333,42.872],[2.624,42.852],[2.849,42.794],[3.021,42.673],[3.126,42.497],[3.159,42.211],[3.15,42.162],[3.18,42.134],[3.174,42.063],[3.136,42.008],[3.077,41.971],[3.01,41.955],[2.865,41.955],[1.313,42.145],[1.081,42.193],[0.862,42.265],[0.447,42.369],[-1.163,42.628],[-1.355,42.69],[-1.543,42.768],[-1.725,42.857],[-1.901,42.956],[-2.062,43.059],[-2.138,43.118],[-2.263,43.242],[-2.283,43.277],[-2.286,43.313],[-2.282,43.325],[-2.197,43.322],[-1.991,43.345],[-1.829,43.401],[-1.631,43.438],[-1.613,43.454],[-1.588,43.46],[-1.481,43.475],[-1.391,43.473],[-1.128,43.414],[-0.009,43.308]]]}},{"type":"Feature","bbox":[41.883678,39.026435,47.222545,42.246283],"properties":{"name":"Lesser Caucasus","scalerank":4,"min_label":5.3},"geometry":{"type":"Polygon","coordinates":[[[45.286,41.348],[45.592,41.203],[46.44,40.693],[46.546,40.608],[46.699,40.417],[46.789,40.325],[47.005,40.148],[47.115,40.038],[47.183,39.932],[47.19,39.875],[47.175,39.671],[47.223,39.329],[47.212,39.23],[47.144,39.128],[47.043,39.078],[46.925,39.06],[46.571,39.027],[46.456,39.026],[46.333,39.054],[46.159,39.131],[45.992,39.229],[45.673,39.443],[45.324,39.641],[45.216,39.718],[45.133,39.805],[45.067,39.905],[44.871,40.251],[44.779,40.368],[44.665,40.448],[44.515,40.479],[44.33,40.463],[44.268,40.472],[44.07,40.587],[44.03,40.622],[43.998,40.736],[43.994,40.859],[43.975,40.976],[43.897,41.07],[43.836,41.093],[43.767,41.1],[43.626,41.099],[43.33,41.122],[43.231,41.119],[43.02,41.141],[42.611,41.293],[42.395,41.329],[42.146,41.315],[42.076,41.328],[41.947,41.427],[41.884,41.571],[41.884,41.732],[41.943,41.881],[42.023,41.974],[42.129,42.049],[42.259,42.106],[42.411,42.141],[42.71,42.157],[42.964,42.23],[43.048,42.246],[43.198,42.246],[43.344,42.217],[43.611,42.122],[43.763,42.081],[44.226,42.049],[44.368,42.001],[44.487,41.908],[44.585,41.789],[44.666,41.659],[44.787,41.52],[44.931,41.452],[45.099,41.409],[45.286,41.348]]]}},{"type":"Feature","bbox":[34.05128,40.143256,42.026744,41.919867],"properties":{"name":"PONTIC MOUNTAINS","scalerank":4,"min_label":5.3},"geometry":{"type":"Polygon","coordinates":[[[35.653,41.626],[35.713,41.64],[35.814,41.689],[35.85,41.687],[35.908,41.651],[35.941,41.621],[36.023,41.519],[36.149,41.404],[36.275,41.322],[36.405,41.275],[36.51,41.263],[36.854,41.254],[36.982,41.233],[37.047,41.208],[37.066,41.184],[37.135,41.171],[37.225,41.134],[37.354,41.101],[37.615,41.065],[37.915,40.98],[38.082,40.974],[38.381,40.925],[38.557,40.937],[38.683,40.971],[38.88,40.955],[38.947,40.963],[39.147,41.037],[39.236,41.051],[39.442,41.061],[39.59,41.053],[39.808,40.983],[39.911,40.966],[40,40.977],[40.128,40.943],[40.265,40.961],[40.327,40.983],[40.458,40.976],[40.505,40.987],[40.704,41.081],[40.819,41.113],[41.174,41.165],[41.291,41.195],[41.399,41.242],[41.491,41.315],[41.54,41.381],[41.626,41.536],[41.718,41.667],[41.772,41.723],[41.805,41.746],[41.842,41.756],[41.881,41.751],[41.923,41.727],[41.967,41.673],[42.004,41.596],[42.026,41.514],[42.027,41.446],[41.902,41.167],[41.579,40.801],[41.002,40.449],[40.118,40.213],[39.087,40.143],[38.136,40.2],[37.308,40.345],[35.593,40.896],[35.057,41.021],[34.462,41.102],[34.263,41.145],[34.112,41.236],[34.051,41.378],[34.122,41.57],[34.309,41.767],[34.535,41.881],[34.788,41.92],[35.058,41.894],[35.127,41.872],[35.149,41.861],[35.209,41.794],[35.298,41.729],[35.558,41.634],[35.58,41.639],[35.653,41.626]]]}},{"type":"Feature","bbox":[22.327403,42.505988,27.430919,43.813544],"properties":{"name":"Balkan Mts.","scalerank":4,"min_label":5.3},"geometry":{"type":"Polygon","coordinates":[[[23.585,43.506],[25.222,43.373],[25.688,43.403],[26.054,43.466],[26.431,43.499],[26.769,43.504],[27.021,43.48],[27.197,43.449],[27.332,43.403],[27.414,43.3],[27.431,43.096],[27.301,42.911],[26.891,42.693],[26.142,42.529],[24.995,42.506],[23.832,42.626],[23.297,42.739],[22.919,42.891],[22.654,43.132],[22.438,43.439],[22.327,43.702],[22.38,43.814],[22.597,43.769],[23.253,43.565],[23.585,43.506]]]}},{"type":"Feature","bbox":[13.595714,41.802907,21.643809,46.220038],"properties":{"name":"Dinaric Alps","scalerank":4,"min_label":5.3},"geometry":{"type":"MultiPolygon","coordinates":[[[[16.564,45.164],[17.144,45.049],[19.508,44.763],[19.695,44.717],[20.061,44.6],[20.554,44.48],[20.712,44.421],[20.782,44.383],[20.84,44.339],[20.991,44.172],[21.164,44.046],[21.272,43.945],[21.377,43.811],[21.468,43.666],[21.538,43.531],[21.589,43.401],[21.631,43.245],[21.644,43.088],[21.611,42.953],[21.554,42.878],[21.472,42.806],[21.223,42.616],[21.174,42.591],[21.128,42.584],[21.047,42.619],[20.891,42.734],[20.8,42.768],[20.656,42.767],[20.54,42.725],[19.986,42.322],[19.812,42.171],[19.656,42.071],[19.606,42.003],[19.597,41.959],[19.616,41.854],[19.601,41.825],[19.553,41.803],[19.468,41.856],[19.342,41.869],[19.186,41.949],[19.122,42.06],[19.033,42.135],[18.996,42.231],[18.854,42.325],[18.63,42.417],[18.646,42.443],[18.592,42.444],[18.577,42.438],[18.556,42.447],[18.25,42.605],[17.585,42.899],[17.724,42.851],[17.668,42.897],[17.537,42.962],[17.33,43.115],[17.129,43.211],[16.903,43.392],[16.6,43.464],[16.394,43.543],[16.269,43.531],[16.131,43.506],[16.076,43.506],[16.025,43.524],[15.946,43.587],[15.942,43.657],[15.821,43.736],[15.675,43.802],[15.41,44.052],[15.378,44.114],[15.368,44.187],[15.373,44.288],[15.471,44.272],[15.366,44.336],[15.36,44.375],[15.3,44.436],[15.115,44.525],[15.016,44.594],[14.92,44.686],[14.894,44.72],[14.885,44.818],[14.907,44.971],[14.855,45.081],[14.632,45.223],[14.55,45.298],[14.329,45.351],[14.13,45.349],[14.042,45.383],[13.957,45.432],[13.854,45.51],[13.788,45.597],[13.774,45.621],[13.783,45.627],[13.754,45.654],[13.667,45.783],[13.596,45.994],[13.719,46.145],[13.939,46.22],[14.156,46.202],[14.989,45.913],[15.204,45.822],[15.987,45.401],[16.564,45.164]]],[[[16.774,43.359],[16.834,43.351],[16.891,43.315],[16.878,43.302],[16.774,43.359]]],[[[14.776,45.001],[14.771,45.026],[14.81,44.977],[14.779,44.972],[14.776,45.001]]]]}},{"type":"Feature","bbox":[-7.411549,42.681586,-1.907582,43.427985],"properties":{"name":"Cord. Cantábrica","scalerank":4,"min_label":5.3},"geometry":{"type":"Polygon","coordinates":[[[-3.076,43.263],[-2.88,43.256],[-2.157,43.271],[-2.008,43.237],[-1.908,43.135],[-1.974,42.87],[-2.359,42.772],[-5.514,42.798],[-6.401,42.682],[-6.692,42.686],[-6.988,42.737],[-7.068,42.76],[-7.245,42.833],[-7.323,42.882],[-7.383,42.943],[-7.412,43.013],[-7.398,43.093],[-7.331,43.182],[-7.153,43.299],[-6.948,43.357],[-5.666,43.428],[-3.47,43.334],[-3.265,43.286],[-3.076,43.263]]]}},{"type":"Feature","bbox":[-4.713673,36.831244,-1.970937,37.920233],"properties":{"name":"S. Nevada","scalerank":4,"min_label":5.3},"geometry":{"type":"Polygon","coordinates":[[[-2.942,36.841],[-3.184,36.831],[-3.789,36.864],[-4.456,36.952],[-4.54,36.977],[-4.618,37.013],[-4.678,37.061],[-4.703,37.099],[-4.714,37.143],[-4.709,37.193],[-4.686,37.249],[-4.53,37.435],[-4.321,37.568],[-3.868,37.764],[-3.663,37.831],[-3.4,37.884],[-3.135,37.916],[-2.924,37.92],[-2.757,37.898],[-2.25,37.774],[-2.119,37.731],[-2.021,37.658],[-1.971,37.551],[-1.982,37.407],[-2.033,37.202],[-2.078,37.104],[-2.152,37.022],[-2.274,36.963],[-2.419,36.931],[-2.942,36.841]]]}},{"type":"Feature","bbox":[-7.210256,37.360236,-2.493092,38.836554],"properties":{"name":"Sierra Morena","scalerank":4,"min_label":6},"geometry":{"type":"Polygon","coordinates":[[[-2.908,38.734],[-2.699,38.731],[-2.656,38.724],[-2.578,38.694],[-2.528,38.654],[-2.5,38.597],[-2.493,38.517],[-2.503,38.431],[-2.531,38.365],[-2.581,38.313],[-2.654,38.27],[-2.797,38.204],[-3.145,38.166],[-3.354,38.102],[-3.461,38.084],[-3.561,38.1],[-3.664,38.131],[-4.096,38.167],[-4.209,38.163],[-4.32,38.147],[-4.567,38.082],[-4.707,37.957],[-4.769,37.933],[-5.037,37.893],[-5.762,37.668],[-6.122,37.602],[-6.296,37.559],[-6.606,37.417],[-6.76,37.375],[-6.918,37.36],[-7.074,37.375],[-7.133,37.392],[-7.179,37.417],[-7.206,37.457],[-7.21,37.518],[-7.191,37.592],[-7.157,37.652],[-7.07,37.766],[-6.984,37.906],[-6.941,37.943],[-6.781,38.035],[-6.611,38.119],[-6.436,38.189],[-6.218,38.255],[-6.104,38.312],[-5.85,38.4],[-5.706,38.421],[-5.638,38.418],[-5.497,38.394],[-5.427,38.392],[-5.355,38.411],[-5.261,38.469],[-5.091,38.616],[-4.995,38.668],[-4.874,38.699],[-4.15,38.795],[-4.04,38.821],[-3.923,38.837],[-3.804,38.83],[-3.567,38.796],[-3.228,38.778],[-2.908,38.734]]]}}],"metadata":{"source":"Natural Earth","sourceUrl":"https://github.com/nvkelso/natural-earth-vector","license":"Public Domain (Natural Earth)","commit":"ca96624a56bd078437bca8184e78163e5039ad19","borderPrecision":"現代地形の簡略化（歴史的境界ではない）"}}