{"type":"FeatureCollection","features":[{"type":"Feature","properties":{"name":"Jebel Tidirhine","elevation":2456,"scalerank":6},"bbox":[-4.511811,34.830205,-4.511811,34.830205],"geometry":{"type":"Point","coordinates":[-4.512,34.83]}},{"type":"Feature","properties":{"name":"Lalla Khedidja","elevation":2308,"scalerank":6},"bbox":[4.229088,36.457097,4.229088,36.457097],"geometry":{"type":"Point","coordinates":[4.229,36.457]}},{"type":"Feature","properties":{"name":"Djebel Chelia","elevation":2326,"scalerank":6},"bbox":[6.666478,35.333363,6.666478,35.333363],"geometry":{"type":"Point","coordinates":[6.666,35.333]}},{"type":"Feature","properties":{"name":"Sabalon Kuh","elevation":4814,"scalerank":7},"bbox":[47.822021,38.255088,47.822021,38.255088],"geometry":{"type":"Point","coordinates":[47.822,38.255]}},{"type":"Feature","properties":{"name":"Gora Konzhakovskiy Kamen","elevation":1569,"scalerank":6},"bbox":[59.134491,59.632775,59.134491,59.632775],"geometry":{"type":"Point","coordinates":[59.134,59.633]}},{"type":"Feature","properties":{"name":"Mount Damavand","elevation":5610,"scalerank":6},"bbox":[52.109022,35.955192,52.109022,35.955192],"geometry":{"type":"Point","coordinates":[52.109,35.955]}},{"type":"Feature","properties":{"name":"Mount Ararat","elevation":5137,"scalerank":9},"bbox":[44.299957,39.700097,44.299957,39.700097],"geometry":{"type":"Point","coordinates":[44.3,39.7]}},{"type":"Feature","properties":{"name":"Gora Shkhara","elevation":5200,"scalerank":9},"bbox":[43.100004,43.000008,43.100004,43.000008],"geometry":{"type":"Point","coordinates":[43.1,43]}},{"type":"Feature","properties":{"name":"Gora Yamantau","elevation":1638,"scalerank":6},"bbox":[58.117188,54.243488,58.117188,54.243488],"geometry":{"type":"Point","coordinates":[58.117,54.243]}},{"type":"Feature","properties":{"name":"Matterhorn","elevation":4478,"scalerank":6},"bbox":[7.729584,45.938172,7.729584,45.938172],"geometry":{"type":"Point","coordinates":[7.73,45.938]}},{"type":"Feature","properties":{"name":"Kebnekaise","elevation":2111,"scalerank":6},"bbox":[18.504522,67.90602,18.504522,67.90602],"geometry":{"type":"Point","coordinates":[18.505,67.906]}},{"type":"Feature","properties":{"name":"Oksskolten","elevation":1916,"scalerank":6},"bbox":[14.337404,66.024499,14.337404,66.024499],"geometry":{"type":"Point","coordinates":[14.337,66.024]}},{"type":"Feature","properties":{"name":"Galdhpiggen","elevation":2469,"scalerank":6},"bbox":[8.312677,61.63648,8.312677,61.63648],"geometry":{"type":"Point","coordinates":[8.313,61.636]}},{"type":"Feature","properties":{"name":"Mount Olympus","elevation":2917,"scalerank":6},"bbox":[22.350123,40.083251,22.350123,40.083251],"geometry":{"type":"Point","coordinates":[22.35,40.083]}},{"type":"Feature","properties":{"name":"Musala","elevation":2925,"scalerank":6},"bbox":[23.586833,42.179816,23.586833,42.179816],"geometry":{"type":"Point","coordinates":[23.587,42.18]}},{"type":"Feature","properties":{"name":"Moldoveanu","elevation":2543,"scalerank":6},"bbox":[24.747687,45.608455,24.747687,45.608455],"geometry":{"type":"Point","coordinates":[24.748,45.608]}},{"type":"Feature","properties":{"name":"Grossglockner","elevation":3798,"scalerank":6},"bbox":[12.695325,47.07471,12.695325,47.07471],"geometry":{"type":"Point","coordinates":[12.695,47.075]}},{"type":"Feature","properties":{"name":"Vesuvio","elevation":1281,"scalerank":6},"bbox":[14.433374,40.816722,14.433374,40.816722],"geometry":{"type":"Point","coordinates":[14.433,40.817]}},{"type":"Feature","properties":{"name":"Mont Blanc","elevation":4807,"scalerank":3},"bbox":[6.865043,45.833679,6.865043,45.833679],"geometry":{"type":"Point","coordinates":[6.865,45.834]}},{"type":"Feature","properties":{"name":"Gora Elbrus","elevation":5642,"scalerank":2},"bbox":[42.439198,43.355171,42.439198,43.355171],"geometry":{"type":"Point","coordinates":[42.439,43.355]}},{"type":"Feature","properties":{"name":"Monte Rosa","elevation":4634,"scalerank":9},"bbox":[7.869985,45.94003,7.869985,45.94003],"geometry":{"type":"Point","coordinates":[7.87,45.94]}},{"type":"Feature","properties":{"name":"Ben Nevis","elevation":1343,"scalerank":6},"bbox":[-5.004992,56.797003,-5.004992,56.797003],"geometry":{"type":"Point","coordinates":[-5.005,56.797]}},{"type":"Feature","properties":{"name":"Snowdon","elevation":1085,"scalerank":6},"bbox":[-4.094808,53.072536,-4.094808,53.072536],"geometry":{"type":"Point","coordinates":[-4.095,53.073]}},{"type":"Feature","properties":{"name":"Carrauntoohil","elevation":1038,"scalerank":6},"bbox":[-9.742722,51.998968,-9.742722,51.998968],"geometry":{"type":"Point","coordinates":[-9.743,51.999]}},{"type":"Feature","properties":{"name":"Hvannadalshnkur","elevation":2110,"scalerank":6},"bbox":[-16.650934,64.03889,-16.650934,64.03889],"geometry":{"type":"Point","coordinates":[-16.651,64.039]}},{"type":"Feature","properties":{"name":"Monte Etna","elevation":3322,"scalerank":6},"bbox":[14.99514,37.755121,14.99514,37.755121],"geometry":{"type":"Point","coordinates":[14.995,37.755]}}],"metadata":{"source":"Natural Earth","sourceUrl":"https://github.com/nvkelso/natural-earth-vector","license":"Public Domain (Natural Earth)","commit":"ca96624a56bd078437bca8184e78163e5039ad19"}}