{"type":"FeatureCollection","features":[{"type":"Feature","bbox":[49.248085,55.113019,51.937134,55.701066],"properties":{"name":"Kama","scalerank":6},"geometry":{"type":"LineString","coordinates":[[51.937,55.701],[51.881,55.686],[51.82,55.697],[51.748,55.694],[51.663,55.608],[51.579,55.599],[51.513,55.583],[51.509,55.529],[51.486,55.496],[51.369,55.468],[51.213,55.503],[51.079,55.468],[50.834,55.456],[50.688,55.42],[50.078,55.381],[49.822,55.335],[49.532,55.261],[49.382,55.172],[49.248,55.113]]}},{"type":"Feature","bbox":[51.935653,55.694892,56.685791,60.500116],"properties":{"name":"Kama","scalerank":6},"geometry":{"type":"LineString","coordinates":[[53.694,58.206],[53.677,58.273],[53.626,58.357],[53.552,58.394],[53.429,58.435],[53.439,58.485],[53.471,58.511],[53.492,58.587],[53.381,58.672],[53.3,58.78],[53.247,58.825],[53.201,58.93],[53.239,59.011],[53.219,59.099],[53.15,59.128],[53.003,59.209],[52.964,59.282],[52.866,59.402],[52.815,59.494],[52.689,59.582],[52.615,59.608],[52.609,59.68],[52.639,59.71],[52.687,59.734],[52.767,59.724],[52.803,59.758],[52.866,59.798],[52.92,59.896],[52.975,59.956],[53.221,60.015],[53.322,60.052],[53.401,60.056],[53.451,60.074],[53.492,60.124],[53.526,60.139],[53.595,60.138],[53.825,60.21],[53.986,60.323],[54.038,60.337],[54.105,60.336],[54.155,60.357],[54.267,60.361],[54.313,60.337],[54.391,60.277],[54.521,60.239],[54.849,60.245],[55.035,60.226],[55.146,60.203],[55.25,60.221],[55.571,60.311],[55.715,60.485],[55.873,60.5],[55.979,60.459],[56.11,60.424],[56.137,60.392],[56.165,60.334],[56.15,60.234],[56.168,60.155],[56.236,60.159],[56.277,60.14],[56.299,60.052],[56.294,60.001],[56.311,59.945],[56.385,59.917],[56.471,59.85],[56.55,59.811],[56.591,59.766],[56.661,59.625],[56.683,59.562],[56.686,59.452],[56.678,59.389],[56.575,59.333],[56.427,59.304],[56.24,59.25],[56.209,59.197],[56.179,59.098],[56.224,58.997],[56.268,58.81],[56.145,58.696],[56.089,58.655],[56.095,58.572],[56.177,58.554],[56.251,58.522],[56.393,58.443],[56.341,58.261],[56.331,58.11],[56.322,58.078],[56.308,58.059],[56.201,58.028],[56.066,58.03],[55.891,57.949],[55.832,57.946],[55.794,58.022],[55.726,58.076],[55.661,58.069],[55.633,58.015],[55.475,57.896],[55.247,57.874],[55.212,57.832],[55.267,57.796],[55.347,57.763],[55.449,57.59],[55.525,57.577],[55.544,57.532],[55.456,57.33],[55.355,57.313],[55.248,57.306],[55.136,57.342],[55.081,57.341],[55.043,57.305],[54.979,57.114],[54.922,57.091],[54.85,57.086],[54.781,57.055],[54.67,57.042],[54.539,57.055],[54.453,57.042],[54.379,56.998],[54.313,56.984],[54.222,56.979],[54.167,56.942],[54.136,56.82],[54.088,56.771],[53.996,56.736],[53.949,56.74],[53.917,56.777],[53.91,56.812],[53.885,56.828],[53.831,56.839],[53.797,56.834],[53.746,56.805],[53.752,56.759],[53.747,56.715],[53.757,56.674],[53.781,56.654],[53.792,56.613],[53.8,56.528],[53.814,56.49],[53.842,56.458],[53.866,56.401],[54.035,56.343],[54.102,56.278],[54.157,56.24],[54.185,56.188],[54.099,56.144],[54.047,56.058],[54.006,56.029],[53.949,56.022],[53.888,56.032],[53.834,56.051],[53.774,56.051],[53.643,55.982],[53.565,55.97],[53.543,55.959],[53.536,55.911],[53.499,55.893],[53.286,55.852],[53.063,55.87],[52.917,55.926],[52.842,55.93],[52.708,55.965],[52.609,55.928],[52.53,55.863],[52.468,55.852],[52.332,55.871],[52.306,55.842],[52.316,55.803],[52.352,55.729],[52.335,55.705],[52.277,55.696],[52.094,55.695],[52.023,55.722],[51.936,55.701]]}},{"type":"Feature","bbox":[38.065822,35.862643,38.561192,36.342485],"properties":{"name":"Euphrates","scalerank":3},"geometry":{"type":"LineString","coordinates":[[38.561,35.863],[38.365,35.903],[38.246,35.951],[38.139,36.02],[38.079,36.074],[38.066,36.114],[38.092,36.167],[38.157,36.232],[38.188,36.284],[38.184,36.342]]}},{"type":"Feature","bbox":[13.211731,60.121679,17.416023,61.663472],"properties":{"name":"Dalälven","scalerank":6},"geometry":{"type":"MultiLineString","coordinates":[[[16.434,60.156],[16.323,60.122]],[[17.416,60.51],[17.389,60.461],[17.246,60.402],[16.978,60.315],[16.832,60.252],[16.807,60.211],[16.721,60.184],[16.499,60.163]],[[14.551,60.998],[14.632,60.922],[14.729,60.881],[14.868,60.848],[14.946,60.806],[14.973,60.728]],[[13.717,61.414],[13.672,61.468],[13.591,61.502],[13.459,61.533],[13.348,61.577],[13.212,61.663]]]}},{"type":"Feature","bbox":[30.258856,46.101166,30.478326,46.320041],"properties":{"name":"Dniester","scalerank":6},"geometry":{"type":"LineString","coordinates":[[30.478,46.101],[30.311,46.233],[30.259,46.288],[30.269,46.32]]}},{"type":"Feature","bbox":[30.477706,46.83125,35.14879,51.217313],"properties":{"name":"Dnipro","scalerank":4},"geometry":{"type":"MultiLineString","coordinates":[[[33.54,46.831],[33.606,46.869],[33.662,46.957],[33.739,47.05],[33.859,47.149],[33.976,47.307],[33.998,47.411],[34.155,47.49],[34.448,47.542],[34.712,47.553],[34.946,47.521],[35.088,47.528],[35.138,47.573],[35.149,47.657],[35.106,47.842]],[[33.194,49.094],[32.884,49.225],[32.603,49.302],[31.886,49.555]],[[31.44,50],[31.48,49.933],[31.486,49.871],[31.467,49.754]],[[30.508,51.217],[30.478,50.904],[30.479,50.749],[30.515,50.597]]]}},{"type":"Feature","bbox":[42.109709,47.601772,43.984633,49.506643],"properties":{"name":"Don","scalerank":6},"geometry":{"type":"LineString","coordinates":[[42.11,47.602],[42.303,47.661],[42.663,47.794],[42.832,47.838],[42.881,47.885],[43.042,48.186],[43.132,48.294],[43.237,48.389],[43.459,48.539],[43.528,48.614],[43.522,48.653],[43.481,48.699],[43.465,48.737],[43.474,48.769],[43.522,48.821],[43.606,48.892],[43.69,48.929],[43.773,48.931],[43.896,48.968],[43.923,49.01],[43.938,49.072],[43.985,49.136],[43.956,49.186],[43.905,49.204],[43.749,49.207],[43.708,49.25],[43.7,49.328],[43.659,49.402],[43.602,49.486],[43.549,49.507]]}},{"type":"Feature","bbox":[38.739579,38.812825,38.812649,39.078442],"properties":{"name":"Euphrates","scalerank":3},"geometry":{"type":"LineString","coordinates":[[38.768,38.813],[38.813,38.875],[38.74,39.078]]}},{"type":"Feature","bbox":[27.359498,66.466977,27.518558,66.764762],"properties":{"name":"Kemijoki","scalerank":6},"geometry":{"type":"LineString","coordinates":[[27.385,66.765],[27.519,66.668],[27.513,66.621],[27.414,66.592],[27.363,66.55],[27.359,66.467]]}},{"type":"Feature","bbox":[31.042788,59.950992,31.414031,60.234825],"properties":{"name":"Neva","scalerank":5},"geometry":{"type":"LineString","coordinates":[[31.043,59.951],[31.181,59.983],[31.274,60.054],[31.414,60.235]]}},{"type":"Feature","bbox":[8.881143,47.511157,9.554384,47.670682],"properties":{"name":"Rhine","scalerank":4},"geometry":{"type":"MultiLineString","coordinates":[[[9.128,47.671],[8.881,47.656]],[[9.183,47.671],[9.554,47.511]]]}},{"type":"Feature","bbox":[6.1333,46.204596,6.866072,46.437373],"properties":{"name":"Rhône","scalerank":6},"geometry":{"type":"LineString","coordinates":[[6.133,46.205],[6.235,46.333],[6.322,46.394],[6.429,46.431],[6.578,46.437],[6.866,46.403]]}},{"type":"Feature","bbox":[39.053462,59.52523,39.798636,59.868439],"properties":{"name":"Sukhona","scalerank":4},"geometry":{"type":"LineString","coordinates":[[39.053,59.868],[39.5,59.616],[39.686,59.53],[39.799,59.525]]}},{"type":"Feature","bbox":[31.414031,60.234825,32.821129,60.654567],"properties":{"name":"Svir’","scalerank":5},"geometry":{"type":"LineString","coordinates":[[31.414,60.235],[31.595,60.408],[31.798,60.52],[32.086,60.629],[32.356,60.655],[32.611,60.598],[32.821,60.483]]}},{"type":"Feature","bbox":[-5.995572,39.797261,-2.576814,40.724388],"properties":{"name":"Tajo","scalerank":5},"geometry":{"type":"MultiLineString","coordinates":[[[-5.996,39.852],[-5.851,39.807],[-5.656,39.797],[-5.215,39.812]],[[-2.734,40.528],[-2.577,40.724]]]}},{"type":"Feature","bbox":[58.630871,51.695088,58.835096,52.196814],"properties":{"name":"Ural","scalerank":4},"geometry":{"type":"LineString","coordinates":[[58.835,52.197],[58.782,52.071],[58.767,51.976],[58.773,51.87],[58.74,51.786],[58.631,51.695]]}},{"type":"Feature","bbox":[18.810459,49.925041,18.93686,49.931888],"properties":{"name":"Vistula","scalerank":5},"geometry":{"type":"LineString","coordinates":[[18.81,49.925],[18.937,49.932]]}},{"type":"Feature","bbox":[36.374555,50.222309,49.904789,58.287554],"properties":{"name":"Volga","scalerank":3},"geometry":{"type":"MultiLineString","coordinates":[[[45.664,50.222],[45.831,50.357],[45.836,50.457],[45.733,50.567],[45.68,50.647],[45.675,50.696],[45.744,50.742],[45.885,50.782],[45.981,50.824],[46.03,50.866],[46.044,50.925],[46.023,51],[45.968,51.066],[45.879,51.124],[45.836,51.188],[45.837,51.26],[45.87,51.322],[45.935,51.375],[45.971,51.423],[45.979,51.465],[46.033,51.506],[46.131,51.547],[46.218,51.614],[46.294,51.708],[46.365,51.746],[46.477,51.773],[46.566,51.752],[46.68,51.744],[46.775,51.748]],[[49.059,55.483],[49.285,55.234],[49.248,55.113],[49.023,55.036],[48.9,54.91],[48.878,54.736],[48.782,54.617],[48.611,54.554],[48.507,54.489],[48.47,54.422],[48.453,54.344],[48.458,54.257],[48.585,54.135],[48.833,53.978],[48.964,53.827],[48.978,53.681],[49.006,53.579],[49.048,53.522],[49.104,53.483],[49.209,53.461],[49.567,53.467],[49.905,53.457]],[[43.432,56.675],[43.344,56.733],[43.286,56.814],[43.231,56.937],[43.175,57.024],[43.119,57.075],[43.089,57.119],[43.082,57.156],[43.104,57.213],[43.178,57.329],[42.874,57.41],[42.724,57.431],[42.576,57.415]],[[37.151,56.753],[36.882,56.783],[36.736,56.75],[36.624,56.664],[36.52,56.643],[36.375,56.706]],[[37.761,57.291],[37.944,57.312],[38.079,57.382],[38.301,57.572]],[[41.343,57.493],[41.206,57.517],[41.099,57.588],[40.976,57.714],[40.889,57.784],[40.838,57.799],[40.706,57.79],[40.494,57.755],[40.293,57.695],[40.007,57.567]],[[38.437,58.018],[38.326,58.083],[38.319,58.15],[38.408,58.288],[38.704,58.113]]]}},{"type":"Feature","bbox":[11.15687,59.388649,11.202862,59.910814],"properties":{"name":"Vorma","scalerank":6},"geometry":{"type":"MultiLineString","coordinates":[[[11.17,59.389],[11.201,59.451],[11.203,59.498]],[[11.2,59.67],[11.194,59.72],[11.159,59.831],[11.157,59.911]]]}},{"type":"Feature","bbox":[29.596364,60.235703,31.412067,60.716992],"properties":{"name":"Vuoksi","scalerank":6},"geometry":{"type":"MultiLineString","coordinates":[[[30.478,60.574],[30.298,60.654],[30.117,60.676],[29.874,60.669],[29.714,60.678],[29.596,60.717]],[[30.534,60.63],[30.658,60.649],[30.793,60.635],[30.979,60.593],[31.157,60.489],[31.412,60.236]]]}},{"type":"Feature","bbox":[38.025721,34.428467,40.992568,36.835633],"properties":{"name":"Euphrates","scalerank":3},"geometry":{"type":"MultiLineString","coordinates":[[[38.56,35.863],[38.916,35.913],[39.227,35.881],[39.613,35.784],[39.833,35.683],[39.889,35.579],[40.004,35.473],[40.179,35.363],[40.263,35.298],[40.257,35.277],[40.294,35.253],[40.377,35.225],[40.424,35.167],[40.438,35.079],[40.475,35.016],[40.535,34.978],[40.584,34.918],[40.62,34.837],[40.711,34.752],[40.855,34.663],[40.928,34.581],[40.93,34.506],[40.946,34.458],[40.993,34.428]],[[38.026,36.836],[38.056,36.741],[38.103,36.694],[38.174,36.663],[38.231,36.618],[38.272,36.558],[38.266,36.482],[38.184,36.342]]]}},{"type":"Feature","bbox":[58.315748,36.949812,68.212095,44.426333],"properties":{"name":"Amu  Darya","scalerank":5},"geometry":{"type":"MultiLineString","coordinates":[[[60,42.272],[59.95,42.291],[59.745,42.341],[59.587,42.416],[59.475,42.516],[59.387,42.574],[59.322,42.591],[59.3,42.632],[59.319,42.697],[59.298,42.744],[59.236,42.772],[59.21,42.808],[59.222,42.852],[59.204,42.904],[59.156,42.966],[59.139,43.026],[59.153,43.084],[59.141,43.152],[59.103,43.23],[59.097,43.294]],[[59.099,43.292],[59.097,43.294]],[[59.097,43.294],[59.112,43.326],[59.098,43.379],[59.052,43.446],[59.036,43.498],[59.05,43.533],[59.106,43.561],[59.204,43.581],[59.255,43.633],[59.26,43.716],[59.211,43.805],[59.107,43.901],[59.082,43.971],[59.134,44.016],[59.255,44.066],[59.541,44.148]],[[59.097,43.294],[59.005,43.423],[58.993,43.526],[59.032,43.643],[59.019,43.732],[58.952,43.792],[58.831,43.839],[58.655,43.872],[58.57,43.948],[58.575,44.067],[58.512,44.202],[58.316,44.426]]]}},{"type":"Feature","bbox":[27.266584,44.137797,27.934605,44.744117],"properties":{"name":"Borcea","scalerank":2},"geometry":{"type":"LineString","coordinates":[[27.267,44.138],[27.769,44.363],[27.93,44.486],[27.935,44.592],[27.922,44.67],[27.877,44.744]]}},{"type":"Feature","bbox":[28.760705,45.180033,29.705918,45.419657],"properties":{"name":"Bratul Chillia","scalerank":2},"geometry":{"type":"LineString","coordinates":[[29.706,45.26],[29.652,45.314],[29.568,45.371],[29.404,45.42],[29.224,45.403],[29.027,45.321],[28.894,45.29],[28.824,45.311],[28.782,45.31],[28.767,45.286],[28.77,45.267],[28.791,45.252],[28.788,45.241],[28.761,45.234],[28.781,45.218],[28.883,45.18]]}},{"type":"Feature","bbox":[28.883075,44.915476,29.605459,45.180033],"properties":{"name":"Bratul Sfintu Gheorghe","scalerank":2},"geometry":{"type":"LineString","coordinates":[[28.883,45.18],[29.075,45.1],[29.205,45.08],[29.276,45.007],[29.348,44.97],[29.42,44.97],[29.605,44.915]]}},{"type":"Feature","bbox":[28.882713,45.151637,29.678633,45.179827],"properties":{"name":"Bratul Sulina","scalerank":2},"geometry":{"type":"LineString","coordinates":[[28.883,45.18],[29.679,45.152]]}},{"type":"Feature","bbox":[12.095107,60.121679,17.457054,62.15724],"properties":{"name":"Dalälven","scalerank":6},"geometry":{"type":"MultiLineString","coordinates":[[[16.433,60.156],[16.499,60.163]],[[17.417,60.51],[17.457,60.642]],[[14.973,60.728],[15.047,60.711],[15.057,60.681],[15.029,60.632],[15.045,60.591],[15.107,60.557],[15.206,60.54],[15.343,60.541],[15.478,60.505],[15.611,60.432],[15.754,60.401],[15.904,60.411],[16.006,60.39],[16.058,60.336],[16.073,60.28],[16.052,60.22],[16.112,60.173],[16.323,60.122]],[[13.718,61.413],[13.724,61.334],[13.74,61.3],[13.768,61.284],[13.949,61.268],[14.034,61.237],[14.094,61.183],[14.231,61.116],[14.552,60.997]],[[12.095,62.15],[12.212,62.157],[12.291,62.12],[12.41,61.999],[13.212,61.663]]]}},{"type":"Feature","bbox":[17.206423,43.670797,28.760705,48.061098],"properties":{"name":"Danube","scalerank":2},"geometry":{"type":"LineString","coordinates":[[17.206,48.061],[17.481,47.888],[17.635,47.81],[17.762,47.77],[18.146,47.763],[18.754,47.788],[18.795,47.809],[19,47.819],[19.071,47.807],[19.103,47.779],[19.123,47.731],[19.124,47.709],[19.073,47.552],[19.06,47.481],[19.03,47.413],[18.959,47.365],[18.907,47.26],[18.884,47.151],[18.928,47.083],[18.94,47],[18.936,46.885],[18.945,46.804],[18.983,46.74],[18.966,46.685],[18.894,46.638],[18.874,46.586],[18.905,46.528],[18.919,46.423],[18.916,46.271],[18.859,46.151],[18.748,46.063],[18.727,46.014],[18.759,45.935],[18.894,45.767],[18.947,45.656],[18.918,45.601],[18.954,45.558],[19.055,45.527],[19.064,45.515],[19.033,45.502],[19.008,45.466],[19.005,45.4],[19.093,45.337],[19.273,45.278],[19.475,45.243],[19.699,45.233],[19.828,45.241],[19.863,45.269],[19.907,45.259],[19.959,45.213],[20.045,45.186],[20.163,45.179],[20.253,45.15],[20.315,45.099],[20.339,45.038],[20.326,44.969],[20.353,44.911],[20.421,44.864],[20.5,44.843],[20.591,44.847],[20.636,44.828],[20.634,44.786],[20.666,44.741],[20.731,44.693],[20.913,44.708],[21.36,44.827],[21.523,44.79],[21.597,44.755],[21.636,44.71],[21.74,44.681],[21.909,44.666],[22.027,44.62],[22.093,44.542],[22.201,44.561],[22.351,44.676],[22.498,44.706],[22.642,44.651],[22.721,44.606],[22.734,44.57],[22.701,44.556],[22.62,44.562],[22.554,44.54],[22.502,44.49],[22.495,44.435],[22.531,44.378],[22.582,44.338],[22.648,44.316],[22.683,44.286],[22.688,44.248],[22.775,44.195],[22.945,44.127],[23.028,44.078],[23.024,44.047],[22.985,44.017],[22.911,43.987],[22.868,43.948],[22.856,43.899],[22.868,43.865],[22.919,43.834],[23.225,43.874],[23.535,43.854],[23.951,43.787],[24.227,43.763],[24.431,43.794],[25.16,43.686],[25.497,43.671],[25.686,43.712],[25.819,43.767],[25.933,43.871],[26.216,44.007],[26.489,44.084],[26.848,44.146],[27.087,44.167],[27.267,44.138],[27.412,44.138],[27.594,44.179],[27.86,44.263],[28.022,44.343],[28.08,44.419],[28.083,44.476],[28.032,44.513],[28.013,44.558],[28.025,44.611],[27.992,44.664],[27.907,44.719],[27.85,44.768],[27.83,44.796],[27.831,44.83],[27.863,44.865],[27.895,44.968],[27.926,45.139],[27.965,45.269],[28.011,45.358],[28.079,45.414],[28.212,45.45],[28.318,45.347],[28.451,45.292],[28.761,45.234]]}},{"type":"Feature","bbox":[24.054325,55.06943,32.317749,57.066129],"properties":{"name":"Daugava","scalerank":5},"geometry":{"type":"LineString","coordinates":[[32.078,56.908],[32.062,56.877],[32.097,56.861],[32.177,56.85],[32.242,56.821],[32.318,56.75],[32.273,56.609],[32.233,56.552],[32.184,56.531],[32.135,56.478],[32.087,56.395],[32.073,56.315],[32.092,56.24],[32.068,56.194],[32.001,56.177],[31.974,56.144],[31.986,56.095],[31.875,56.069],[31.641,56.066],[31.479,56.039],[31.39,55.989],[31.379,55.889],[31.449,55.738],[31.415,55.655],[31.278,55.639],[31.171,55.601],[31.056,55.509],[30.643,55.436],[30.409,55.369],[30.214,55.285],[30.167,55.235],[30.148,55.195],[30.087,55.183],[29.925,55.204],[29.815,55.205],[29.757,55.187],[29.726,55.161],[29.722,55.129],[29.687,55.116],[29.62,55.122],[29.555,55.107],[29.491,55.069],[29.452,55.071],[29.438,55.112],[29.406,55.132],[29.355,55.133],[29.316,55.155],[29.288,55.2],[29.202,55.258],[29.057,55.329],[29.001,55.38],[28.993,55.409],[28.919,55.455],[28.724,55.524],[28.504,55.566],[28.26,55.582],[28.087,55.62],[27.986,55.681],[27.928,55.74],[27.914,55.796],[27.881,55.817],[27.604,55.798],[27.459,55.803],[27.015,55.899],[26.809,55.907],[26.621,55.88],[26.489,55.899],[26.414,55.965],[26.364,56.039],[26.34,56.121],[26.294,56.178],[26.227,56.21],[26.184,56.264],[26.166,56.342],[26.064,56.418],[25.879,56.493],[25.779,56.553],[25.762,56.598],[25.71,56.609],[25.623,56.587],[25.534,56.59],[25.444,56.617],[25.358,56.619],[25.276,56.597],[25.174,56.594],[25.053,56.612],[24.891,56.668],[24.689,56.764],[24.505,56.827],[24.341,56.858],[24.22,56.894],[24.144,56.936],[24.091,56.985],[24.054,57.066]]}},{"type":"Feature","bbox":[39.64309,37.062493,42.376566,38.415588],"properties":{"name":"Tigris","scalerank":4},"geometry":{"type":"LineString","coordinates":[[39.643,38.416],[40.018,38.348],[40.024,38.306],[40.068,38.269],[40.15,38.223],[40.178,38.179],[40.153,38.136],[40.171,38.106],[40.235,38.091],[40.262,38.023],[40.252,37.903],[40.427,37.832],[40.969,37.8],[41.155,37.757],[41.358,37.744],[41.64,37.746],[41.8,37.709],[41.84,37.632],[41.854,37.556],[41.841,37.481],[41.882,37.441],[41.979,37.435],[42.094,37.395],[42.226,37.322],[42.313,37.23],[42.377,37.062]]}},{"type":"Feature","bbox":[33.390655,54.917217,33.890986,55.873696],"properties":{"name":"Dnipro","scalerank":4},"geometry":{"type":"LineString","coordinates":[[33.735,55.874],[33.818,55.827],[33.826,55.802],[33.788,55.784],[33.803,55.764],[33.872,55.742],[33.891,55.713],[33.768,55.57],[33.702,55.546],[33.622,55.556],[33.585,55.498],[33.59,55.372],[33.57,55.287],[33.524,55.243],[33.473,55.145],[33.391,54.917]]}},{"type":"Feature","bbox":[22.846595,46.090159,30.49295,49.564753],"properties":{"name":"Dniester","scalerank":6},"geometry":{"type":"MultiLineString","coordinates":[[[30.478,46.101],[30.493,46.09]],[[22.847,49.267],[23.082,49.461],[23.388,49.554],[23.607,49.565],[23.841,49.524],[24.019,49.481],[24.139,49.436],[24.227,49.372],[24.281,49.29],[24.36,49.245],[24.466,49.237],[24.594,49.182],[24.745,49.08],[24.851,49.028],[24.912,49.026],[24.987,48.998],[25.122,48.918],[25.155,48.878],[25.211,48.885],[25.251,48.842],[25.302,48.842],[25.339,48.832],[25.398,48.845],[25.521,48.809],[25.668,48.689],[25.731,48.659],[25.781,48.66],[25.827,48.649],[25.894,48.608],[25.958,48.602],[26.037,48.617],[26.072,48.572],[26.093,48.563],[26.13,48.572],[26.169,48.547],[26.253,48.529],[26.398,48.535],[26.498,48.517],[26.555,48.474],[26.591,48.466],[26.607,48.493],[26.668,48.517],[26.694,48.539],[26.784,48.565],[26.804,48.579],[26.835,48.583],[26.884,48.558],[26.997,48.56],[27.272,48.601],[27.433,48.584],[27.48,48.51],[27.574,48.465],[27.714,48.449],[27.82,48.416],[27.891,48.365],[27.963,48.334],[28.038,48.321],[28.08,48.296],[28.088,48.257],[28.159,48.238],[28.291,48.239],[28.347,48.213],[28.327,48.161],[28.341,48.144],[28.388,48.162],[28.423,48.147],[28.442,48.109],[28.463,48.091],[28.539,48.104],[28.574,48.069],[28.572,48.028],[28.604,48.009],[28.653,48.017],[28.766,47.987],[28.934,47.898],[29.01,47.796],[28.994,47.68],[29.017,47.583],[29.079,47.504],[29.103,47.45],[29.089,47.421],[29.12,47.369],[29.104,47.31],[29.154,47.235],[29.132,47.153],[29.137,47.136],[29.265,47.146],[29.314,47.116],[29.359,47.066],[29.36,47.029],[29.317,47.005],[29.3,46.984],[29.311,46.967],[29.424,46.955],[29.472,46.912],[29.499,46.829],[29.537,46.801],[29.589,46.827],[29.635,46.813],[29.677,46.756],[29.69,46.715],[29.674,46.689],[29.693,46.665],[29.748,46.641],[29.77,46.601],[29.805,46.581],[29.898,46.553],[30.131,46.423],[30.22,46.426],[30.254,46.401],[30.269,46.32]]]}},{"type":"Feature","bbox":[30.03427,46.615605,35.193697,55.001139],"properties":{"name":"Dnipro","scalerank":4},"geometry":{"type":"MultiLineString","coordinates":[[[32.578,46.616],[32.645,46.65],[32.934,46.717],[33.067,46.759],[33.357,46.786],[33.54,46.831]],[[35.105,47.84],[35.13,47.972],[35.118,48.038],[35.077,48.081],[35.087,48.108],[35.149,48.12],[35.185,48.15],[35.194,48.199],[35.17,48.28],[35.113,48.394],[34.959,48.477],[34.819,48.492],[34.41,48.64],[34.225,48.736],[34.065,48.808],[33.717,48.942],[33.508,49.008],[33.363,49.065],[33.194,49.094]],[[31.888,49.554],[31.691,49.636],[31.462,49.757]],[[31.44,50],[31.244,49.979],[31.071,50.023],[30.856,50.126],[30.707,50.222],[30.625,50.312],[30.567,50.417],[30.515,50.597]],[[33.391,54.917],[33.109,54.986],[32.978,55.001],[32.903,54.986],[32.823,54.958],[32.738,54.916],[32.687,54.871],[32.67,54.822],[32.611,54.763],[32.512,54.694],[32.382,54.695],[32.221,54.765],[32.006,54.777],[31.598,54.707],[30.974,54.655],[30.718,54.613],[30.622,54.564],[30.552,54.544],[30.509,54.553],[30.463,54.537],[30.413,54.495],[30.36,54.425],[30.304,54.326],[30.318,54.185],[30.405,54.001],[30.407,53.899],[30.324,53.879],[30.275,53.802],[30.261,53.666],[30.284,53.523],[30.371,53.297],[30.279,53.25],[30.26,53.206],[30.284,53.148],[30.251,53.12],[30.162,53.124],[30.091,53.101],[30.038,53.051],[30.034,52.954],[30.081,52.809],[30.143,52.71],[30.222,52.658],[30.258,52.606],[30.252,52.555],[30.279,52.507],[30.342,52.462],[30.365,52.43],[30.351,52.409],[30.397,52.38],[30.503,52.342],[30.546,52.306],[30.525,52.272],[30.584,52.197],[30.722,52.08],[30.796,51.996],[30.805,51.944],[30.773,51.894],[30.699,51.844],[30.625,51.766],[30.551,51.658],[30.547,51.545],[30.612,51.427],[30.611,51.33],[30.508,51.217]]]}},{"type":"Feature","bbox":[38.306117,47.105756,43.549104,54.063755],"properties":{"name":"Don","scalerank":6},"geometry":{"type":"MultiLineString","coordinates":[[[42.11,47.602],[42.015,47.56],[41.853,47.564],[41.755,47.59],[41.407,47.599],[41.295,47.564],[41.184,47.547],[41.073,47.549],[41.009,47.567],[40.993,47.601],[40.97,47.61],[40.926,47.586],[40.588,47.491],[40.412,47.401],[40.283,47.284],[40.112,47.222],[39.9,47.216],[39.689,47.187],[39.378,47.111],[39.293,47.106]],[[43.549,49.507],[43.379,49.487],[43.316,49.456],[43.302,49.408],[43.252,49.365],[43.165,49.329],[43.095,49.324],[43.042,49.351],[43.016,49.38],[43.017,49.412],[42.957,49.442],[42.835,49.472],[42.797,49.516],[42.77,49.573],[42.731,49.582],[42.647,49.567],[42.446,49.579],[42.297,49.599],[42.006,49.61],[41.833,49.597],[41.713,49.616],[41.467,49.613],[41.38,49.588],[41.314,49.587],[41.27,49.609],[41.261,49.63],[41.288,49.648],[41.279,49.683],[41.235,49.734],[41.14,49.77],[40.997,49.791],[40.921,49.827],[40.914,49.879],[40.89,49.922],[40.849,49.956],[40.778,49.964],[40.677,49.945],[40.644,49.953],[40.621,49.977],[40.596,50.027],[40.502,50.12],[40.432,50.139],[40.386,50.083],[40.322,50.065],[40.198,50.096],[40.04,50.103],[40.001,50.133],[40.03,50.186],[40.027,50.238],[39.99,50.289],[40.002,50.346],[40.064,50.408],[40.036,50.475],[39.92,50.547],[39.907,50.617],[39.879,50.65],[39.794,50.692],[39.757,50.733],[39.768,50.775],[39.794,50.797],[39.814,50.833],[39.789,50.874],[39.775,50.919],[39.778,50.952],[39.745,50.962],[39.677,50.955],[39.513,50.96],[39.266,50.987],[39.143,51.024],[39.144,51.071],[39.182,51.111],[39.256,51.142],[39.262,51.173],[39.199,51.203],[39.177,51.238],[39.131,51.364],[39.052,51.43],[39.059,51.507],[39.018,51.568],[39.012,51.597],[39.038,51.626],[39.046,51.657],[39.035,51.69],[39.06,51.757],[39.122,51.859],[39.14,51.934],[39.133,52.012]],[[39.133,52.019],[39.164,52.084],[39.154,52.125],[39.096,52.179],[38.99,52.248],[38.958,52.289],[38.958,52.327],[38.905,52.438],[38.931,52.576],[38.933,52.665],[38.911,52.703],[38.964,52.794],[39.093,52.938],[39.155,53.118],[39.152,53.333],[39.112,53.449],[39.021,53.561],[38.998,53.576],[38.641,53.687],[38.531,53.754],[38.541,53.819],[38.529,53.861],[38.478,53.889],[38.306,54.064]]]}},{"type":"Feature","bbox":[8.219788,47.930718,17.206423,49.027499],"properties":{"name":"Danube","scalerank":2},"geometry":{"type":"MultiLineString","coordinates":[[[8.22,48.047],[8.49,47.931],[8.696,47.936],[8.836,47.976],[8.979,48.053],[9.132,48.086],[9.295,48.078],[9.421,48.116],[9.509,48.202],[9.589,48.244],[9.661,48.241],[9.784,48.289],[9.959,48.388],[10.127,48.453],[10.289,48.483],[10.385,48.516],[10.415,48.552],[10.524,48.607],[10.712,48.679],[11.025,48.735],[11.684,48.794],[11.766,48.871],[11.85,48.906],[11.964,48.925],[12.024,48.958],[12.033,49.027],[12.242,49.018],[12.361,48.992],[12.507,48.924]],[[17.206,48.061],[17.165,48.117],[17.111,48.146],[17.029,48.167],[16.878,48.172],[16.659,48.161],[16.486,48.213],[16.36,48.327],[16.209,48.38],[16.034,48.369],[15.861,48.379],[15.693,48.411],[15.573,48.424],[15.502,48.417],[15.431,48.371],[15.36,48.286],[15.265,48.229],[15.147,48.198],[15.036,48.198],[14.932,48.227],[14.829,48.227],[14.726,48.197],[14.583,48.219],[14.4,48.292],[14.243,48.328],[14.114,48.329],[14.037,48.352],[14.012,48.399],[13.872,48.462],[13.487,48.582],[13.316,48.602],[13.2,48.636],[13.081,48.691],[13.005,48.748],[12.972,48.806],[12.909,48.836],[12.816,48.836],[12.704,48.86],[12.507,48.931]]]}},{"type":"Feature","bbox":[13.821823,45.557995,18.953706,47.401526],"properties":{"name":"Drava","scalerank":6},"geometry":{"type":"LineString","coordinates":[[13.822,47.09],[14.367,47.147],[14.507,47.209],[14.62,47.224],[14.752,47.214],[14.861,47.245],[14.946,47.319],[15.145,47.4],[15.303,47.394],[15.346,47.347],[15.352,47.316],[15.323,47.3],[15.316,47.253],[15.329,47.174],[15.361,47.121],[15.413,47.095],[15.476,46.997],[15.56,46.831],[15.582,46.767],[15.63,46.736],[16.042,46.663],[16.211,46.57],[16.321,46.535],[16.428,46.524],[16.57,46.485],[16.748,46.416],[16.871,46.339],[16.94,46.254],[17.033,46.187],[17.15,46.14],[17.242,46.077],[17.311,45.996],[17.406,45.951],[17.529,45.941],[17.607,45.914],[17.64,45.868],[17.706,45.827],[17.807,45.79],[17.964,45.77],[18.283,45.765],[18.551,45.627],[18.712,45.574],[18.954,45.558]]}},{"type":"Feature","bbox":[-8.674607,41.062403,-2.357086,41.928061],"properties":{"name":"Duero","scalerank":6},"geometry":{"type":"LineString","coordinates":[[-2.837,41.928],[-2.542,41.85],[-2.444,41.797],[-2.445,41.743],[-2.424,41.688],[-2.357,41.605],[-2.498,41.521],[-2.617,41.505],[-2.76,41.528],[-2.866,41.529],[-2.935,41.508],[-3.038,41.524],[-3.176,41.578],[-3.411,41.633],[-3.743,41.688],[-3.941,41.693],[-4.002,41.649],[-4.146,41.631],[-4.372,41.64],[-4.682,41.592],[-5.075,41.489],[-5.307,41.464],[-5.378,41.516],[-5.518,41.527],[-5.726,41.498],[-5.838,41.492],[-5.888,41.474],[-5.971,41.49],[-6.092,41.543],[-6.178,41.55],[-6.244,41.516],[-6.289,41.455],[-6.403,41.375],[-6.566,41.304],[-6.69,41.214],[-6.776,41.108],[-6.883,41.062],[-7.011,41.079],[-7.085,41.113],[-7.103,41.166],[-7.244,41.189],[-7.651,41.181],[-8.235,41.092],[-8.425,41.084],[-8.555,41.128],[-8.675,41.154]]}},{"type":"Feature","bbox":[-4.18886,40.722347,0.89114,43.011173],"properties":{"name":"Ebro","scalerank":5},"geometry":{"type":"LineString","coordinates":[[-4.189,43.011],[-4.102,43.001],[-4.055,42.953],[-4.017,42.861],[-3.963,42.825],[-3.89,42.844],[-3.822,42.842],[-3.757,42.817],[-3.709,42.833],[-3.678,42.888],[-3.627,42.898],[-3.451,42.807],[-3.337,42.792],[-3.155,42.787],[-3.011,42.755],[-2.905,42.695],[-2.843,42.644],[-2.823,42.602],[-2.756,42.56],[-2.641,42.518],[-2.563,42.507],[-2.522,42.527],[-2.395,42.514],[-2.183,42.466],[-1.994,42.391],[-1.748,42.236],[-1.405,41.978],[-1.11,41.802],[-0.748,41.622],[-0.526,41.479],[-0.444,41.374],[-0.301,41.309],[-0.097,41.284],[0.04,41.306],[0.111,41.375],[0.167,41.411],[0.208,41.413],[0.263,41.399],[0.331,41.368],[0.362,41.328],[0.357,41.28],[0.364,41.256],[0.525,41.249],[0.59,41.22],[0.632,41.165],[0.652,41.119],[0.652,41.083],[0.614,41.038],[0.538,40.982],[0.517,40.904],[0.551,40.802],[0.651,40.745],[0.891,40.722]]}},{"type":"Feature","bbox":[9.784034,50.031417,15.889036,53.554638],"properties":{"name":"Elbe","scalerank":5},"geometry":{"type":"MultiLineString","coordinates":[[[15.583,50.693],[15.615,50.614],[15.653,50.576],[15.706,50.553],[15.734,50.522],[15.736,50.484],[15.782,50.44],[15.864,50.394],[15.884,50.372],[15.889,50.328],[15.845,50.272],[15.819,50.197],[15.817,50.107],[15.677,50.052],[15.4,50.031],[15.236,50.035],[15.159,50.075],[15.088,50.152],[14.969,50.179],[14.779,50.181],[14.631,50.222],[14.473,50.343],[14.388,50.438],[14.332,50.46],[14.277,50.442],[14.241,50.454],[14.222,50.498],[14.178,50.52],[14.109,50.52],[14.062,50.535],[14.039,50.567],[14.04,50.589],[14.063,50.602],[14.07,50.641],[14.084,50.661],[14.16,50.686],[14.203,50.75],[14.212,50.851],[14.136,50.918],[13.977,50.95],[13.874,50.991],[13.828,51.041],[13.744,51.079],[13.622,51.104],[13.522,51.141],[13.443,51.19],[13.398,51.235],[13.386,51.278],[13.345,51.312],[13.275,51.339],[13.226,51.382],[13.184,51.474]],[[13.191,51.474],[12.934,51.623],[12.842,51.711],[12.829,51.79],[12.742,51.843],[12.58,51.871],[12.382,51.881],[12.147,51.874],[11.995,51.909],[11.925,51.986],[11.843,52.031],[11.749,52.046],[11.691,52.072],[11.668,52.109],[11.668,52.155],[11.692,52.21],[11.757,52.273],[11.917,52.378],[11.978,52.438],[12.003,52.562],[12.014,52.77],[11.921,52.918],[11.724,53.006],[11.555,53.054],[11.414,53.062],[11.297,53.093],[11.203,53.147],[11.139,53.166],[11.106,53.151],[10.994,53.2],[10.804,53.312],[10.682,53.369],[10.601,53.372],[10.413,53.417],[10.305,53.426],[10.215,53.413],[10.082,53.44]],[[10.082,53.44],[9.784,53.555],[9.9,53.552],[9.988,53.538],[10.048,53.516],[10.082,53.44]]]}},{"type":"Feature","bbox":[40.992568,30.90168,47.468452,34.509057],"properties":{"name":"Euphrates","scalerank":3},"geometry":{"type":"LineString","coordinates":[[40.993,34.428],[41.119,34.388],[41.177,34.393],[41.208,34.43],[41.276,34.443],[41.38,34.43],[41.471,34.449],[41.502,34.436],[41.591,34.448],[41.717,34.497],[41.827,34.509],[41.921,34.484],[41.99,34.446],[42.122,34.302],[42.17,34.288],[42.22,34.306],[42.263,34.29],[42.286,34.292],[42.303,34.334],[42.33,34.346],[42.366,34.329],[42.366,34.302],[42.331,34.264],[42.332,34.231],[42.369,34.205],[42.383,34.165],[42.375,34.114],[42.417,34.059],[42.51,34]]}},{"type":"Feature","bbox":[37.847799,36.835633,41.455485,40.180183],"properties":{"name":"Euphrates","scalerank":3},"geometry":{"type":"MultiLineString","coordinates":[[[38.768,38.813],[38.555,38.768],[38.45,38.714],[38.383,38.635],[38.355,38.581],[38.367,38.551],[38.452,38.508],[38.61,38.45],[38.719,38.426],[38.78,38.435],[38.847,38.413],[38.921,38.358],[38.997,38.334],[39.075,38.34],[39.115,38.306],[39.115,38.23],[39.149,38.19],[39.218,38.183],[39.248,38.154],[39.239,38.102],[39.171,38.034],[39.042,37.949],[38.978,37.887],[38.978,37.849],[38.956,37.82],[38.924,37.745],[38.841,37.713],[38.829,37.69],[38.838,37.666],[38.813,37.645],[38.701,37.631],[38.608,37.593],[38.533,37.532],[38.439,37.495],[38.328,37.483],[38.25,37.461],[38.207,37.429],[38.137,37.421],[38.039,37.437],[37.966,37.425],[37.92,37.384],[37.855,37.292],[37.848,37.217],[37.862,37.116],[37.897,37.061],[37.951,37.054],[37.991,36.996],[38.026,36.836]],[[41.455,40.18],[41.328,40.016],[40.985,39.944],[40.77,39.928],[40.569,39.945],[40.396,39.942],[40.251,39.919],[40.169,39.895],[40.15,39.869],[40.17,39.824],[40.23,39.76],[40.24,39.694],[40.203,39.626],[40.163,39.584],[40.122,39.568],[39.939,39.595],[39.613,39.666],[39.415,39.683],[39.343,39.648],[39.196,39.619],[38.976,39.594],[38.74,39.536],[38.488,39.445],[38.426,39.342],[38.555,39.229],[38.643,39.17],[38.689,39.167],[38.718,39.144],[38.74,39.078]]]}},{"type":"Feature","bbox":[1.454465,42.626959,1.824933,43.41527],"properties":{"name":"Ariège","scalerank":6},"geometry":{"type":"LineString","coordinates":[[1.809,42.627],[1.825,42.693],[1.791,42.732],[1.675,42.783],[1.616,42.856],[1.594,42.97],[1.587,43.149],[1.54,43.298],[1.454,43.415]]}},{"type":"Feature","bbox":[10.624344,60.524833,12.027618,62.686975],"properties":{"name":"Glomma","scalerank":6},"geometry":{"type":"LineString","coordinates":[[11.484,62.687],[11.188,62.496],[10.984,62.391],[10.773,62.309],[10.655,62.245],[10.632,62.201],[10.624,62.157],[10.634,62.112],[10.699,62.062],[10.821,62.006],[10.888,61.95],[10.901,61.893],[10.883,61.835],[10.835,61.776],[10.863,61.7],[10.968,61.607],[11.033,61.526],[11.072,61.423],[11.247,61.317],[11.318,61.233],[11.344,61.134],[11.402,61.029],[11.493,60.919],[11.579,60.849],[11.661,60.818],[11.737,60.763],[11.806,60.685],[11.881,60.633],[11.962,60.609],[12.009,60.579],[12.028,60.525]]}},{"type":"Feature","bbox":[11.729083,57.764459,12.334679,58.373802],"properties":{"name":"Göta älv","scalerank":6},"geometry":{"type":"LineString","coordinates":[[12.335,58.374],[12.171,58.24],[12.112,58.14],[12.105,58.031],[12.029,57.928],[11.81,57.781],[11.729,57.764]]}},{"type":"Feature","bbox":[31.570404,63.765772,34.803488,65.111142],"properties":{"name":"Kem","scalerank":6},"geometry":{"type":"MultiLineString","coordinates":[[[31.57,63.869],[31.714,63.819],[31.834,63.766],[31.944,63.767],[32.236,63.853],[32.294,63.903],[32.357,63.984],[32.378,64.037],[32.357,64.062],[32.36,64.109],[32.388,64.177],[32.339,64.249],[32.215,64.325],[32.185,64.377],[32.25,64.404],[32.302,64.445],[32.34,64.499],[32.303,64.57],[32.193,64.656],[32.144,64.723],[32.149,64.748]],[[32.044,64.46],[32.2,64.384]],[[32.149,64.748],[32.154,64.771],[32.259,64.82],[32.459,64.872],[32.589,64.93],[32.65,64.995],[32.742,65.016],[32.865,64.994],[32.952,65.016],[33.001,65.081],[33.066,65.111],[33.186,65.104],[34.005,64.975],[34.386,64.944],[34.803,64.986]],[[31.955,64.864],[32.149,64.748]]]}},{"type":"Feature","bbox":[24.627985,65.859184,28.95475,68.104991],"properties":{"name":"Kemijoki","scalerank":6},"geometry":{"type":"MultiLineString","coordinates":[[[27.359,66.467],[27.324,66.406],[27.271,66.373],[27.19,66.349],[26.901,66.356],[26.403,66.395],[26.066,66.441],[25.889,66.493],[25.709,66.494],[25.525,66.444],[25.4,66.363],[25.303,66.193],[24.946,66.118],[24.798,66.048],[24.711,65.912],[24.628,65.859]],[[28.781,68.105],[28.93,68.012],[28.955,67.961],[28.878,67.901],[28.851,67.813],[28.803,67.751],[28.724,67.686],[28.553,67.59],[28.289,67.462],[28.187,67.369],[28.245,67.309],[28.227,67.287],[28.132,67.304],[28.085,67.293],[28.086,67.255],[28.063,67.231],[27.992,67.214],[27.608,67.158],[27.5,67.106],[27.54,67.039],[27.516,66.945],[27.385,66.765]]]}},{"type":"Feature","bbox":[21.598093,61.210993,22.579118,61.577895],"properties":{"name":"Kokemäenjoki","scalerank":6},"geometry":{"type":"LineString","coordinates":[[22.579,61.211],[22.399,61.293],[22.341,61.302],[22.345,61.265],[22.301,61.256],[22.21,61.276],[22.053,61.344],[21.598,61.578]]}},{"type":"Feature","bbox":[4.084847,51.896264,5.331075,51.994088],"properties":{"name":"Lek","scalerank":4},"geometry":{"type":"LineString","coordinates":[[5.331,51.963],[5.161,51.994],[4.999,51.977],[4.787,51.925],[4.596,51.898],[4.426,51.896],[4.28,51.919],[4.085,51.994]]}},{"type":"Feature","bbox":[5.331075,51.872183,6.038629,51.981375],"properties":{"name":"Nederrijn","scalerank":4},"geometry":{"type":"LineString","coordinates":[[6.039,51.872],[5.922,51.961],[5.747,51.981],[5.331,51.963]]}},{"type":"Feature","bbox":[30.156847,59.810923,31.042788,59.950992],"properties":{"name":"Neva","scalerank":5},"geometry":{"type":"LineString","coordinates":[[31.043,59.951],[31.014,59.933],[30.982,59.882],[30.906,59.843],[30.795,59.811],[30.652,59.835],[30.477,59.917],[30.347,59.947],[30.157,59.904]]}},{"type":"Feature","bbox":[14.128626,49.637074,18.316588,53.639336],"properties":{"name":"Oder","scalerank":4},"geometry":{"type":"LineString","coordinates":[[17.618,49.739],[17.847,49.654],[17.946,49.637],[18.142,49.73],[18.225,49.795],[18.307,49.886],[18.317,49.972],[18.253,50.055],[18.231,50.137],[18.252,50.22],[18.185,50.321],[18.032,50.441],[17.958,50.532],[17.964,50.593],[17.938,50.656],[17.88,50.722],[17.762,50.78],[17.45,50.882],[17.361,50.928],[17.3,50.975],[17.269,51.023],[17.194,51.068],[17.015,51.131],[16.869,51.229],[16.738,51.253],[16.573,51.236],[16.475,51.245],[16.442,51.279],[16.44,51.315],[16.467,51.354],[16.474,51.421],[16.462,51.518],[16.408,51.595],[16.31,51.652],[16.223,51.677],[16.146,51.669],[16.02,51.691],[15.847,51.743],[15.769,51.811],[15.787,51.894],[15.758,51.961],[15.682,52.011],[15.424,52.046],[14.761,52.077],[14.705,52.11],[14.692,52.15],[14.705,52.207],[14.68,52.25],[14.616,52.278],[14.574,52.314],[14.555,52.36],[14.57,52.431],[14.619,52.528],[14.514,52.646],[14.254,52.783],[14.129,52.878],[14.139,52.933],[14.194,52.982],[14.293,53.027],[14.369,53.106],[14.446,53.275],[14.581,53.445],[14.618,53.526],[14.61,53.584],[14.584,53.639]]}},{"type":"Feature","bbox":[52.125842,61.698818,59.286955,68.270381],"properties":{"name":"Pechora","scalerank":4},"geometry":{"type":"MultiLineString","coordinates":[[[59.287,62.058],[59.175,62.022],[59.076,62.022],[58.89,62.057],[58.777,61.996],[58.639,62.008],[58.438,62.073],[58.234,62.067],[58.027,61.988],[57.909,61.913],[57.879,61.84],[57.828,61.806],[57.756,61.812],[57.617,61.783],[57.412,61.72],[57.229,61.699],[57.009,61.728],[56.962,61.763],[56.857,61.803],[56.842,61.816],[56.851,61.846],[56.836,61.903],[56.796,61.984],[56.729,62.049],[56.641,62.1],[56.63,62.16],[56.7,62.234],[56.726,62.344],[56.706,62.489],[56.625,62.595],[56.483,62.661],[56.36,62.701],[56.257,62.715],[56.213,62.753],[56.227,62.817],[56.201,62.884],[55.936,63.16],[55.941,63.191],[55.956,63.209],[55.993,63.22],[56.056,63.196],[56.174,63.222],[56.292,63.29],[56.419,63.313],[56.441,63.35],[56.445,63.383],[56.47,63.416],[56.519,63.427],[56.541,63.442],[56.53,63.464],[56.478,63.502],[56.467,63.539],[56.504,63.566],[56.556,63.589],[56.639,63.661],[56.712,63.763],[56.944,63.839],[57.47,63.912],[57.507,63.942],[57.511,63.986],[57.525,64.017],[57.584,64.052],[57.603,64.09],[57.577,64.123],[57.581,64.16],[57.559,64.197],[57.565,64.231],[57.579,64.258],[57.624,64.29],[57.638,64.325],[57.673,64.34],[57.716,64.373],[57.73,64.397],[57.773,64.411],[57.828,64.651],[57.879,64.74],[57.844,64.806],[57.722,64.847],[57.608,64.908],[57.503,64.988],[57.4,65.029],[57.301,65.034],[57.256,65.06],[57.265,65.108],[57.203,65.137],[57.068,65.147],[57.016,65.241],[57.047,65.421],[56.967,65.568],[56.777,65.683],[56.744,65.789],[56.777,65.847],[56.834,65.912],[56.837,65.971],[56.806,66.003],[56.736,66.033],[56.621,66.122],[56.491,66.257],[56.283,66.325],[55.998,66.326],[55.763,66.302],[55.412,66.2],[55.264,66.142],[55.171,66.065],[55.133,65.968],[55.093,65.91],[55.029,65.878],[54.836,65.752],[54.711,65.702],[54.588,65.686],[54.456,65.625],[54.315,65.516],[54.103,65.458],[53.822,65.449],[53.588,65.417],[53.403,65.361],[53.194,65.333],[52.959,65.332],[52.67,65.357],[52.327,65.408],[52.153,65.466],[52.15,65.532],[52.179,65.629],[52.239,65.759],[52.349,65.869],[52.507,65.96],[52.567,66.02],[52.528,66.049],[52.507,66.111],[52.506,66.206],[52.487,66.287],[52.451,66.354],[52.454,66.404],[52.496,66.438],[52.504,66.474],[52.478,66.514],[52.471,66.556],[52.484,66.599],[52.451,66.651],[52.373,66.71],[52.354,66.831],[52.392,67.014],[52.381,67.115],[52.287,67.145],[52.169,67.26],[52.132,67.318],[52.136,67.358],[52.17,67.396],[52.234,67.43],[52.231,67.456],[52.16,67.473],[52.126,67.507],[52.128,67.557],[52.247,67.614],[52.483,67.678],[52.627,67.699]],[[52.627,67.699],[52.743,67.755],[53.107,67.864]],[[52.627,67.699],[52.68,67.678],[52.813,67.673],[53.025,67.684],[53.184,67.734],[53.291,67.824],[53.514,67.911],[53.852,67.995],[54.067,68.081],[54.207,68.209],[54.233,68.266]],[[53.107,67.864],[53.215,67.933],[53.085,67.965],[53.027,68.011],[53.043,68.069],[53.093,68.118],[53.179,68.157],[53.227,68.196],[53.242,68.242],[53.262,68.27]],[[53.914,68.231],[53.749,68.175],[53.672,68.125],[53.621,68.057],[53.495,67.987],[53.192,67.88],[53.107,67.864]]]}},{"type":"Feature","bbox":[7.110192,44.664819,12.523401,45.219772],"properties":{"name":"Po","scalerank":6},"geometry":{"type":"LineString","coordinates":[[7.11,44.706],[7.326,44.665],[7.424,44.687],[7.502,44.795],[7.619,44.849],[7.665,44.925],[7.677,45.041],[7.731,45.129],[7.824,45.19],[7.976,45.22],[8.185,45.219],[8.36,45.199],[8.5,45.161],[8.594,45.113],[8.644,45.054],[8.808,45.054],[9.224,45.141],[9.505,45.093],[9.55,45.116],[9.607,45.129],[9.652,45.114],[9.699,45.086],[9.733,45.083],[9.754,45.104],[9.782,45.103],[9.816,45.08],[9.846,45.085],[9.87,45.118],[9.909,45.133],[9.96,45.13],[10.008,45.106],[10.05,45.06],[10.154,45.026],[10.317,45.003],[10.43,44.972],[10.491,44.935],[10.557,44.928],[10.628,44.953],[10.666,44.986],[10.671,45.028],[10.74,45.057],[10.871,45.072],[11.02,45.075],[11.188,45.065],[11.312,45.029],[11.392,44.968],[11.479,44.927],[11.574,44.906],[11.684,44.918],[11.869,44.985],[12.085,45.02],[12.199,45.013],[12.283,44.976],[12.377,44.961],[12.523,44.968]]}},{"type":"Feature","bbox":[8.750815,46.676324,9.625904,47.670682],"properties":{"name":"Rhine","scalerank":4},"geometry":{"type":"MultiLineString","coordinates":[[[8.751,46.676],[9.046,46.758],[9.416,46.835]],[[9.409,46.835],[9.517,46.907],[9.534,46.963],[9.496,47.028],[9.479,47.098],[9.484,47.173],[9.528,47.271],[9.609,47.392],[9.626,47.467],[9.554,47.511]],[[9.128,47.671],[9.183,47.671]]]}},{"type":"Feature","bbox":[7.529391,47.563841,8.881143,48.965435],"properties":{"name":"Rhine","scalerank":4},"geometry":{"type":"LineString","coordinates":[[8.881,47.656],[8.7,47.686],[8.62,47.662],[8.58,47.595],[8.482,47.576],[8.328,47.607],[8.198,47.607],[8.094,47.576],[7.927,47.564],[7.698,47.57],[7.565,47.607],[7.529,47.674],[7.539,47.774],[7.593,47.906],[7.608,48.003],[7.584,48.064],[7.617,48.157],[7.706,48.28],[7.765,48.41],[7.795,48.547],[7.838,48.636],[7.923,48.699],[8.23,48.965]]}},{"type":"Feature","bbox":[4.98536,48.965435,8.498221,51.888203],"properties":{"name":"Rhine","scalerank":4},"geometry":{"type":"LineString","coordinates":[[8.23,48.965],[8.417,49.214],[8.486,49.33],[8.498,49.397],[8.489,49.436],[8.458,49.447],[8.422,49.505],[8.381,49.611],[8.389,49.69],[8.431,49.728],[8.437,49.767],[8.401,49.815],[8.357,49.911],[8.305,49.981],[8.243,50.023],[8.129,50.026],[7.962,49.991],[7.803,50.042],[7.607,50.222],[7.611,50.266],[7.629,50.324],[7.608,50.367],[7.557,50.4],[7.444,50.433],[7.344,50.486],[7.257,50.559],[7.204,50.622],[7.185,50.673],[7.125,50.734],[7.025,50.805],[6.995,50.853],[6.995,50.904],[6.973,50.938],[6.968,50.998],[6.938,51.04],[6.881,51.064],[6.851,51.097],[6.847,51.139],[6.816,51.169],[6.758,51.187],[6.76,51.227],[6.741,51.268],[6.69,51.303],[6.707,51.422],[6.687,51.524],[6.624,51.559],[6.593,51.592],[6.596,51.637],[6.357,51.775],[6.212,51.837],[6.08,51.869],[5.975,51.877],[5.898,51.86],[5.78,51.863],[5.622,51.888],[5.492,51.878],[5.389,51.833],[5.25,51.813],[4.985,51.824]]}},{"type":"Feature","bbox":[4.371237,43.401434,8.250484,46.482279],"properties":{"name":"Rhône","scalerank":6},"geometry":{"type":"MultiLineString","coordinates":[[[4.617,43.71],[4.514,43.702],[4.467,43.683],[4.44,43.65],[4.436,43.627],[4.444,43.613],[4.434,43.591],[4.379,43.56],[4.371,43.528],[4.41,43.447]],[[6.133,46.205],[5.902,46.123],[5.814,46.013],[5.793,45.849],[5.747,45.737],[5.676,45.676],[5.573,45.704],[5.437,45.821],[5.35,45.847],[5.285,45.812],[5.191,45.799],[5.058,45.817],[4.952,45.808],[4.871,45.771],[4.824,45.713],[4.809,45.633],[4.819,45.582],[4.853,45.561],[4.841,45.513],[4.784,45.439],[4.79,45.289],[4.858,45.063],[4.864,44.911],[4.806,44.834],[4.781,44.761],[4.786,44.693],[4.772,44.637],[4.721,44.573],[4.674,44.35],[4.675,44.228],[4.711,44.133],[4.759,44.071],[4.82,44.04],[4.843,44.012],[4.821,43.973],[4.69,43.906],[4.638,43.828],[4.619,43.715],[4.631,43.639],[4.724,43.554],[4.743,43.449],[4.787,43.401]],[[8.25,46.482],[8.068,46.374],[7.955,46.335],[7.799,46.325],[7.653,46.327],[7.471,46.277],[7.205,46.178],[7.089,46.152],[7.02,46.197],[6.866,46.403]]]}},{"type":"Feature","bbox":[0.439255,47.577871,4.707651,49.49362],"properties":{"name":"Seine","scalerank":4},"geometry":{"type":"LineString","coordinates":[[4.708,47.578],[4.584,47.74],[4.554,47.812],[4.574,47.85],[4.565,47.891],[4.408,48.082],[4.322,48.145],[4.214,48.19],[4.096,48.284],[3.969,48.427],[3.858,48.517],[3.763,48.551],[3.561,48.526],[3.252,48.44],[3.038,48.393],[2.922,48.385],[2.819,48.409],[2.687,48.492],[2.573,48.533],[2.499,48.582],[2.428,48.65],[2.405,48.699],[2.43,48.728],[2.43,48.766],[2.404,48.811],[2.296,48.852],[2.27,48.875],[2.25,48.908],[2.217,48.912],[2.173,48.904],[2.144,48.928],[2.138,48.948],[2.111,48.958],[2.008,48.961],[1.976,48.996],[1.908,49.006],[1.803,48.99],[1.718,48.992],[1.675,49.017],[1.668,49.047],[1.635,49.06],[1.585,49.052],[1.497,49.084],[1.397,49.16],[1.354,49.211],[1.314,49.219],[1.279,49.212],[1.244,49.221],[1.228,49.282],[1.189,49.307],[1.092,49.312],[1.056,49.328],[1.023,49.381],[0.972,49.378],[0.93,49.39],[0.897,49.424],[0.853,49.415],[0.828,49.426],[0.785,49.471],[0.719,49.48],[0.652,49.46],[0.585,49.453],[0.493,49.494],[0.439,49.473]]}},{"type":"Feature","bbox":[18.93531,47.033047,19.097935,47.48103],"properties":{"name":"Soroksari Duna","scalerank":6},"geometry":{"type":"LineString","coordinates":[[19.06,47.481],[19.091,47.439],[19.098,47.418],[19.094,47.394],[18.974,47.275],[18.949,47.199],[18.973,47.145],[18.976,47.101],[18.935,47.033]]}},{"type":"Feature","bbox":[38.656173,59.302298,46.339942,60.759599],"properties":{"name":"Sukhona","scalerank":4},"geometry":{"type":"MultiLineString","coordinates":[[[39.798,59.525],[40.099,59.476],[40.215,59.447],[40.248,59.421],[40.262,59.38],[40.26,59.323],[40.35,59.302],[40.532,59.318],[40.684,59.352],[40.808,59.404],[40.917,59.418],[41.011,59.396],[41.155,59.391],[41.349,59.403],[41.558,59.43],[41.784,59.473],[41.9,59.512],[41.906,59.546],[41.954,59.584],[42.044,59.628],[42.169,59.657],[42.328,59.67],[42.462,59.7],[42.57,59.746],[42.653,59.816],[42.711,59.91],[42.853,59.982],[43.731,60.19],[44.032,60.292],[44.276,60.407],[44.492,60.474],[44.679,60.493],[44.835,60.526],[44.962,60.573],[45.156,60.6],[45.418,60.605],[45.606,60.632],[45.72,60.68],[45.831,60.697],[45.939,60.684],[46.051,60.699],[46.166,60.742],[46.252,60.76],[46.34,60.749]],[[39.053,59.868],[38.928,59.939],[38.656,59.93]]]}},{"type":"Feature","bbox":[40.407797,60.74916,46.617134,64.754885],"properties":{"name":"Severnaya Dvina","scalerank":4},"geometry":{"type":"LineString","coordinates":[[46.34,60.749],[46.456,60.843],[46.512,60.91],[46.547,60.982],[46.565,61.044],[46.565,61.096],[46.58,61.13],[46.61,61.145],[46.617,61.186],[46.591,61.287],[46.255,61.472],[45.945,61.595],[45.551,61.717],[45.291,61.84],[45.167,61.964],[45.091,62.061],[45.063,62.13],[44.975,62.206],[44.826,62.29],[44.562,62.347],[44.184,62.377],[43.907,62.442],[43.732,62.543],[43.404,62.67],[42.924,62.824],[42.657,62.934],[42.605,63.002],[42.487,63.045],[42.212,63.073],[42.077,63.141],[42.041,63.195],[42.057,63.258],[42.016,63.329],[41.916,63.408],[41.872,63.483],[41.885,63.553],[41.806,63.605],[41.634,63.639],[41.515,63.681],[41.448,63.732],[41.47,63.785],[41.58,63.84],[41.633,63.88],[41.628,63.904],[41.658,63.944],[41.724,63.999],[41.752,64.052],[41.742,64.102],[41.777,64.137],[41.857,64.157],[41.884,64.192],[41.856,64.244],[41.654,64.295],[41.277,64.345],[40.949,64.416],[40.53,64.555],[40.45,64.63],[40.408,64.755]]}},{"type":"Feature","bbox":[32.815754,60.477187,34.84638,61.026637],"properties":{"name":"Svir’","scalerank":5},"geometry":{"type":"LineString","coordinates":[[32.816,60.482],[32.863,60.477],[32.996,60.511],[33.14,60.576],[33.29,60.68],[33.438,60.738],[33.583,60.752],[33.713,60.811],[33.828,60.915],[33.918,60.964],[34.017,60.958],[34.086,60.926],[34.293,60.943],[34.846,61.027]]}},{"type":"Feature","bbox":[-7.117674,39.681687,-1.905537,40.811204],"properties":{"name":"Tajo","scalerank":5},"geometry":{"type":"MultiLineString","coordinates":[[[-5.996,39.852],[-6.326,39.764],[-6.533,39.746],[-6.726,39.77],[-6.896,39.757],[-7.118,39.682]],[[-2.733,40.528],[-2.961,40.275],[-3.1,40.156],[-3.226,40.087],[-3.381,40.048],[-3.565,40.038],[-3.739,39.995],[-3.901,39.92],[-4.059,39.881],[-4.213,39.879],[-4.318,39.839],[-4.428,39.867],[-4.628,39.948],[-4.757,39.982],[-4.816,39.968],[-4.889,39.921],[-4.978,39.84],[-5.071,39.803],[-5.217,39.812]],[[-1.906,40.601],[-2.06,40.745],[-2.144,40.797],[-2.242,40.811],[-2.577,40.724]]]}},{"type":"Feature","bbox":[-8.791603,39.078183,-7.117674,39.681687],"properties":{"name":"Tejo","scalerank":5},"geometry":{"type":"LineString","coordinates":[[-7.118,39.682],[-7.454,39.681],[-7.653,39.634],[-7.828,39.541],[-7.982,39.492],[-8.376,39.468],[-8.521,39.371],[-8.661,39.249],[-8.742,39.115],[-8.792,39.078]]}},{"type":"Feature","bbox":[-2.021912,51.392419,0.424502,51.763171],"properties":{"name":"Thames","scalerank":6},"geometry":{"type":"LineString","coordinates":[[-2.022,51.686],[-1.939,51.648],[-1.824,51.652],[-1.562,51.7],[-1.434,51.705],[-1.369,51.725],[-1.324,51.763],[-1.282,51.759],[-1.242,51.713],[-1.239,51.682],[-1.22,51.65],[-1.17,51.628],[-1.124,51.587],[-1.11,51.525],[-1.069,51.485],[-0.999,51.465],[-0.944,51.479],[-0.903,51.527],[-0.841,51.554],[-0.76,51.56],[-0.715,51.549],[-0.706,51.521],[-0.677,51.504],[-0.604,51.494],[-0.503,51.416],[-0.433,51.392],[-0.36,51.398],[-0.32,51.419],[-0.314,51.455],[-0.245,51.48],[-0.049,51.501],[0.385,51.453],[0.425,51.466]]}},{"type":"Feature","bbox":[42.376566,30.99909,47.441322,37.062493],"properties":{"name":"Tigris","scalerank":4},"geometry":{"type":"LineString","coordinates":[[42.377,37.062],[42.434,36.99],[42.509,36.941],[42.513,36.876],[42.559,36.832],[42.713,36.785],[42.759,36.755],[42.774,36.733],[42.761,36.719],[42.858,36.708],[42.895,36.691],[42.901,36.662],[42.886,36.646],[42.85,36.644],[42.811,36.609],[42.771,36.54],[42.844,36.478],[43.031,36.425],[43.169,36.334],[43.258,36.205],[43.317,36.076],[43.346,35.946],[43.343,35.858],[43.308,35.812],[43.297,35.765],[43.312,35.718],[43.299,35.682],[43.261,35.657],[43.248,35.586],[43.262,35.47],[43.348,35.316],[43.505,35.126],[43.568,35.006],[43.538,34.957],[43.584,34.832],[43.708,34.63],[43.785,34.453],[43.815,34.3],[43.854,34.194],[43.904,34.135],[43.96,34.098],[44.055,34.075],[44.232,34.05],[44.329,34.019],[44.36,34]]}},{"type":"Feature","bbox":[20.061132,45.125773,20.308352,46.260846],"properties":{"name":"Tisza","scalerank":6},"geometry":{"type":"LineString","coordinates":[[20.179,46.261],[20.066,46.138],[20.064,46.117],[20.079,46.076],[20.061,46.029],[20.104,45.969],[20.124,45.922],[20.122,45.89],[20.098,45.873],[20.105,45.834],[20.14,45.778],[20.136,45.742],[20.11,45.724],[20.085,45.689],[20.07,45.632],[20.105,45.563],[20.188,45.483],[20.223,45.431],[20.209,45.407],[20.231,45.349],[20.289,45.256],[20.308,45.192],[20.282,45.126]]}},{"type":"Feature","bbox":[20.066093,46.260846,24.337874,48.41472],"properties":{"name":"Tisza","scalerank":6},"geometry":{"type":"MultiLineString","coordinates":[[[21.346,48.026],[21.182,48.006],[21.103,47.944],[21.057,47.835],[20.871,47.69],[20.546,47.51],[20.4,47.382],[20.434,47.306],[20.426,47.27],[20.377,47.272],[20.306,47.242],[20.214,47.178],[20.175,47.119],[20.189,47.066],[20.218,47.038],[20.155,46.98],[20.144,46.939],[20.125,46.912],[20.066,46.874],[20.08,46.811],[20.166,46.724],[20.192,46.653],[20.157,46.598],[20.163,46.5],[20.207,46.36],[20.217,46.283],[20.179,46.261]],[[24.256,48.322],[24.338,48.294],[24.333,48.234],[24.234,48.083],[24.17,47.955],[24.002,47.936],[23.709,47.983],[23.477,48.049],[23.307,48.136],[23.146,48.155],[22.996,48.106],[22.885,48.091],[22.815,48.111],[22.702,48.107],[22.545,48.078],[22.42,48.095],[22.325,48.159],[22.276,48.244],[22.273,48.35],[22.254,48.407],[22.219,48.415],[22.133,48.374],[21.997,48.284],[21.869,48.222],[21.75,48.186],[21.637,48.17],[21.53,48.175],[21.465,48.146],[21.443,48.082],[21.409,48.045],[21.339,48.026]]]}},{"type":"Feature","bbox":[51.110193,46.943853,59.426275,54.51998],"properties":{"name":"Ural","scalerank":4},"geometry":{"type":"MultiLineString","coordinates":[[[58.631,51.695],[58.628,51.619],[58.659,51.561],[58.723,51.496],[58.751,51.425],[58.744,51.347],[58.713,51.287],[58.657,51.247],[58.527,51.201],[58.325,51.149],[58.209,51.106],[58.181,51.072],[58.045,51.069],[57.801,51.096],[57.536,51.165],[57.248,51.275],[56.906,51.353],[56.51,51.399],[56.224,51.472],[56.049,51.573],[55.877,51.648],[55.709,51.696],[55.456,51.735],[55.119,51.766],[54.65,51.726],[54.047,51.613],[53.667,51.56],[53.511,51.566],[53.406,51.551],[53.35,51.514],[53.227,51.485],[53.038,51.464],[52.903,51.467],[52.82,51.495],[52.728,51.498],[52.626,51.478],[52.554,51.442],[52.512,51.391],[52.428,51.383],[52.301,51.418],[52.225,51.421],[52.199,51.392],[52.128,51.382],[52.012,51.391],[51.941,51.378],[51.916,51.343],[51.769,51.286],[51.499,51.205],[51.395,51.148],[51.364,51.075],[51.316,50.998],[51.221,50.904],[51.183,50.826],[51.201,50.765],[51.189,50.708],[51.148,50.657],[51.136,50.595],[51.154,50.523],[51.15,50.478],[51.121,50.46],[51.116,50.436],[51.133,50.406],[51.131,50.365],[51.11,50.312],[51.156,50.253],[51.269,50.187],[51.329,50.122],[51.341,50.027],[51.32,49.955],[51.347,49.913],[51.416,49.875],[51.471,49.802],[51.512,49.692],[51.558,49.631],[51.594,49.614],[51.636,49.546],[51.707,49.488],[51.739,49.449],[51.744,49.42],[51.76,49.404],[51.828,49.374],[51.848,49.352],[51.847,49.336],[51.884,49.314],[51.916,49.275],[51.948,49.206],[51.936,49.138],[51.881,49.071],[51.85,49.001],[51.841,48.927],[51.854,48.895],[51.88,48.869],[51.876,48.815],[51.804,48.623],[51.776,48.586],[51.73,48.56],[51.667,48.547],[51.625,48.515],[51.606,48.469],[51.603,48.443],[51.61,48.424],[51.635,48.405],[51.633,48.386],[51.602,48.37],[51.589,48.318],[51.592,48.229],[51.584,48.181],[51.569,48.167],[51.582,48.119],[51.64,48.016],[51.654,47.882],[51.623,47.716],[51.674,47.579],[51.806,47.47],[51.879,47.397],[51.895,47.36],[51.892,47.331],[51.872,47.31],[51.877,47.293],[51.908,47.28],[51.927,47.25],[51.934,47.204],[51.884,47.121],[51.724,46.944]],[[59.426,54.52],[59.307,54.403],[59.194,54.325],[59.162,54.278],[59.172,54.236],[59.15,54.175],[59.095,54.093],[59.102,54.012],[59.173,53.932],[59.19,53.863],[59.156,53.805],[59.169,53.746],[59.229,53.686],[59.254,53.64],[59.243,53.61],[59.182,53.573],[59.072,53.531],[59.021,53.464],[59.029,53.374],[59.067,53.307],[59.136,53.265],[59.13,53.217],[59.049,53.165],[58.974,53.071],[58.905,52.936],[58.904,52.811],[58.971,52.697],[58.996,52.62],[58.986,52.6],[58.99,52.569],[59.01,52.546],[59.083,52.513],[59.08,52.47],[59.062,52.42],[58.834,52.196]]]}},{"type":"Feature","bbox":[18.199799,49.643843,21.961016,54.348931],"properties":{"name":"Vistula","scalerank":5},"geometry":{"type":"MultiLineString","coordinates":[[[18.879,49.644],[18.788,49.817],[18.771,49.888],[18.81,49.925]],[[18.937,49.932],[19.068,49.952],[19.141,49.987],[19.2,50.042],[19.348,50.046],[19.586,49.999],[19.852,50.006],[20.522,50.137],[20.645,50.188],[20.738,50.261],[20.883,50.307],[21.082,50.326],[21.289,50.386],[21.505,50.485],[21.67,50.586],[21.784,50.689],[21.824,50.846],[21.79,51.057],[21.784,51.188],[21.805,51.239],[21.856,51.288],[21.935,51.335],[21.961,51.386],[21.933,51.442],[21.897,51.473],[21.854,51.478],[21.83,51.501],[21.824,51.542],[21.732,51.591],[21.553,51.647],[21.452,51.705],[21.43,51.763],[21.371,51.82],[21.276,51.877],[21.241,51.918],[21.265,51.944],[21.259,51.993],[21.221,52.067],[21.126,52.17],[20.974,52.302],[20.842,52.384],[20.731,52.416],[20.524,52.419],[20.222,52.392],[19.964,52.421],[19.64,52.549],[19.202,52.644],[18.959,52.76],[18.766,52.928],[18.538,53.038],[18.274,53.089],[18.2,53.174],[18.315,53.293],[18.463,53.383],[18.645,53.444],[18.739,53.519],[18.745,53.608],[18.777,53.674],[18.835,53.716],[18.871,53.777],[18.884,53.858],[18.873,53.947],[18.839,54.043],[18.853,54.129],[18.916,54.205],[18.976,54.349]]]}},{"type":"Feature","bbox":[32.598248,45.656748,50.148495,58.113146],"properties":{"name":"Volga","scalerank":3},"geometry":{"type":"MultiLineString","coordinates":[[[47.842,46.735],[48.114,46.683],[48.22,46.605],[48.25,46.484],[48.314,46.401],[48.411,46.356],[48.684,46.086]],[[45.664,50.222],[45.49,50.122],[45.414,50.056],[45.379,49.991],[45.361,49.916],[45.36,49.832],[45.305,49.737],[45.198,49.632],[45.107,49.513],[45.011,49.351],[44.99,49.294],[44.976,49.195],[44.842,49.013],[44.588,48.727],[44.544,48.665],[44.528,48.598],[44.596,48.545],[44.865,48.466],[45.043,48.434],[45.129,48.451],[45.228,48.447],[45.337,48.42],[45.411,48.424],[45.449,48.461],[45.559,48.451],[45.798,48.383],[45.865,48.353],[46.078,48.218],[46.155,48.11],[46.147,47.994],[46.193,47.918],[46.295,47.881],[46.35,47.843],[46.359,47.802],[46.409,47.773],[46.498,47.756],[46.616,47.673],[46.764,47.525],[46.875,47.444],[46.948,47.431],[47.009,47.403],[47.057,47.359],[47.082,47.316],[47.086,47.214],[47.212,47.144],[47.463,47.029],[47.585,46.942],[47.577,46.884],[47.612,46.855],[47.69,46.855],[47.8,46.773],[47.942,46.609],[48.002,46.506],[47.981,46.464],[47.98,46.418],[47.998,46.37],[47.916,46.25],[47.735,46.057],[47.641,45.929],[47.636,45.866],[47.561,45.79],[47.563,45.761],[47.631,45.694],[47.65,45.657]],[[49.905,53.457],[50.042,53.455],[50.108,53.405],[50.148,53.306],[50.129,53.236],[50.048,53.193],[49.957,53.185],[49.856,53.213],[49.717,53.203],[49.543,53.156],[49.428,53.152],[49.372,53.193],[49.269,53.219],[49.119,53.23],[48.919,53.209],[48.667,53.155],[48.524,53.105],[48.491,53.057],[48.503,52.995],[48.561,52.919],[48.505,52.816],[48.334,52.688],[48.177,52.506],[48.035,52.271],[47.901,52.125],[47.775,52.066],[47.644,52.043],[47.507,52.055],[47.273,51.981],[47.114,51.919],[46.971,51.83],[46.775,51.748]],[[43.432,56.675],[43.657,56.496],[43.837,56.404],[44.047,56.337],[44.167,56.274],[44.198,56.214],[44.258,56.18],[44.348,56.172],[44.451,56.14],[44.566,56.086],[44.776,56.082],[45.082,56.131],[45.281,56.137],[45.373,56.102],[45.443,56.104],[45.489,56.143],[45.56,56.16],[45.655,56.153],[45.737,56.166],[45.806,56.201],[45.872,56.199],[45.936,56.161],[46.025,56.172],[46.138,56.232],[46.294,56.287],[46.492,56.336],[46.68,56.309],[46.857,56.205],[47.166,56.151],[47.829,56.145],[47.886,56.122],[47.927,56.073],[47.972,55.992],[48.067,55.925],[48.212,55.872],[48.46,55.825],[48.809,55.784],[49.003,55.693],[49.059,55.483]],[[37.148,56.752],[37.392,56.862],[37.477,56.935],[37.486,57.008],[37.558,57.106],[37.761,57.291]],[[32.598,57.25],[32.681,57.079],[32.675,57.009],[32.692,56.972],[32.729,56.945],[32.851,56.932],[33.057,56.933],[33.282,56.899],[33.528,56.829],[33.675,56.765],[33.722,56.707],[33.816,56.641],[33.956,56.565],[33.98,56.509],[33.886,56.473],[33.844,56.445],[33.857,56.423],[34.05,56.357],[34.424,56.245],[34.668,56.209],[34.784,56.247],[34.862,56.29],[34.903,56.337],[34.909,56.369],[34.88,56.385],[34.891,56.416],[34.94,56.459],[34.956,56.503],[34.937,56.546],[35.001,56.578],[35.223,56.613],[35.334,56.703],[35.422,56.742],[35.523,56.76],[35.607,56.791],[35.672,56.835],[35.773,56.861],[35.908,56.867],[36.066,56.846],[36.245,56.799],[36.344,56.758],[36.375,56.706]],[[41.344,57.493],[41.715,57.448],[41.889,57.451],[41.989,57.489],[42.173,57.485],[42.576,57.415]],[[40.007,57.567],[39.853,57.669],[39.798,57.725],[39.79,57.77],[39.697,57.831],[39.517,57.909],[39.246,57.99],[38.704,58.113]],[[38.301,57.572],[38.446,57.761],[38.48,57.872],[38.437,58.018]]]}},{"type":"Feature","bbox":[10.945048,59.170859,12.054903,60.524833],"properties":{"name":"Vorma","scalerank":6},"geometry":{"type":"MultiLineString","coordinates":[[[11.17,59.389],[11.141,59.3],[11.083,59.249],[10.945,59.171]],[[11.2,59.67],[11.179,59.632],[11.127,59.604],[11.127,59.562],[11.203,59.498]],[[12.028,60.525],[12.055,60.492],[12.048,60.411],[12.017,60.27],[11.925,60.212],[11.774,60.236],[11.641,60.228],[11.527,60.186],[11.385,60.102],[11.192,59.956],[11.157,59.911]]]}},{"type":"Feature","bbox":[28.787835,60.574184,30.533878,61.204171],"properties":{"name":"Vuoksi","scalerank":6},"geometry":{"type":"MultiLineString","coordinates":[[[30.478,60.574],[30.504,60.587],[30.511,60.616],[30.534,60.63]],[[28.788,61.204],[28.822,61.129],[29.095,60.952],[29.288,60.849],[29.596,60.717]]]}},{"type":"Feature","bbox":[46.591089,61.287319,55.397684,62.509725],"properties":{"name":"Vychegda","scalerank":5},"geometry":{"type":"MultiLineString","coordinates":[[[53.691,61.65],[53.653,61.686],[53.651,61.713],[53.673,61.744],[53.635,61.775],[53.539,61.807],[53.438,61.809],[53.333,61.782],[53.25,61.79],[53.19,61.833],[53.034,61.865],[52.658,61.897],[52.583,61.931],[52.452,61.939],[52.241,61.933],[52.076,61.915],[51.956,61.883],[51.894,61.854],[51.889,61.828],[51.779,61.823],[51.564,61.84],[51.307,61.815],[50.877,61.719],[50.803,61.751],[50.766,61.875],[50.762,61.966],[50.7,62.005],[50.546,62.017],[50.313,62.001],[50.242,62.041],[50.247,62.077],[50.343,62.167],[50.331,62.208],[50.259,62.221],[50.081,62.218],[49.866,62.174],[49.611,62.088],[49.379,62.074],[49.168,62.131],[48.902,62.098],[48.581,61.977],[48.4,61.879],[48.359,61.804],[48.235,61.709],[48.028,61.594],[47.802,61.495],[47.557,61.411],[47.222,61.347],[46.591,61.287]],[[55.398,62.362],[55.183,62.438],[55.015,62.438],[54.908,62.462],[54.805,62.51],[54.727,62.506],[54.676,62.45],[54.568,62.422],[54.402,62.422],[54.297,62.397],[54.252,62.347],[54.223,62.298],[54.211,62.252],[54.236,62.165],[54.298,62.036],[54.394,61.944],[54.524,61.889],[54.662,61.858],[54.809,61.848],[54.891,61.797],[54.908,61.703],[54.905,61.648],[54.882,61.631],[54.126,61.532],[53.829,61.539],[53.684,61.65]]]}},{"type":"Feature","bbox":[3.97891,51.718962,4.98536,51.847792],"properties":{"name":"Waal","scalerank":4},"geometry":{"type":"LineString","coordinates":[[4.985,51.824],[4.581,51.719],[4.418,51.74],[4.074,51.841],[3.979,51.848]]}},{"type":"Feature","bbox":[-0.567221,43.41527,1.454465,45.000587],"properties":{"name":"Garonne","scalerank":6},"geometry":{"type":"LineString","coordinates":[[1.454,43.415],[1.409,43.514],[1.409,43.588],[1.361,43.689],[1.22,43.881],[1.082,44.031],[0.861,44.126],[0.509,44.215],[0.323,44.295],[0.304,44.366],[0.255,44.422],[0.003,44.561],[-0.102,44.587],[-0.224,44.588],[-0.343,44.636],[-0.534,44.796],[-0.562,44.83],[-0.567,44.86],[-0.542,44.898],[-0.536,44.952],[-0.548,45.001]]}},{"type":"Feature","bbox":[-1.742524,44.774673,4.255761,47.894183],"properties":{"name":"Loire","scalerank":5},"geometry":{"type":"MultiLineString","coordinates":[[[3.083,46.985],[3.022,47.149],[2.916,47.287],[2.893,47.363],[2.917,47.423],[2.883,47.499],[2.789,47.59],[2.614,47.691],[2.36,47.804],[2.145,47.871],[1.971,47.894],[1.845,47.893],[1.769,47.866],[1.608,47.764],[1.364,47.587],[1.158,47.474],[0.99,47.425],[0.815,47.396],[0.635,47.386],[0.428,47.341],[0.207,47.244],[0.075,47.218],[-0.038,47.249],[-0.216,47.364],[-0.418,47.402],[-0.731,47.371],[-1.056,47.375],[-1.249,47.336],[-1.417,47.258],[-1.559,47.216],[-1.633,47.202],[-1.743,47.216]],[[3.083,46.985],[3.168,46.977],[3.249,46.952],[3.329,46.846],[3.49,46.829],[3.625,46.74],[3.724,46.639],[3.749,46.558],[3.984,46.46],[3.99,46.379],[4.039,46.238],[4.101,46.166],[4.101,46.063],[4.033,45.977],[4.052,45.925],[4.157,45.852],[4.213,45.745],[4.219,45.628],[4.256,45.477],[4.2,45.368],[4.132,45.307],[4.083,45.238],[3.953,45.199],[3.91,45.116],[3.922,45.037],[3.904,44.972],[3.928,44.871],[4.169,44.775],[4.2,44.823]]]}}],"metadata":{"source":"Natural Earth","sourceUrl":"https://github.com/nvkelso/natural-earth-vector","license":"Public Domain (Natural Earth)","commit":"ca96624a56bd078437bca8184e78163e5039ad19","borderPrecision":"現代地形の簡略化（歴史的境界ではない）"}}