{"type":"FeatureCollection","features":[{"type":"Feature","properties":{"NAME":"County of Barcelona","ADMIN_LEVEL":4,"OHM_RELATION_ID":2739884,"START_DATE":"0950","END_DATE":"1050"},"geometry":{"type":"MultiPolygon","coordinates":[[[[1.799,41.608],[1.74,41.609],[1.738,41.6],[1.748,41.592],[1.717,41.57],[1.674,41.585],[1.639,41.549],[1.543,41.531],[1.527,41.542],[1.512,41.525],[1.429,41.499],[1.455,41.487],[1.376,41.463],[1.338,41.443],[1.336,41.429],[1.349,41.427],[1.355,41.404],[1.365,41.398],[1.405,41.394],[1.408,41.403],[1.424,41.401],[1.414,41.374],[1.487,41.382],[1.513,41.394],[1.538,41.384],[1.549,41.37],[1.568,41.369],[1.577,41.355],[1.559,41.342],[1.574,41.316],[1.591,41.312],[1.59,41.294],[1.607,41.286],[1.628,41.296],[1.622,41.259],[1.611,41.251],[1.576,41.259],[1.581,41.238],[1.621,41.223],[1.644,41.235],[1.65,41.216],[1.642,41.21],[1.647,41.157],[1.744,41.17],[1.821,41.197],[1.866,41.198],[1.95,41.226],[2.059,41.234],[2.152,41.264],[2.211,41.318],[2.24,41.365],[2.298,41.43],[2.407,41.464],[2.49,41.512],[2.553,41.536],[2.519,41.595],[2.498,41.604],[2.496,41.624],[2.525,41.626],[2.55,41.66],[2.593,41.661],[2.608,41.675],[2.589,41.697],[2.601,41.713],[2.598,41.728],[2.542,41.721],[2.516,41.75],[2.519,41.763],[2.47,41.778],[2.472,41.789],[2.446,41.787],[2.442,41.8],[2.428,41.804],[2.333,41.806],[2.298,41.797],[2.262,41.766],[2.235,41.774],[2.177,41.756],[2.166,41.741],[2.132,41.729],[2.133,41.716],[2.05,41.711],[2.033,41.716],[2.004,41.676],[2.01,41.658],[1.978,41.65],[1.979,41.639],[1.947,41.608],[1.891,41.584],[1.848,41.581],[1.799,41.608]]]]}},{"type":"Feature","properties":{"NAME":"Papal States","ADMIN_LEVEL":2,"OHM_RELATION_ID":2889237,"START_DATE":"0988","END_DATE":"1020"},"geometry":{"type":"MultiPolygon","coordinates":[[[[10.789,44.143],[10.827,44.132],[10.865,44.133],[10.888,44.102],[10.914,44.1],[10.995,44.16],[11.043,44.155],[11.051,44.136],[11.034,44.104],[11.036,44.079],[11.077,44.079],[11.142,44.118],[11.212,44.121],[11.237,44.059],[11.352,44.061],[11.4,44.05],[11.484,43.987],[11.544,43.968],[11.711,43.962],[11.763,43.934],[11.795,43.899],[11.853,43.899],[11.906,43.862],[11.993,43.845],[12.059,43.864],[12.124,43.864],[12.159,43.843],[12.16,43.788],[12.104,43.71],[12.119,43.665],[12.229,43.602],[12.237,43.58],[12.283,43.597],[12.313,43.592],[12.334,43.568],[12.329,43.504],[12.449,43.446],[12.329,43.36],[12.363,43.332],[12.408,43.311],[12.425,43.271],[12.472,43.306],[12.537,43.267],[12.57,43.271],[12.571,43.27],[12.621,43.291],[12.649,43.29],[12.701,43.319],[12.712,43.36],[12.694,43.403],[12.719,43.432],[12.781,43.445],[12.815,43.487],[12.859,43.487],[12.862,43.433],[12.934,43.423],[12.949,43.428],[12.971,43.418],[13.018,43.412],[13.034,43.391],[13.035,43.39],[13.119,43.433],[13.144,43.423],[13.155,43.408],[13.164,43.412],[13.251,43.408],[13.407,43.379],[13.452,43.379],[13.558,43.398],[13.637,43.493],[13.677,43.509],[13.678,43.559],[13.657,43.581],[13.616,43.6],[13.569,43.647],[13.541,43.66],[13.499,43.67],[13.457,43.651],[13.319,43.71],[13.168,43.803],[13.061,43.88],[13.022,43.894],[12.941,43.954],[12.81,44.003],[12.741,44.008],[12.722,44.017],[12.606,44.11],[12.559,44.128],[12.435,44.238],[12.408,44.283],[12.367,44.415],[12.341,44.47],[12.333,44.515],[12.335,44.604],[12.293,44.699],[12.304,44.76],[12.393,44.746],[12.446,44.77],[12.4,44.792],[12.297,44.954],[12.262,44.962],[12.236,45.009],[12.167,45.026],[12.145,45.017],[12.15,45.101],[12.104,45.127],[11.922,45.151],[11.775,45.136],[11.545,45.166],[11.489,45.149],[11.367,45.062],[11.426,45.059],[11.448,45.047],[11.51,45.045],[11.51,45.015],[11.632,45.005],[11.727,44.976],[11.772,44.983],[11.809,44.969],[11.816,44.935],[11.898,44.932],[11.93,44.914],[11.911,44.881],[11.911,44.775],[11.808,44.72],[11.797,44.637],[11.676,44.656],[11.643,44.683],[11.622,44.681],[11.604,44.703],[11.586,44.704],[11.546,44.732],[11.501,44.743],[11.467,44.792],[11.419,44.823],[11.327,44.853],[11.312,44.869],[11.295,44.865],[11.309,44.847],[11.266,44.831],[11.246,44.812],[11.201,44.813],[11.189,44.801],[11.197,44.659],[11.171,44.605],[11.147,44.605],[11.113,44.628],[11.081,44.608],[11.096,44.575],[11.068,44.519],[11.07,44.473],[11.041,44.468],[11.01,44.401],[11.037,44.39],[11.038,44.329],[10.946,44.214],[10.915,44.255],[10.881,44.252],[10.789,44.143]],[[12.416,43.934],[12.432,43.944],[12.445,43.942],[12.456,43.93],[12.454,43.917],[12.428,43.917],[12.416,43.934]]],[[[11.034,42.433],[11.036,42.395],[11.061,42.365],[11.132,42.325],[11.21,42.328],[11.261,42.371],[11.305,42.367],[11.461,42.331],[11.523,42.308],[11.598,42.265],[11.652,42.212],[11.696,42.124],[11.797,42.002],[11.833,41.99],[11.905,41.996],[11.95,41.964],[11.991,41.952],[12.012,41.929],[12.104,41.888],[12.159,41.804],[12.18,41.72],[12.32,41.665],[12.395,41.616],[12.496,41.525],[12.569,41.433],[12.599,41.409],[12.625,41.405],[12.674,41.413],[12.732,41.379],[12.774,41.372],[12.838,41.374],[12.874,41.405],[12.92,41.413],[13.06,41.407],[13.25,41.419],[13.306,41.396],[13.4,41.418],[13.415,41.49],[13.511,41.487],[13.542,41.509],[13.553,41.525],[13.548,41.548],[13.604,41.619],[13.566,41.644],[13.548,41.672],[13.512,41.779],[13.432,41.824],[13.421,41.833],[13.4,41.835],[13.386,41.851],[13.388,41.864],[13.326,41.919],[13.142,42.012],[13.129,42.033],[13.06,42.034],[12.978,42.052],[12.988,42.084],[13.026,42.132],[13.013,42.158],[12.965,42.135],[12.884,42.144],[12.883,42.276],[12.844,42.299],[12.785,42.287],[12.732,42.325],[12.684,42.334],[12.662,42.374],[12.653,42.409],[12.646,42.413],[12.606,42.423],[12.512,42.382],[12.455,42.398],[12.437,42.462],[12.502,42.539],[12.575,42.56],[12.602,42.688],[12.596,42.728],[12.552,42.762],[12.584,42.81],[12.583,42.818],[12.532,42.817],[12.524,42.894],[12.467,42.898],[12.452,42.916],[12.437,42.916],[12.408,42.929],[12.391,42.913],[12.309,42.912],[12.24,42.948],[12.187,42.95],[12.086,42.906],[12.045,42.931],[12.026,42.921],[11.99,42.936],[11.949,42.934],[11.93,42.922],[11.928,42.905],[11.916,42.892],[11.863,42.889],[11.82,42.876],[11.798,42.845],[11.771,42.826],[11.742,42.834],[11.693,42.881],[11.735,42.928],[11.72,42.939],[11.582,42.922],[11.547,42.869],[11.472,42.853],[11.427,42.834],[11.38,42.771],[11.328,42.743],[11.243,42.746],[11.238,42.732],[11.211,42.73],[11.166,42.648],[11.04,42.594],[11.08,42.537],[11.11,42.518],[11.136,42.513],[11.139,42.502],[11.136,42.482],[11.082,42.483],[11.053,42.463],[11.034,42.433]]]]}},{"type":"Feature","properties":{"NAME":"San Marino","ADMIN_LEVEL":4,"OHM_RELATION_ID":2692719,"START_DATE":"0301-09-03","END_DATE":"1100"},"geometry":{"type":"MultiPolygon","coordinates":[[[[12.454,43.917],[12.456,43.93],[12.445,43.942],[12.432,43.944],[12.416,43.934],[12.428,43.917],[12.454,43.917]]]]}}],"metadata":{"generatedBy":"scripts/build-fief-flat.ts","input":"data/sovereign_fiefs_1000.geojson","year":1000,"cutPolicy":"keep-smaller","containmentCoverageThreshold":0.9,"minOverlapAreaM2":1000,"sliverAreaLimitM2":1000000000,"resolutions":[{"kind":"containment","cutName":"Papal States","keptName":"San Marino","overlapKm2":6.98,"coverageOfSmaller":1}],"externalInputs":["data/france_fiefs_flat_1000.geojson","data/italy_fiefs_flat_1000.geojson","data/hre_fiefs_flat_1000.geojson","data/cliopatria_fiefs_flat_1000.geojson","data/britain_fiefs_flat_1000.geojson"],"externalRemovals":[{"cutName":"Papal States","externalName":"Duchy of Spoleto","overlapKm2":617.31},{"cutName":"Papal States","externalName":"March of Tuscany","overlapKm2":1310.1}],"source":"OpenHistoricalMap","sourceUrl":"https://www.openhistoricalmap.org/","license":"CC0-1.0","borderPrecision":"史料に基づく復元（概略。測量された境界ではない）"}}