{"type":"FeatureCollection","features":[{"type":"Feature","properties":{"NAME":"Grand Duchy of Moscow","ADMIN_LEVEL":2,"OHM_RELATION_ID":2890623,"START_DATE":"1392","END_DATE":"1478"},"geometry":{"type":"MultiPolygon","coordinates":[[[[42.72,54.661],[42.704,54.896],[42.572,55.254],[42.517,55.634],[42.649,55.9],[42.935,56.194],[43.198,56.511],[43.374,56.759],[43.385,57.011],[43.352,57.291],[43.451,57.486],[43.824,57.751],[44.198,57.932],[43.572,57.979],[42.737,57.956],[42.396,57.967],[41.902,58.084],[42.407,58.488],[43.978,59.159],[44.725,59.579],[45.087,59.866],[44.523,59.859],[42.169,60.142],[41.215,60.312],[40.798,60.437],[40.381,60.693],[39.531,60.904],[38.921,60.998],[38.175,61.013],[36.7,60.875],[36.074,60.73],[35.687,60.657],[35.523,60.496],[35.598,60.26],[35.836,60.045],[36.417,58.856],[36.522,58.609],[36.673,58.216],[36.612,58.11],[37.095,57.823],[37.524,57.637],[37.952,57.492],[38.331,57.401],[38.128,57.276],[37.936,57.145],[37.782,57.029],[37.661,56.864],[37.535,56.659],[37.469,56.584],[37.397,56.55],[37.266,56.553],[37.106,56.596],[36.985,56.656],[36.799,56.668],[36.573,56.572],[36.293,56.298],[36.085,56.173],[35.837,56.164],[35.42,56.237],[35.041,56.292],[34.909,56.286],[34.761,56.146],[34.695,56.063],[34.568,55.945],[34.964,55.854],[35.313,55.637],[35.969,55.273],[36.178,54.997],[36.398,54.572],[36.486,54.368],[36.76,54.317],[37.167,54.553],[37.573,54.775],[38.386,54.99],[39.529,55.266],[39.644,55.213],[39.985,55.116],[40.474,54.959],[40.891,54.807],[41.468,54.74],[42.138,54.687],[42.72,54.661]]]]}}],"metadata":{"generatedBy":"scripts/build-fief-flat.ts","input":"data/sovereign_fiefs_1400.geojson","year":1400,"cutPolicy":"keep-smaller","containmentCoverageThreshold":0.9,"minOverlapAreaM2":1000,"sliverAreaLimitM2":1000000000,"resolutions":[],"externalInputs":["data/italy_fiefs_flat_1400.geojson","data/hre_fiefs_flat_1400.geojson","data/cliopatria_fiefs_flat_1400.geojson","data/britain_fiefs_flat_1400.geojson"],"externalRemovals":[],"source":"OpenHistoricalMap","sourceUrl":"https://www.openhistoricalmap.org/","license":"CC0-1.0","borderPrecision":"史料に基づく復元（概略。測量された境界ではない）"}}