{"type":"FeatureCollection","features":[{"type":"Feature","properties":{"NAME":"Duchy of Athens","ADMIN_LEVEL":4,"OHM_RELATION_ID":2809440,"START_DATE":"1205","END_DATE":"1458"},"geometry":{"type":"MultiPolygon","coordinates":[[[[23.316,37.845],[23.339,37.824],[23.361,37.77],[23.414,37.729],[23.397,37.69],[23.399,37.674],[23.462,37.634],[23.478,37.631],[23.526,37.642],[23.566,37.666],[23.613,37.746],[23.617,37.776],[23.602,37.799],[23.577,37.811],[23.533,37.815],[23.504,37.848],[23.546,37.862],[23.58,37.892],[23.596,37.896],[23.668,37.88],[23.709,37.794],[23.701,37.781],[23.703,37.755],[23.725,37.73],[23.755,37.721],[23.789,37.727],[23.82,37.762],[23.834,37.763],[23.85,37.743],[23.841,37.706],[23.849,37.686],[23.886,37.665],[23.883,37.648],[23.895,37.622],[23.932,37.603],[23.966,37.602],[23.997,37.613],[24.033,37.607],[24.062,37.616],[24.105,37.603],[24.135,37.61],[24.155,37.628],[24.199,37.702],[24.207,37.74],[24.182,37.785],[24.138,37.798],[24.132,37.815],[24.113,37.832],[24.096,37.927],[24.066,37.96],[24.078,37.974],[24.084,37.999],[24.055,38.047],[24.048,38.082],[24.09,38.091],[24.108,38.109],[24.123,38.17],[24.12,38.191],[24.079,38.212],[24.033,38.285],[23.944,38.338],[23.648,38.388],[23.634,38.414],[23.581,38.451],[23.601,38.487],[23.593,38.52],[23.569,38.537],[23.508,38.542],[23.446,38.565],[23.387,38.646],[23.366,38.663],[23.104,38.789],[23.012,38.799],[22.974,38.757],[22.947,38.749],[22.574,38.706],[22.516,38.678],[22.483,38.599],[22.398,38.468],[22.399,38.451],[22.427,38.418],[22.456,38.346],[22.449,38.279],[22.423,38.249],[22.535,38.212],[22.635,38.205],[22.683,38.191],[22.72,38.171],[22.749,38.146],[22.801,38.031],[22.815,38.013],[22.86,37.989],[22.96,37.952],[23.013,37.915],[23.083,37.889],[23.134,37.886],[23.178,37.893],[23.197,37.869],[23.2,37.844],[23.259,37.868],[23.293,37.862],[23.316,37.845]]]]}},{"type":"Feature","properties":{"NAME":"Principality of Achaea","ADMIN_LEVEL":2,"OHM_RELATION_ID":2809441,"START_DATE":"1205","END_DATE":"1432"},"geometry":{"type":"MultiPolygon","coordinates":[[[[22.118,38.308],[22.095,38.307],[21.978,38.351],[21.901,38.349],[21.85,38.358],[21.748,38.31],[21.568,38.254],[21.52,38.246],[21.378,38.273],[21.343,38.264],[21.345,38.256],[21.327,38.241],[21.317,38.215],[21.315,38.141],[21.294,38.118],[21.264,38.056],[21.22,38.005],[21.175,37.975],[21.157,37.983],[21.123,37.984],[21.081,37.961],[21.055,37.887],[21.053,37.842],[21.064,37.822],[21.085,37.806],[21.194,37.776],[21.25,37.745],[21.26,37.708],[21.249,37.682],[21.252,37.635],[21.267,37.609],[21.283,37.597],[21.317,37.59],[21.364,37.615],[21.378,37.608],[21.514,37.524],[21.571,37.464],[21.611,37.403],[21.644,37.319],[21.629,37.291],[21.562,37.246],[21.531,37.214],[21.513,37.171],[21.522,37.098],[21.495,37.08],[21.486,37.062],[21.488,37.044],[21.515,37.002],[21.546,36.991],[21.572,36.995],[21.602,36.967],[21.601,36.938],[21.651,36.808],[21.64,36.782],[21.638,36.738],[21.651,36.712],[21.668,36.7],[21.703,36.695],[21.757,36.659],[21.794,36.658],[21.811,36.665],[21.829,36.686],[21.852,36.654],[21.883,36.647],[21.915,36.654],[21.938,36.674],[21.942,36.708],[21.969,36.727],[22.019,36.785],[22.015,36.814],[21.985,36.835],[21.978,36.863],[21.987,36.963],[22.049,36.984],[22.092,36.982],[22.073,36.913],[22.076,36.9],[22.087,36.885],[22.132,36.858],[22.163,36.848],[22.193,36.849],[22.214,36.816],[22.247,36.79],[22.253,36.752],[22.273,36.735],[22.308,36.671],[22.319,36.573],[22.293,36.524],[22.298,36.495],[22.318,36.462],[22.35,36.436],[22.408,36.422],[22.421,36.387],[22.445,36.355],[22.494,36.343],[22.523,36.356],[22.552,36.387],[22.557,36.482],[22.554,36.505],[22.531,36.536],[22.534,36.564],[22.56,36.579],[22.601,36.635],[22.604,36.662],[22.594,36.693],[22.627,36.721],[22.629,36.757],[22.651,36.764],[22.741,36.763],[22.762,36.716],[22.751,36.679],[22.758,36.654],[22.785,36.622],[22.819,36.612],[22.85,36.577],[22.883,36.561],[22.903,36.527],[22.876,36.5],[22.873,36.461],[22.885,36.439],[22.919,36.42],[22.88,36.404],[22.837,36.319],[22.847,36.295],[22.861,36.283],[22.861,36.265],[22.848,36.23],[22.856,36.193],[22.902,36.13],[22.944,36.109],[22.944,36.083],[22.958,36.062],[22.993,36.048],[23.013,36.05],[23.033,36.058],[23.053,36.087],[23.094,36.11],[23.111,36.145],[23.101,36.176],[23.15,36.188],[23.172,36.23],[23.161,36.263],[23.115,36.308],[23.033,36.346],[22.993,36.412],[23.032,36.43],[23.064,36.402],[23.122,36.385],[23.212,36.394],[23.248,36.419],[23.254,36.457],[23.239,36.483],[23.198,36.515],[23.206,36.534],[23.194,36.563],[23.158,36.594],[23.115,36.61],[23.082,36.649],[23.104,36.666],[23.112,36.692],[23.138,36.718],[23.144,36.738],[23.157,36.752],[23.163,36.782],[23.142,36.81],[23.132,36.845],[23.103,36.865],[23.073,36.937],[23.059,36.983],[23.058,37.028],[23.038,37.067],[23.035,37.094],[22.999,37.143],[22.955,37.161],[22.964,37.199],[22.907,37.294],[22.881,37.32],[22.872,37.347],[22.826,37.397],[22.824,37.434],[22.787,37.493],[22.839,37.465],[22.916,37.447],[22.917,37.416],[22.944,37.392],[22.976,37.387],[23.01,37.394],[23.015,37.338],[23.033,37.319],[23.057,37.31],[23.038,37.279],[23.058,37.239],[23.091,37.206],[23.153,37.175],[23.181,37.172],[23.214,37.182],[23.231,37.203],[23.232,37.227],[23.222,37.252],[23.237,37.229],[23.271,37.218],[23.308,37.225],[23.334,37.248],[23.358,37.24],[23.391,37.243],[23.401,37.226],[23.429,37.211],[23.457,37.21],[23.491,37.225],[23.504,37.25],[23.5,37.273],[23.538,37.286],[23.556,37.309],[23.602,37.323],[23.631,37.352],[23.631,37.38],[23.621,37.393],[23.587,37.409],[23.598,37.431],[23.599,37.453],[23.571,37.481],[23.584,37.497],[23.586,37.525],[23.56,37.555],[23.538,37.564],[23.533,37.579],[23.512,37.596],[23.465,37.6],[23.462,37.634],[23.399,37.674],[23.397,37.69],[23.414,37.729],[23.361,37.77],[23.339,37.824],[23.306,37.855],[23.259,37.868],[23.2,37.844],[23.197,37.869],[23.179,37.893],[23.134,37.886],[23.059,37.895],[23.007,37.918],[22.96,37.952],[22.832,38],[22.801,38.031],[22.749,38.146],[22.683,38.191],[22.635,38.205],[22.535,38.212],[22.423,38.249],[22.167,38.282],[22.118,38.308]]]]}}],"metadata":{"source":"OpenHistoricalMap","sourceUrl":"https://www.openhistoricalmap.org/","license":"CC0-1.0","year":1300,"featureCount":2,"missingWays":{},"unclosedRings":{},"droppedInnerRings":{},"tagDrift":{},"relationsWithoutGeometry":[],"borderPrecision":"史料に基づく復元（概略。測量された境界ではない）"}}