{"type":"FeatureCollection","features":[{"type":"Feature","properties":{"NAME":"County of Barcelona","ADMIN_LEVEL":4,"OHM_RELATION_ID":2739885,"START_DATE":"1050","END_DATE":"1150"},"geometry":{"type":"MultiPolygon","coordinates":[[[[1.647,41.157],[1.744,41.17],[1.821,41.197],[1.866,41.198],[1.95,41.226],[2.059,41.234],[2.152,41.264],[2.211,41.318],[2.24,41.365],[2.298,41.43],[2.407,41.464],[2.49,41.512],[2.553,41.536],[2.519,41.595],[2.498,41.604],[2.496,41.624],[2.525,41.626],[2.55,41.66],[2.593,41.661],[2.608,41.675],[2.589,41.697],[2.601,41.713],[2.598,41.728],[2.542,41.721],[2.516,41.75],[2.519,41.763],[2.47,41.778],[2.472,41.789],[2.446,41.787],[2.442,41.8],[2.317,41.804],[2.298,41.797],[2.262,41.766],[2.235,41.774],[2.177,41.756],[2.166,41.741],[2.132,41.729],[2.133,41.716],[2.05,41.711],[2.033,41.716],[2.004,41.676],[2.01,41.658],[1.978,41.65],[1.979,41.639],[1.947,41.608],[1.891,41.584],[1.86,41.578],[1.799,41.608],[1.74,41.609],[1.738,41.6],[1.748,41.592],[1.717,41.57],[1.674,41.585],[1.639,41.549],[1.543,41.531],[1.527,41.542],[1.512,41.525],[1.429,41.499],[1.455,41.487],[1.376,41.463],[1.338,41.443],[1.336,41.429],[1.33,41.428],[1.321,41.449],[1.327,41.47],[1.321,41.495],[1.292,41.488],[1.274,41.499],[1.254,41.48],[1.237,41.475],[1.209,41.472],[1.195,41.491],[1.08,41.464],[1.026,41.41],[1.001,41.404],[0.997,41.395],[1.013,41.386],[1.012,41.358],[1.001,41.347],[1.004,41.327],[1.063,41.325],[1.147,41.304],[1.127,41.291],[1.136,41.27],[1.101,41.274],[1.104,41.259],[1.139,41.257],[1.159,41.239],[1.154,41.231],[1.179,41.221],[1.178,41.204],[1.145,41.167],[1.189,41.135],[1.184,41.112],[1.165,41.106],[1.23,41.058],[1.256,41.062],[1.313,41.091],[1.347,41.087],[1.417,41.098],[1.482,41.129],[1.538,41.144],[1.647,41.157]]]]}},{"type":"Feature","properties":{"NAME":"San Marino","ADMIN_LEVEL":4,"OHM_RELATION_ID":2692732,"START_DATE":"1100","END_DATE":"1243"},"geometry":{"type":"MultiPolygon","coordinates":[[[[12.454,43.917],[12.484,43.932],[12.458,43.945],[12.465,43.958],[12.462,43.969],[12.447,43.966],[12.435,43.948],[12.427,43.95],[12.429,43.938],[12.416,43.934],[12.428,43.917],[12.454,43.917]]]]}}],"metadata":{"source":"OpenHistoricalMap","sourceUrl":"https://www.openhistoricalmap.org/","license":"CC0-1.0","year":1100,"featureCount":2,"missingWays":{},"unclosedRings":{},"droppedInnerRings":{},"tagDrift":{},"relationsWithoutGeometry":[],"borderPrecision":"史料に基づく復元（概略。測量された境界ではない）"}}