{"type":"FeatureCollection","features":[{"type":"Feature","properties":{"NAME":"Andorra","ADMIN_LEVEL":2,"OHM_RELATION_ID":2739874,"START_DATE":"1278","END_DATE":null},"geometry":{"type":"MultiPolygon","coordinates":[[[[1.787,42.574],[1.731,42.588],[1.728,42.601],[1.736,42.618],[1.715,42.615],[1.683,42.625],[1.66,42.621],[1.637,42.63],[1.6,42.626],[1.549,42.656],[1.516,42.646],[1.48,42.651],[1.468,42.631],[1.473,42.61],[1.445,42.604],[1.427,42.586],[1.444,42.569],[1.423,42.556],[1.414,42.537],[1.451,42.54],[1.465,42.508],[1.42,42.485],[1.439,42.477],[1.448,42.46],[1.443,42.444],[1.452,42.437],[1.517,42.429],[1.552,42.433],[1.56,42.458],[1.579,42.45],[1.599,42.467],[1.655,42.467],[1.667,42.5],[1.711,42.492],[1.726,42.505],[1.74,42.557],[1.787,42.574]]]]}},{"type":"Feature","properties":{"NAME":"Liechtenstein","ADMIN_LEVEL":2,"OHM_RELATION_ID":2746467,"START_DATE":"1806-07-12","END_DATE":"1960-03-17"},"geometry":{"type":"MultiPolygon","coordinates":[[[[9.623,47.108],[9.632,47.125],[9.626,47.146],[9.607,47.148],[9.579,47.171],[9.569,47.17],[9.581,47.207],[9.556,47.223],[9.564,47.246],[9.534,47.268],[9.486,47.184],[9.512,47.132],[9.519,47.097],[9.513,47.085],[9.475,47.067],[9.476,47.052],[9.541,47.064],[9.56,47.049],[9.606,47.061],[9.611,47.083],[9.625,47.09],[9.623,47.108]]]]}},{"type":"Feature","properties":{"NAME":"Monaco","ADMIN_LEVEL":2,"OHM_RELATION_ID":2693418,"START_DATE":"1861-02-02","END_DATE":null},"geometry":{"type":"MultiPolygon","coordinates":[[[[7.437,43.752],[7.409,43.73],[7.419,43.725],[7.433,43.689],[7.439,43.689],[7.467,43.705],[7.453,43.742],[7.437,43.752]]]]}},{"type":"Feature","properties":{"NAME":"San Marino","ADMIN_LEVEL":2,"OHM_RELATION_ID":2853735,"START_DATE":"1740-02-05","END_DATE":null},"geometry":{"type":"MultiPolygon","coordinates":[[[[12.478,43.897],[12.488,43.898],[12.493,43.917],[12.515,43.939],[12.506,43.958],[12.515,43.99],[12.404,43.949],[12.415,43.929],[12.408,43.921],[12.411,43.901],[12.443,43.906],[12.453,43.895],[12.478,43.897]]]]}}],"metadata":{"generatedBy":"scripts/build-fief-flat.ts","input":"data/sovereign_fiefs_1914.geojson","year":1914,"cutPolicy":"keep-smaller","containmentCoverageThreshold":0.9,"minOverlapAreaM2":1000,"sliverAreaLimitM2":1000000000,"resolutions":[],"source":"OpenHistoricalMap","sourceUrl":"https://www.openhistoricalmap.org/","license":"CC0-1.0","borderPrecision":"史料に基づく復元（概略。測量された境界ではない）"}}