{"type":"FeatureCollection","features":[{"type":"Feature","properties":{"NAME":"Serbia","ADMIN_LEVEL":2,"OHM_RELATION_ID":2836150,"START_DATE":"1000","END_DATE":"1216"},"geometry":{"type":"MultiPolygon","coordinates":[[[[16.947,43.295],[17.076,43.179],[17.182,43.151],[17.251,43.101],[17.298,43.083],[17.316,43.059],[17.366,43.02],[17.541,42.929],[18.141,42.587],[18.138,42.569],[18.16,42.543],[18.338,42.458],[18.396,42.411],[18.437,42.402],[18.491,42.363],[18.546,42.354],[18.596,42.328],[18.653,42.324],[18.669,42.295],[18.747,42.235],[18.773,42.228],[18.816,42.234],[18.849,42.222],[18.869,42.193],[18.91,42.171],[18.976,42.104],[19.017,42.095],[19.018,42.078],[19.03,42.062],[19.086,42.025],[19.087,41.97],[19.101,41.935],[19.118,41.918],[19.206,41.874],[19.281,41.853],[19.339,41.813],[19.371,41.842],[20.105,41.984],[20.863,42.172],[21.237,42.423],[21.335,42.828],[21.511,42.812],[21.259,43.069],[21.072,43.117],[21.028,43.253],[21.27,43.269],[21.434,43.293],[21.456,43.477],[21.39,43.747],[21.237,44.032],[21.105,44.182],[20.741,44.389],[20.639,44.505],[20.309,44.722],[20.278,44.673],[20.145,44.7],[19.944,44.632],[19.682,44.794],[19.756,44.909],[19.447,44.975],[19.297,44.879],[18.902,44.833],[18.622,45.085],[18.015,45.114],[17.943,45.081],[18.023,44.973],[17.869,44.786],[17.391,44.536],[17.166,44.508],[17.177,44.383],[17.303,44.159],[17.512,43.949],[17.573,43.819],[17.446,43.604],[17.117,43.441],[16.947,43.295]]]]}}],"metadata":{"generatedBy":"scripts/build-fief-flat.ts","input":"data/sovereign_fiefs_1200.geojson","year":1200,"cutPolicy":"keep-smaller","containmentCoverageThreshold":0.9,"minOverlapAreaM2":1000,"sliverAreaLimitM2":1000000000,"resolutions":[],"externalInputs":["data/france_fiefs_flat_1200.geojson","data/italy_fiefs_flat_1200.geojson","data/hre_fiefs_flat_1200.geojson","data/cliopatria_fiefs_flat_1200.geojson","data/britain_fiefs_flat_1200.geojson"],"externalRemovals":[],"source":"OpenHistoricalMap","sourceUrl":"https://www.openhistoricalmap.org/","license":"CC0-1.0","borderPrecision":"史料に基づく復元（概略。測量された境界ではない）"}}