{"type":"FeatureCollection","features":[{"type":"Feature","properties":{"NAME":"Knights Hospitaller","ADMIN_LEVEL":2,"OHM_RELATION_ID":2861790,"START_DATE":"1530","END_DATE":"1651"},"geometry":{"type":"MultiPolygon","coordinates":[[[[14.461,35.995],[14.426,36.004],[14.34,36.095],[14.265,36.122],[14.224,36.125],[14.168,36.115],[14.151,36.107],[14.133,36.082],[14.139,36.017],[14.2,35.982],[14.264,35.968],[14.28,35.924],[14.276,35.892],[14.289,35.861],[14.334,35.824],[14.395,35.789],[14.505,35.764],[14.552,35.767],[14.593,35.784],[14.625,35.832],[14.624,35.886],[14.532,35.958],[14.461,35.995]]]]}},{"type":"Feature","properties":{"NAME":"Principality of Wallachia","ADMIN_LEVEL":4,"OHM_RELATION_ID":2929115,"START_DATE":"1420","END_DATE":"1538"},"geometry":{"type":"Polygon","coordinates":[[[22.422,44.795],[22.429,44.761],[22.464,44.744],[22.472,44.724],[22.468,44.714],[22.602,44.622],[22.702,44.608],[22.757,44.562],[22.763,44.539],[22.695,44.518],[22.635,44.55],[22.588,44.552],[22.563,44.534],[22.557,44.499],[22.539,44.48],[22.474,44.482],[22.457,44.477],[22.456,44.468],[22.499,44.411],[22.509,44.372],[22.529,44.337],[22.558,44.31],[22.612,44.293],[22.661,44.288],[22.681,44.278],[22.683,44.249],[22.672,44.222],[22.688,44.208],[22.758,44.193],[22.789,44.166],[22.864,44.137],[22.924,44.1],[22.993,44.098],[23.03,44.087],[23.043,44.075],[23.042,44.053],[23.006,44.011],[22.944,44.007],[22.88,43.983],[22.836,43.876],[22.869,43.837],[22.9,43.826],[23.065,43.796],[23.138,43.805],[23.268,43.846],[23.414,43.853],[23.495,43.834],[23.554,43.804],[23.607,43.792],[23.702,43.806],[23.778,43.8],[23.818,43.771],[23.852,43.759],[23.979,43.743],[24.058,43.719],[24.087,43.703],[24.175,43.681],[24.294,43.698],[24.35,43.697],[24.501,43.762],[24.611,43.745],[24.724,43.707],[24.778,43.706],[24.846,43.709],[24.827,43.746],[24.858,43.759],[24.907,43.759],[24.918,43.738],[24.966,43.722],[25.008,43.725],[25.021,43.71],[25.09,43.687],[25.112,43.684],[25.18,43.698],[25.243,43.686],[25.343,43.63],[25.394,43.618],[25.492,43.649],[25.561,43.648],[25.667,43.69],[25.73,43.69],[25.78,43.709],[25.809,43.748],[25.839,43.767],[25.864,43.769],[25.865,43.782],[25.888,43.793],[25.954,43.859],[25.925,43.883],[25.933,43.912],[25.964,43.925],[26.03,43.918],[26.073,43.926],[26.107,43.97],[26.144,43.983],[26.197,43.985],[26.336,44.033],[26.601,44.052],[26.702,44.078],[26.763,44.078],[26.917,44.138],[26.992,44.134],[27.066,44.149],[27.23,44.115],[27.315,44.14],[27.36,44.127],[27.394,44.132],[27.452,44.124],[27.525,44.169],[27.596,44.197],[27.637,44.206],[27.723,44.196],[27.776,44.232],[27.848,44.258],[27.914,44.247],[27.935,44.25],[28.009,44.32],[28.028,44.37],[28.076,44.416],[28.11,44.435],[28.088,44.491],[28.053,44.51],[28.036,44.549],[28.014,44.572],[28.014,44.583],[28.035,44.612],[28.018,44.647],[27.973,44.676],[27.942,44.679],[27.89,44.703],[27.871,44.725],[27.882,44.765],[27.92,44.789],[27.944,44.791],[28.007,44.768],[28.035,44.795],[28.042,44.773],[28.031,44.749],[28.07,44.762],[28.086,44.779],[28.084,44.8],[28.096,44.812],[28.093,44.822],[28.117,44.861],[28.122,44.896],[28.138,44.911],[28.156,44.959],[28.137,44.994],[28.132,45.015],[28.15,45.034],[28.125,45.092],[28.131,45.104],[28.174,45.106],[28.172,45.124],[28.197,45.136],[28.153,45.165],[28.095,45.189],[28.112,45.22],[28.127,45.23],[28.12,45.254],[28.043,45.26],[27.995,45.288],[28.026,45.356],[28.026,45.395],[28.002,45.402],[27.972,45.386],[27.974,45.398],[27.892,45.417],[27.88,45.414],[27.882,45.406],[27.861,45.413],[27.85,45.399],[27.838,45.4],[27.839,45.415],[27.829,45.417],[27.815,45.398],[27.772,45.417],[27.736,45.418],[27.746,45.432],[27.741,45.449],[27.714,45.446],[27.715,45.459],[27.697,45.458],[27.698,45.473],[27.662,45.476],[27.663,45.49],[27.654,45.491],[27.657,45.473],[27.651,45.472],[27.649,45.486],[27.645,45.47],[27.63,45.476],[27.631,45.467],[27.62,45.466],[27.625,45.472],[27.617,45.478],[27.612,45.466],[27.578,45.486],[27.579,45.495],[27.572,45.487],[27.561,45.499],[27.544,45.501],[27.552,45.521],[27.529,45.517],[27.541,45.511],[27.537,45.503],[27.515,45.514],[27.483,45.503],[27.488,45.531],[27.47,45.529],[27.468,45.537],[27.483,45.542],[27.467,45.548],[27.481,45.55],[27.472,45.554],[27.483,45.557],[27.465,45.565],[27.447,45.557],[27.419,45.576],[27.433,45.582],[27.425,45.584],[27.43,45.59],[27.451,45.595],[27.42,45.596],[27.424,45.603],[27.416,45.615],[27.423,45.619],[27.379,45.609],[27.374,45.619],[27.331,45.634],[27.314,45.629],[27.29,45.653],[27.263,45.657],[27.26,45.682],[27.247,45.69],[27.16,45.696],[27.12,45.715],[27.124,45.723],[27.091,45.742],[27.028,45.768],[26.981,45.762],[26.961,45.769],[26.935,45.759],[26.91,45.781],[26.87,45.794],[26.855,45.791],[26.855,45.779],[26.836,45.755],[26.807,45.736],[26.816,45.712],[26.787,45.703],[26.766,45.711],[26.734,45.664],[26.631,45.647],[26.594,45.62],[26.579,45.634],[26.552,45.63],[26.541,45.642],[26.53,45.642],[26.486,45.689],[26.489,45.694],[26.466,45.705],[26.458,45.726],[26.437,45.739],[26.444,45.753],[26.438,45.766],[26.418,45.769],[26.422,45.753],[26.407,45.737],[26.427,45.728],[26.424,45.698],[26.471,45.657],[26.378,45.652],[26.349,45.64],[26.348,45.604],[26.336,45.592],[26.281,45.622],[26.25,45.61],[26.24,45.62],[26.219,45.622],[26.186,45.609],[26.172,45.563],[26.155,45.581],[26.143,45.581],[26.096,45.518],[26.066,45.504],[26.065,45.485],[26.041,45.478],[26.014,45.49],[25.995,45.514],[25.938,45.513],[25.924,45.523],[25.89,45.485],[25.896,45.482],[25.889,45.448],[25.867,45.436],[25.868,45.424],[25.823,45.431],[25.826,45.44],[25.812,45.466],[25.786,45.481],[25.766,45.465],[25.726,45.465],[25.7,45.483],[25.699,45.504],[25.675,45.526],[25.644,45.535],[25.648,45.527],[25.638,45.506],[25.625,45.499],[25.596,45.515],[25.536,45.509],[25.526,45.499],[25.511,45.502],[25.515,45.472],[25.411,45.428],[25.405,45.388],[25.368,45.391],[25.322,45.381],[25.309,45.392],[25.31,45.431],[25.288,45.439],[25.273,45.432],[25.274,45.443],[25.257,45.452],[25.238,45.477],[25.242,45.499],[25.237,45.516],[25.214,45.526],[25.192,45.522],[25.106,45.583],[25.078,45.581],[25.034,45.592],[24.998,45.586],[24.959,45.593],[24.938,45.582],[24.917,45.594],[24.838,45.591],[24.83,45.606],[24.794,45.603],[24.771,45.611],[24.74,45.604],[24.696,45.605],[24.673,45.594],[24.626,45.603],[24.598,45.596],[24.571,45.577],[24.556,45.586],[24.522,45.581],[24.511,45.586],[24.481,45.574],[24.446,45.591],[24.433,45.581],[24.385,45.584],[24.287,45.561],[24.257,45.545],[24.23,45.547],[24.203,45.523],[24.171,45.515],[24.085,45.513],[24.023,45.53],[24.001,45.526],[23.98,45.533],[23.986,45.495],[23.981,45.486],[23.939,45.496],[23.932,45.458],[23.879,45.459],[23.862,45.473],[23.824,45.476],[23.743,45.431],[23.702,45.425],[23.693,45.437],[23.691,45.471],[23.708,45.486],[23.709,45.504],[23.688,45.518],[23.662,45.509],[23.649,45.527],[23.641,45.527],[23.625,45.521],[23.631,45.512],[23.615,45.507],[23.591,45.513],[23.575,45.509],[23.596,45.491],[23.598,45.477],[23.594,45.45],[23.575,45.428],[23.594,45.421],[23.591,45.4],[23.602,45.387],[23.586,45.367],[23.589,45.356],[23.494,45.316],[23.46,45.323],[23.431,45.308],[23.401,45.337],[23.357,45.339],[23.336,45.329],[23.331,45.314],[23.312,45.301],[23.291,45.31],[23.249,45.309],[23.231,45.301],[23.176,45.298],[23.144,45.282],[23.097,45.292],[23.087,45.284],[23.001,45.282],[22.973,45.271],[22.909,45.278],[22.875,45.265],[22.84,45.276],[22.834,45.285],[22.778,45.261],[22.772,45.27],[22.73,45.253],[22.701,45.257],[22.673,45.239],[22.603,45.214],[22.56,45.16],[22.577,45.138],[22.65,45.125],[22.656,45.105],[22.593,45.048],[22.569,45.039],[22.531,44.996],[22.502,44.98],[22.509,44.962],[22.485,44.935],[22.494,44.921],[22.482,44.903],[22.486,44.883],[22.422,44.795]]]}}],"metadata":{"generatedBy":"scripts/build-fief-flat.ts","input":"data/sovereign_fiefs_1530.geojson","year":1530,"cutPolicy":"keep-smaller","containmentCoverageThreshold":0.9,"minOverlapAreaM2":1000,"sliverAreaLimitM2":1000000000,"resolutions":[],"externalInputs":["data/britain_fiefs_flat_1530.geojson"],"externalRemovals":[],"source":"OpenHistoricalMap","sourceUrl":"https://www.openhistoricalmap.org/","license":"CC0-1.0","borderPrecision":"史料に基づく復元（概略。測量された境界ではない）"}}