{"type":"FeatureCollection","features":[{"type":"Feature","properties":{"NAME":"Andorra","ADMIN_LEVEL":2,"OHM_RELATION_ID":2739874,"START_DATE":"1278","END_DATE":null},"geometry":{"type":"MultiPolygon","coordinates":[[[[1.787,42.574],[1.731,42.588],[1.728,42.601],[1.736,42.618],[1.715,42.615],[1.683,42.625],[1.66,42.621],[1.637,42.63],[1.6,42.626],[1.549,42.656],[1.516,42.646],[1.48,42.651],[1.468,42.631],[1.473,42.61],[1.445,42.604],[1.427,42.586],[1.444,42.569],[1.423,42.556],[1.414,42.537],[1.451,42.54],[1.465,42.508],[1.42,42.485],[1.439,42.477],[1.448,42.46],[1.443,42.444],[1.452,42.437],[1.517,42.429],[1.552,42.433],[1.56,42.458],[1.579,42.45],[1.599,42.467],[1.655,42.467],[1.667,42.5],[1.711,42.492],[1.726,42.505],[1.74,42.557],[1.787,42.574]]]]}},{"type":"Feature","properties":{"NAME":"Duchy of Athens","ADMIN_LEVEL":4,"OHM_RELATION_ID":2809440,"START_DATE":"1205","END_DATE":"1458"},"geometry":{"type":"MultiPolygon","coordinates":[[[[23.316,37.845],[23.339,37.824],[23.361,37.77],[23.414,37.729],[23.397,37.69],[23.399,37.674],[23.462,37.634],[23.478,37.631],[23.526,37.642],[23.566,37.666],[23.613,37.746],[23.617,37.776],[23.602,37.799],[23.577,37.811],[23.533,37.815],[23.504,37.848],[23.546,37.862],[23.58,37.892],[23.596,37.896],[23.668,37.88],[23.709,37.794],[23.701,37.781],[23.703,37.755],[23.725,37.73],[23.755,37.721],[23.789,37.727],[23.82,37.762],[23.834,37.763],[23.85,37.743],[23.841,37.706],[23.849,37.686],[23.886,37.665],[23.883,37.648],[23.895,37.622],[23.932,37.603],[23.966,37.602],[23.997,37.613],[24.033,37.607],[24.062,37.616],[24.105,37.603],[24.135,37.61],[24.155,37.628],[24.199,37.702],[24.207,37.74],[24.182,37.785],[24.138,37.798],[24.132,37.815],[24.113,37.832],[24.096,37.927],[24.066,37.96],[24.078,37.974],[24.084,37.999],[24.055,38.047],[24.048,38.082],[24.09,38.091],[24.108,38.109],[24.123,38.17],[24.12,38.191],[24.079,38.212],[24.033,38.285],[23.944,38.338],[23.648,38.388],[23.634,38.414],[23.581,38.451],[23.601,38.487],[23.593,38.52],[23.569,38.537],[23.508,38.542],[23.446,38.565],[23.387,38.646],[23.366,38.663],[23.104,38.789],[23.012,38.799],[22.974,38.757],[22.947,38.749],[22.574,38.706],[22.516,38.678],[22.483,38.599],[22.398,38.468],[22.399,38.451],[22.427,38.418],[22.456,38.346],[22.449,38.279],[22.423,38.249],[22.535,38.212],[22.635,38.205],[22.683,38.191],[22.72,38.171],[22.749,38.146],[22.801,38.031],[22.815,38.013],[22.86,37.989],[22.96,37.952],[23.013,37.915],[23.083,37.889],[23.134,37.886],[23.178,37.893],[23.197,37.869],[23.2,37.844],[23.259,37.868],[23.293,37.862],[23.316,37.845]]]]}},{"type":"Feature","properties":{"NAME":"Grand Duchy of Moscow","ADMIN_LEVEL":2,"OHM_RELATION_ID":2890623,"START_DATE":"1392","END_DATE":"1478"},"geometry":{"type":"MultiPolygon","coordinates":[[[[42.72,54.661],[42.704,54.896],[42.572,55.254],[42.517,55.634],[42.649,55.9],[42.935,56.194],[43.198,56.511],[43.374,56.759],[43.385,57.011],[43.352,57.291],[43.451,57.486],[43.824,57.751],[44.198,57.932],[43.572,57.979],[42.737,57.956],[42.396,57.967],[41.902,58.084],[42.407,58.488],[43.978,59.159],[44.725,59.579],[45.087,59.866],[44.523,59.859],[42.169,60.142],[41.215,60.312],[40.798,60.437],[40.381,60.693],[39.531,60.904],[38.921,60.998],[38.175,61.013],[36.7,60.875],[36.074,60.73],[35.687,60.657],[35.523,60.496],[35.598,60.26],[35.836,60.045],[36.417,58.856],[36.522,58.609],[36.673,58.216],[36.612,58.11],[37.095,57.823],[37.524,57.637],[37.952,57.492],[38.331,57.401],[38.128,57.276],[37.936,57.145],[37.782,57.029],[37.661,56.864],[37.535,56.659],[37.469,56.584],[37.397,56.55],[37.266,56.553],[37.106,56.596],[36.985,56.656],[36.799,56.668],[36.573,56.572],[36.293,56.298],[36.085,56.173],[35.837,56.164],[35.42,56.237],[35.041,56.292],[34.909,56.286],[34.761,56.146],[34.695,56.063],[34.568,55.945],[34.964,55.854],[35.313,55.637],[35.969,55.273],[36.178,54.997],[36.398,54.572],[36.486,54.368],[36.76,54.317],[37.167,54.553],[37.573,54.775],[38.386,54.99],[39.529,55.266],[39.644,55.213],[39.985,55.116],[40.474,54.959],[40.891,54.807],[41.468,54.74],[42.138,54.687],[42.72,54.661]]]]}},{"type":"Feature","properties":{"NAME":"Knights Hospitaller","ADMIN_LEVEL":2,"OHM_RELATION_ID":2861791,"START_DATE":"1310-08-15","END_DATE":"1522"},"geometry":{"type":"MultiPolygon","coordinates":[[[[27.432,37.028],[27.431,37.039],[27.42,37.039],[27.419,37.032],[27.432,37.028]]],[[[29.685,36.087],[29.672,36.11],[29.637,36.136],[29.623,36.133],[29.61,36.156],[29.614,36.174],[29.607,36.176],[29.569,36.174],[29.545,36.16],[29.515,36.184],[29.487,36.186],[29.471,36.183],[29.433,36.156],[29.435,36.14],[29.457,36.116],[29.511,36.109],[29.531,36.088],[29.548,36.082],[29.583,36.081],[29.605,36.069],[29.639,36.064],[29.685,36.087]]],[[[27.631,36.16],[27.634,36.136],[27.671,36.085],[27.706,36.07],[27.698,36.009],[27.665,35.94],[27.697,35.884],[27.705,35.853],[27.733,35.836],[27.76,35.833],[27.824,35.853],[27.903,35.899],[27.936,35.934],[27.982,36.006],[28.023,36.027],[28.07,36.012],[28.102,36.013],[28.135,36.035],[28.153,36.108],[28.139,36.134],[28.183,36.164],[28.196,36.201],[28.226,36.237],[28.232,36.277],[28.26,36.3],[28.267,36.34],[28.295,36.369],[28.3,36.383],[28.29,36.411],[28.288,36.464],[28.247,36.495],[28.209,36.5],[28.182,36.488],[28.164,36.467],[28.096,36.458],[27.891,36.38],[27.84,36.353],[27.811,36.318],[27.779,36.308],[27.724,36.328],[27.697,36.327],[27.612,36.29],[27.505,36.28],[27.472,36.259],[27.464,36.215],[27.471,36.19],[27.493,36.17],[27.523,36.164],[27.55,36.171],[27.576,36.163],[27.635,36.173],[27.631,36.16]]]]}},{"type":"Feature","properties":{"NAME":"Naples","ADMIN_LEVEL":2,"OHM_RELATION_ID":2750042,"START_DATE":"1302-08-31","END_DATE":"1442-06-02"},"geometry":{"type":"MultiPolygon","coordinates":[[[[13.526,41.481],[13.486,41.506],[13.441,41.481],[13.445,41.467],[13.428,41.454],[13.438,41.424],[13.424,41.397],[13.387,41.404],[13.366,41.397],[13.324,41.407],[13.259,41.397],[13.262,41.366],[13.274,41.347],[13.29,41.327],[13.306,41.333],[13.314,41.326],[13.281,41.297],[13.262,41.245],[13.298,41.257],[13.34,41.248],[13.476,41.188],[13.566,41.164],[13.621,41.175],[13.642,41.197],[13.644,41.21],[13.706,41.206],[13.786,41.147],[13.844,41.076],[13.875,41.006],[13.956,40.929],[13.982,40.886],[13.994,40.843],[13.989,40.807],[13.961,40.784],[13.877,40.802],[13.842,40.795],[13.817,40.779],[13.798,40.708],[13.819,40.678],[13.885,40.652],[13.972,40.663],[13.997,40.676],[14.015,40.699],[14.056,40.711],[14.079,40.738],[14.118,40.744],[14.135,40.758],[14.202,40.754],[14.256,40.784],[14.285,40.791],[14.36,40.729],[14.406,40.713],[14.357,40.674],[14.326,40.67],[14.296,40.652],[14.27,40.601],[14.188,40.6],[14.155,40.583],[14.144,40.546],[14.149,40.519],[14.188,40.496],[14.275,40.507],[14.306,40.528],[14.356,40.532],[14.459,40.576],[14.485,40.581],[14.528,40.567],[14.579,40.572],[14.64,40.602],[14.673,40.593],[14.716,40.598],[14.746,40.622],[14.766,40.627],[14.848,40.545],[14.944,40.388],[14.898,40.355],[14.885,40.315],[14.893,40.297],[14.854,40.263],[14.857,40.234],[14.875,40.212],[14.906,40.194],[14.964,40.181],[14.992,40.145],[15.019,40.133],[15.071,40.125],[15.106,40.133],[15.141,40.098],[15.178,40.084],[15.225,40.052],[15.215,40.021],[15.226,40.001],[15.248,39.986],[15.295,39.983],[15.338,39.962],[15.41,39.951],[15.446,39.955],[15.487,39.994],[15.522,40.01],[15.539,40.032],[15.584,40.034],[15.676,39.952],[15.691,39.92],[15.732,39.875],[15.716,39.833],[15.737,39.795],[15.765,39.665],[15.786,39.641],[15.833,39.527],[15.892,39.49],[15.949,39.421],[15.986,39.336],[16,39.284],[16.014,39.129],[16.045,39.023],[16.09,38.969],[16.115,38.926],[16.167,38.898],[16.169,38.861],[16.163,38.823],[16.14,38.776],[16.096,38.758],[16.04,38.769],[15.966,38.761],[15.922,38.731],[15.822,38.696],[15.785,38.658],[15.775,38.633],[15.779,38.602],[15.873,38.529],[15.859,38.489],[15.81,38.403],[15.785,38.375],[15.768,38.32],[15.731,38.297],[15.693,38.295],[15.68,38.262],[15.611,38.238],[15.597,38.182],[15.599,38.143],[15.578,38.104],[15.581,38.074],[15.596,38.048],[15.581,38.018],[15.598,37.974],[15.638,37.927],[15.745,37.877],[15.793,37.874],[15.917,37.886],[16.003,37.874],[16.08,37.884],[16.104,37.897],[16.147,37.939],[16.192,38.012],[16.214,38.115],[16.361,38.263],[16.513,38.313],[16.623,38.414],[16.635,38.471],[16.61,38.659],[16.613,38.681],[16.599,38.714],[16.647,38.784],[16.808,38.861],[16.955,38.896],[17.01,38.866],[17.048,38.87],[17.081,38.852],[17.112,38.853],[17.211,38.929],[17.224,38.954],[17.215,38.98],[17.255,39.008],[17.259,39.023],[17.249,39.054],[17.19,39.074],[17.188,39.096],[17.167,39.13],[17.197,39.187],[17.202,39.211],[17.196,39.229],[17.161,39.262],[17.163,39.304],[17.186,39.358],[17.209,39.388],[17.206,39.418],[17.175,39.44],[17.141,39.444],[17.088,39.47],[17.074,39.5],[17.057,39.517],[16.98,39.534],[16.903,39.57],[16.875,39.587],[16.857,39.616],[16.803,39.655],[16.757,39.666],[16.726,39.659],[16.633,39.662],[16.596,39.676],[16.578,39.686],[16.583,39.73],[16.576,39.744],[16.541,39.768],[16.55,39.808],[16.581,39.848],[16.643,39.901],[16.681,39.953],[16.681,39.977],[16.666,39.997],[16.657,40.04],[16.66,40.071],[16.735,40.127],[16.783,40.19],[16.831,40.281],[16.948,40.413],[17.023,40.46],[17.092,40.479],[17.099,40.475],[17.089,40.457],[17.094,40.433],[17.106,40.421],[17.147,40.405],[17.174,40.374],[17.223,40.36],[17.367,40.298],[17.413,40.291],[17.493,40.256],[17.675,40.264],[17.843,40.238],[17.865,40.213],[17.867,40.184],[17.885,40.157],[17.955,40.097],[17.925,40.074],[17.92,40.047],[17.947,40.017],[17.942,39.991],[17.95,39.973],[18.007,39.903],[18.146,39.815],[18.192,39.797],[18.252,39.794],[18.339,39.749],[18.393,39.758],[18.435,39.794],[18.443,39.811],[18.441,39.836],[18.451,39.874],[18.447,39.912],[18.46,39.965],[18.485,39.996],[18.514,40.016],[18.535,40.06],[18.571,40.095],[18.566,40.152],[18.535,40.179],[18.516,40.211],[18.513,40.243],[18.469,40.314],[18.425,40.342],[18.279,40.472],[18.228,40.503],[18.162,40.525],[18.097,40.575],[18.091,40.618],[18.073,40.634],[18.066,40.66],[18.03,40.695],[17.988,40.704],[17.955,40.723],[17.857,40.73],[17.836,40.746],[17.713,40.801],[17.524,40.856],[17.421,40.925],[17.391,40.936],[17.344,40.986],[17.121,41.1],[16.923,41.154],[16.898,41.177],[16.88,41.182],[16.824,41.184],[16.684,41.23],[16.639,41.235],[16.562,41.272],[16.483,41.297],[16.454,41.318],[16.342,41.351],[16.314,41.371],[16.274,41.37],[16.231,41.395],[16.035,41.467],[15.993,41.491],[15.955,41.545],[15.948,41.583],[15.977,41.61],[16.068,41.646],[16.133,41.692],[16.198,41.724],[16.234,41.754],[16.245,41.775],[16.253,41.825],[16.234,41.862],[16.237,41.891],[16.225,41.912],[16.181,41.942],[16.107,41.977],[16.018,41.989],[15.763,41.957],[15.697,41.954],[15.648,41.966],[15.607,41.967],[15.404,41.94],[15.383,41.941],[15.35,41.956],[15.177,41.961],[15.114,41.974],[15.032,42.038],[14.913,42.06],[14.784,42.112],[14.776,42.116],[14.766,42.187],[14.743,42.209],[14.647,42.234],[14.555,42.276],[14.539,42.301],[14.477,42.343],[14.472,42.368],[14.46,42.38],[14.298,42.469],[14.16,42.579],[14.041,42.731],[14.028,42.766],[13.995,42.815],[13.968,42.911],[13.916,42.895],[13.878,42.895],[13.772,42.859],[13.775,42.848],[13.752,42.814],[13.726,42.834],[13.722,42.853],[13.707,42.849],[13.698,42.822],[13.664,42.807],[13.636,42.804],[13.623,42.816],[13.57,42.801],[13.534,42.815],[13.528,42.795],[13.504,42.775],[13.505,42.748],[13.489,42.734],[13.447,42.731],[13.438,42.7],[13.424,42.705],[13.39,42.687],[13.354,42.695],[13.287,42.74],[13.266,42.74],[13.255,42.722],[13.189,42.734],[13.191,42.711],[13.175,42.691],[13.175,42.667],[13.147,42.647],[13.131,42.66],[13.121,42.659],[13.11,42.643],[13.065,42.625],[13.038,42.629],[13.027,42.64],[13.006,42.616],[12.954,42.62],[12.938,42.616],[12.932,42.605],[12.896,42.616],[12.881,42.609],[12.9,42.552],[12.915,42.545],[12.912,42.532],[12.927,42.52],[12.927,42.508],[12.907,42.49],[12.866,42.482],[12.872,42.464],[12.865,42.457],[12.907,42.439],[12.906,42.397],[12.897,42.39],[12.915,42.381],[12.929,42.357],[12.961,42.354],[12.991,42.326],[12.999,42.294],[13.062,42.266],[13.059,42.253],[13.068,42.252],[13.054,42.21],[13.073,42.183],[13.088,42.178],[13.088,42.147],[13.044,42.117],[13.032,42.123],[13.034,42.108],[13.019,42.076],[13.033,42.047],[13.066,42.013],[13.102,42.009],[13.101,42.027],[13.141,42.016],[13.2,41.987],[13.231,41.983],[13.285,41.953],[13.309,41.952],[13.345,41.923],[13.364,41.925],[13.384,41.904],[13.36,41.871],[13.367,41.863],[13.367,41.834],[13.381,41.817],[13.409,41.837],[13.453,41.823],[13.471,41.806],[13.507,41.8],[13.52,41.776],[13.503,41.728],[13.512,41.698],[13.526,41.67],[13.554,41.654],[13.562,41.641],[13.542,41.629],[13.539,41.619],[13.553,41.599],[13.543,41.59],[13.52,41.588],[13.507,41.575],[13.539,41.556],[13.54,41.544],[13.53,41.533],[13.544,41.525],[13.547,41.511],[13.526,41.481]],[[14.848,41.164],[14.854,41.163],[14.843,41.15],[14.855,41.149],[14.87,41.134],[14.866,41.12],[14.834,41.103],[14.831,41.093],[14.811,41.102],[14.799,41.091],[14.774,41.091],[14.76,41.1],[14.714,41.105],[14.711,41.115],[14.726,41.13],[14.709,41.143],[14.717,41.149],[14.713,41.163],[14.721,41.169],[14.724,41.194],[14.738,41.19],[14.75,41.198],[14.742,41.205],[14.749,41.222],[14.791,41.215],[14.796,41.2],[14.816,41.193],[14.816,41.187],[14.832,41.188],[14.848,41.164]]]]}},{"type":"Feature","properties":{"NAME":"Principality of Achaea","ADMIN_LEVEL":2,"OHM_RELATION_ID":2809441,"START_DATE":"1205","END_DATE":"1432"},"geometry":{"type":"MultiPolygon","coordinates":[[[[22.118,38.308],[22.095,38.307],[21.978,38.351],[21.901,38.349],[21.85,38.358],[21.748,38.31],[21.568,38.254],[21.52,38.246],[21.378,38.273],[21.343,38.264],[21.345,38.256],[21.327,38.241],[21.317,38.215],[21.315,38.141],[21.294,38.118],[21.264,38.056],[21.22,38.005],[21.175,37.975],[21.157,37.983],[21.123,37.984],[21.081,37.961],[21.055,37.887],[21.053,37.842],[21.064,37.822],[21.085,37.806],[21.194,37.776],[21.25,37.745],[21.26,37.708],[21.249,37.682],[21.252,37.635],[21.267,37.609],[21.283,37.597],[21.317,37.59],[21.364,37.615],[21.378,37.608],[21.514,37.524],[21.571,37.464],[21.611,37.403],[21.644,37.319],[21.629,37.291],[21.562,37.246],[21.531,37.214],[21.513,37.171],[21.522,37.098],[21.495,37.08],[21.486,37.062],[21.488,37.044],[21.515,37.002],[21.546,36.991],[21.572,36.995],[21.602,36.967],[21.601,36.938],[21.651,36.808],[21.64,36.782],[21.638,36.738],[21.651,36.712],[21.668,36.7],[21.703,36.695],[21.757,36.659],[21.794,36.658],[21.811,36.665],[21.829,36.686],[21.852,36.654],[21.883,36.647],[21.915,36.654],[21.938,36.674],[21.942,36.708],[21.969,36.727],[22.019,36.785],[22.015,36.814],[21.985,36.835],[21.978,36.863],[21.987,36.963],[22.049,36.984],[22.092,36.982],[22.073,36.913],[22.076,36.9],[22.087,36.885],[22.132,36.858],[22.163,36.848],[22.193,36.849],[22.214,36.816],[22.247,36.79],[22.253,36.752],[22.273,36.735],[22.308,36.671],[22.319,36.573],[22.293,36.524],[22.298,36.495],[22.318,36.462],[22.35,36.436],[22.408,36.422],[22.421,36.387],[22.445,36.355],[22.494,36.343],[22.523,36.356],[22.552,36.387],[22.557,36.482],[22.554,36.505],[22.531,36.536],[22.534,36.564],[22.56,36.579],[22.601,36.635],[22.604,36.662],[22.594,36.693],[22.627,36.721],[22.629,36.757],[22.651,36.764],[22.741,36.763],[22.762,36.716],[22.751,36.679],[22.758,36.654],[22.785,36.622],[22.819,36.612],[22.85,36.577],[22.883,36.561],[22.903,36.527],[22.876,36.5],[22.873,36.461],[22.885,36.439],[22.919,36.42],[22.88,36.404],[22.837,36.319],[22.847,36.295],[22.861,36.283],[22.861,36.265],[22.848,36.23],[22.856,36.193],[22.902,36.13],[22.944,36.109],[22.944,36.083],[22.958,36.062],[22.993,36.048],[23.013,36.05],[23.033,36.058],[23.053,36.087],[23.094,36.11],[23.111,36.145],[23.101,36.176],[23.15,36.188],[23.172,36.23],[23.161,36.263],[23.115,36.308],[23.033,36.346],[22.993,36.412],[23.032,36.43],[23.064,36.402],[23.122,36.385],[23.212,36.394],[23.248,36.419],[23.254,36.457],[23.239,36.483],[23.198,36.515],[23.206,36.534],[23.194,36.563],[23.158,36.594],[23.115,36.61],[23.082,36.649],[23.104,36.666],[23.112,36.692],[23.138,36.718],[23.144,36.738],[23.157,36.752],[23.163,36.782],[23.142,36.81],[23.132,36.845],[23.103,36.865],[23.073,36.937],[23.059,36.983],[23.058,37.028],[23.038,37.067],[23.035,37.094],[22.999,37.143],[22.955,37.161],[22.964,37.199],[22.907,37.294],[22.881,37.32],[22.872,37.347],[22.826,37.397],[22.824,37.434],[22.787,37.493],[22.839,37.465],[22.916,37.447],[22.917,37.416],[22.944,37.392],[22.976,37.387],[23.01,37.394],[23.015,37.338],[23.033,37.319],[23.057,37.31],[23.038,37.279],[23.058,37.239],[23.091,37.206],[23.153,37.175],[23.181,37.172],[23.214,37.182],[23.231,37.203],[23.232,37.227],[23.222,37.252],[23.237,37.229],[23.271,37.218],[23.308,37.225],[23.334,37.248],[23.358,37.24],[23.391,37.243],[23.401,37.226],[23.429,37.211],[23.457,37.21],[23.491,37.225],[23.504,37.25],[23.5,37.273],[23.538,37.286],[23.556,37.309],[23.602,37.323],[23.631,37.352],[23.631,37.38],[23.621,37.393],[23.587,37.409],[23.598,37.431],[23.599,37.453],[23.571,37.481],[23.584,37.497],[23.586,37.525],[23.56,37.555],[23.538,37.564],[23.533,37.579],[23.512,37.596],[23.465,37.6],[23.462,37.634],[23.399,37.674],[23.397,37.69],[23.414,37.729],[23.361,37.77],[23.339,37.824],[23.306,37.855],[23.259,37.868],[23.2,37.844],[23.197,37.869],[23.179,37.893],[23.134,37.886],[23.059,37.895],[23.007,37.918],[22.96,37.952],[22.832,38],[22.801,38.031],[22.749,38.146],[22.683,38.191],[22.635,38.205],[22.535,38.212],[22.423,38.249],[22.167,38.282],[22.118,38.308]]]]}},{"type":"Feature","properties":{"NAME":"San Marino","ADMIN_LEVEL":2,"OHM_RELATION_ID":2692734,"START_DATE":"1320","END_DATE":"1463-06-27"},"geometry":{"type":"MultiPolygon","coordinates":[[[[12.465,43.958],[12.462,43.969],[12.407,43.954],[12.405,43.943],[12.415,43.929],[12.408,43.921],[12.411,43.901],[12.433,43.901],[12.438,43.915],[12.482,43.926],[12.484,43.932],[12.458,43.945],[12.465,43.958]]]]}},{"type":"Feature","properties":{"NAME":"Savoy","ADMIN_LEVEL":3,"OHM_RELATION_ID":2893918,"START_DATE":"1388","END_DATE":"1401"},"geometry":{"type":"MultiPolygon","coordinates":[[[[4.816,46.25],[4.931,46.197],[4.927,46.154],[5.066,46.135],[5.109,46.098],[5.175,46.096],[5.164,46.185],[5.214,46.181],[5.267,46.085],[5.301,46.05],[5.21,45.981],[5.217,45.955],[5.271,45.943],[5.283,45.905],[5.232,45.878],[5.192,45.834],[5.167,45.787],[5.19,45.768],[5.236,45.772],[5.291,45.808],[5.303,45.842],[5.35,45.881],[5.411,45.862],[5.425,45.85],[5.417,45.825],[5.422,45.808],[5.51,45.769],[5.52,45.739],[5.545,45.713],[5.556,45.679],[5.603,45.621],[5.623,45.613],[5.733,45.473],[5.74,45.439],[5.793,45.438],[5.816,45.422],[5.897,45.4],[5.905,45.432],[5.92,45.444],[5.924,45.464],[5.915,45.477],[5.968,45.492],[6.009,45.473],[6.011,45.45],[6.049,45.438],[6.094,45.445],[6.096,45.432],[6.122,45.439],[6.176,45.395],[6.201,45.361],[6.185,45.318],[6.157,45.31],[6.131,45.286],[6.134,45.23],[6.163,45.191],[6.147,45.158],[6.157,45.15],[6.189,45.167],[6.221,45.143],[6.25,45.149],[6.267,45.139],[6.259,45.128],[6.296,45.108],[6.336,45.121],[6.363,45.103],[6.375,45.084],[6.365,45.07],[6.396,45.061],[6.436,45.063],[6.452,45.052],[6.487,45.056],[6.479,45.095],[6.511,45.109],[6.532,45.098],[6.55,45.098],[6.558,45.08],[6.594,45.07],[6.608,45.052],[6.639,45.055],[6.647,45.027],[6.671,45.02],[6.722,45.022],[6.747,45.008],[6.795,45.014],[7.015,44.879],[7.001,44.842],[7.01,44.826],[7.02,44.825],[7.02,44.815],[7.001,44.792],[7.019,44.777],[7.024,44.74],[7.044,44.718],[7.088,44.715],[7.149,44.743],[7.217,44.715],[7.264,44.715],[7.288,44.706],[7.311,44.684],[7.336,44.681],[7.341,44.706],[7.426,44.725],[7.451,44.739],[7.448,44.755],[7.478,44.758],[7.469,44.657],[7.508,44.65],[7.5,44.624],[7.436,44.562],[7.425,44.525],[7.381,44.529],[7.357,44.503],[7.376,44.467],[7.377,44.39],[7.43,44.399],[7.454,44.334],[7.41,44.321],[7.331,44.272],[7.28,44.287],[7.223,44.286],[7.197,44.275],[7.149,44.19],[7.126,44.175],[7.03,44.225],[6.964,44.238],[6.961,44.286],[6.919,44.339],[6.88,44.36],[6.814,44.37],[6.794,44.503],[6.78,44.538],[6.741,44.531],[6.678,44.545],[6.612,44.523],[6.606,44.488],[6.459,44.445],[6.478,44.397],[6.514,44.358],[6.5,44.233],[6.522,44.214],[6.611,44.219],[6.688,44.166],[6.667,44.112],[6.704,44.063],[6.877,44.093],[6.901,44.07],[6.872,44.036],[6.879,43.999],[6.772,43.922],[6.818,43.881],[6.729,43.866],[6.691,43.818],[6.736,43.793],[6.801,43.777],[6.887,43.798],[6.928,43.792],[7.042,43.818],[7.068,43.788],[7.122,43.773],[7.123,43.624],[7.209,43.61],[7.241,43.618],[7.274,43.648],[7.344,43.64],[7.385,43.66],[7.399,43.68],[7.428,43.688],[7.413,43.733],[7.435,43.75],[7.428,43.758],[7.436,43.761],[7.435,43.774],[7.472,43.777],[7.479,43.787],[7.468,43.825],[7.485,43.824],[7.493,43.797],[7.518,43.803],[7.495,43.855],[7.497,43.87],[7.512,43.884],[7.554,43.896],[7.579,43.891],[7.585,43.873],[7.604,43.862],[7.614,43.839],[7.652,43.845],[7.687,43.833],[7.714,43.839],[7.71,43.855],[7.735,43.876],[7.728,43.904],[7.743,43.91],[7.759,43.943],[7.752,43.958],[7.67,43.998],[7.662,44.027],[7.703,44.043],[7.711,44.06],[7.728,44.06],[7.736,44.076],[7.758,44.084],[7.733,44.084],[7.722,44.104],[7.715,44.104],[7.726,44.126],[7.765,44.144],[7.797,44.129],[7.882,44.114],[7.884,44.106],[7.926,44.112],[7.943,44.101],[7.971,44.113],[8.004,44.102],[8.016,44.111],[8.005,44.114],[8.011,44.122],[7.979,44.136],[7.983,44.141],[8.014,44.156],[8.043,44.143],[8.07,44.146],[8.095,44.177],[8.151,44.165],[8.187,44.178],[8.17,44.214],[8.148,44.206],[8.076,44.204],[8.067,44.215],[8.077,44.235],[8.063,44.253],[8.089,44.275],[8.102,44.281],[8.156,44.272],[8.212,44.325],[8.223,44.323],[8.235,44.306],[8.232,44.295],[8.254,44.299],[8.267,44.352],[8.289,44.367],[8.316,44.346],[8.316,44.327],[8.272,44.318],[8.271,44.302],[8.248,44.273],[8.272,44.272],[8.305,44.257],[8.329,44.282],[8.339,44.32],[8.355,44.332],[8.344,44.351],[8.377,44.408],[8.444,44.439],[8.464,44.469],[8.462,44.488],[8.448,44.499],[8.459,44.518],[8.471,44.522],[8.474,44.511],[8.576,44.507],[8.572,44.524],[8.587,44.525],[8.614,44.544],[8.597,44.555],[8.622,44.586],[8.593,44.594],[8.494,44.596],[8.451,44.634],[8.293,44.6],[8.244,44.474],[8.207,44.48],[8.172,44.504],[8.164,44.584],[8.142,44.659],[8.111,44.695],[8.072,44.711],[8.034,44.703],[7.99,44.74],[7.986,44.77],[8.03,44.812],[8.074,44.836],[8.126,44.845],[8.155,44.84],[8.186,44.809],[8.223,44.803],[8.246,44.82],[8.269,44.892],[8.238,44.957],[8.253,44.98],[8.207,44.981],[8.169,44.996],[8.145,45.038],[8.1,45.04],[8.085,45.052],[8.085,45.087],[8.045,45.088],[8.021,45.11],[8.022,45.124],[8.061,45.153],[8.05,45.18],[8.005,45.179],[7.979,45.143],[7.898,45.139],[7.885,45.114],[7.827,45.14],[7.85,45.173],[7.873,45.183],[7.852,45.202],[7.848,45.228],[7.791,45.251],[7.732,45.322],[7.738,45.342],[7.765,45.366],[7.806,45.361],[7.824,45.341],[7.866,45.343],[7.906,45.334],[7.92,45.314],[7.963,45.312],[7.968,45.324],[7.953,45.338],[7.966,45.357],[7.998,45.368],[8.037,45.363],[8.072,45.378],[8.07,45.403],[8.06,45.419],[8.07,45.454],[8.057,45.472],[8.008,45.476],[7.964,45.531],[7.977,45.562],[7.971,45.593],[7.932,45.637],[7.938,45.725],[7.927,45.735],[7.931,45.74],[7.889,45.757],[7.862,45.791],[7.862,45.82],[7.873,45.827],[7.863,45.839],[7.872,45.852],[7.868,45.905],[7.86,45.92],[7.822,45.927],[7.797,45.919],[7.751,45.94],[7.735,45.924],[7.721,45.923],[7.71,45.948],[7.681,45.957],[7.666,45.974],[7.589,45.971],[7.579,45.986],[7.567,45.987],[7.547,45.985],[7.54,45.956],[7.499,45.962],[7.474,45.949],[7.475,45.937],[7.445,45.932],[7.386,45.897],[7.344,45.915],[7.324,45.91],[7.294,45.922],[7.259,45.891],[7.22,45.889],[7.202,45.876],[7.195,45.86],[7.173,45.864],[7.157,45.879],[7.118,45.859],[7.104,45.859],[7.064,45.9],[7.063,45.911],[7.043,45.923],[7.035,45.956],[7.011,45.967],[7.024,45.978],[7.008,45.999],[6.984,46.006],[6.933,46.074],[6.948,46.101],[6.982,46.123],[6.984,46.174],[6.959,46.212],[6.981,46.245],[6.998,46.254],[6.958,46.279],[6.947,46.306],[6.919,46.34],[6.892,46.349],[6.89,46.366],[6.866,46.377],[6.864,46.393],[6.821,46.427],[6.675,46.453],[6.567,46.458],[6.571,46.555],[6.601,46.562],[6.662,46.549],[6.737,46.544],[6.777,46.554],[6.829,46.581],[6.906,46.575],[6.932,46.588],[6.956,46.588],[7.013,46.628],[7.053,46.628],[7.081,46.637],[7.121,46.674],[7.152,46.684],[7.193,46.681],[7.25,46.66],[7.289,46.629],[7.331,46.619],[7.34,46.643],[7.386,46.686],[7.374,46.709],[7.347,46.724],[7.306,46.732],[7.25,46.72],[7.193,46.725],[7.066,46.709],[7.03,46.727],[6.983,46.736],[6.95,46.711],[6.904,46.691],[6.855,46.689],[6.825,46.701],[6.819,46.72],[6.839,46.743],[6.869,46.754],[6.951,46.756],[6.969,46.766],[6.958,46.785],[6.967,46.814],[7.002,46.822],[7.033,46.856],[6.919,46.934],[6.796,46.829],[6.674,46.781],[6.616,46.79],[6.604,46.777],[6.633,46.746],[6.631,46.726],[6.6,46.737],[6.586,46.766],[6.568,46.78],[6.541,46.788],[6.452,46.774],[6.43,46.756],[6.395,46.748],[6.385,46.732],[6.37,46.73],[6.372,46.724],[6.279,46.69],[6.228,46.648],[6.111,46.576],[6.16,46.543],[6.133,46.517],[6.122,46.493],[6.106,46.475],[6.052,46.456],[6.061,46.418],[6.024,46.384],[5.984,46.363],[5.942,46.31],[5.926,46.314],[5.908,46.285],[5.895,46.286],[5.871,46.265],[5.864,46.271],[5.823,46.262],[5.759,46.268],[5.727,46.261],[5.715,46.283],[5.723,46.294],[5.715,46.309],[5.685,46.314],[5.644,46.346],[5.605,46.316],[5.587,46.318],[5.579,46.33],[5.546,46.332],[5.513,46.318],[5.474,46.314],[5.467,46.297],[5.453,46.297],[5.443,46.265],[5.425,46.249],[5.404,46.264],[5.394,46.283],[5.403,46.332],[5.392,46.345],[5.359,46.355],[5.314,46.355],[5.307,46.376],[5.295,46.384],[5.301,46.401],[5.296,46.408],[5.302,46.423],[5.318,46.431],[5.317,46.449],[5.264,46.449],[5.223,46.465],[5.2,46.5],[5.111,46.497],[4.937,46.509],[4.918,46.489],[4.901,46.426],[4.878,46.399],[4.879,46.364],[4.853,46.318],[4.822,46.292],[4.816,46.25]],[[5.806,46.015],[5.812,46.079],[5.825,46.095],[5.82,46.103],[5.831,46.107],[5.858,46.086],[5.885,46.085],[5.891,46.088],[5.886,46.108],[5.894,46.119],[5.914,46.128],[5.978,46.134],[5.986,46.151],[6.039,46.164],[6.054,46.175],[6.057,46.18],[6.031,46.191],[6.031,46.199],[6.065,46.193],[6.092,46.211],[6.087,46.196],[6.094,46.192],[6.118,46.216],[6.112,46.219],[6.128,46.228],[6.167,46.224],[6.174,46.243],[6.193,46.24],[6.222,46.216],[6.201,46.208],[6.172,46.182],[6.224,46.181],[6.254,46.151],[6.31,46.144],[6.366,46.088],[6.495,46],[6.528,45.94],[6.521,45.905],[6.54,45.847],[6.599,45.797],[6.647,45.807],[6.684,45.774],[6.685,45.752],[6.712,45.722],[6.634,45.63],[6.595,45.61],[6.519,45.639],[6.5,45.603],[6.455,45.595],[6.434,45.663],[6.389,45.712],[6.327,45.697],[6.298,45.719],[6.22,45.704],[6.158,45.755],[6.124,45.758],[6.042,45.733],[6.016,45.751],[5.99,45.75],[5.966,45.79],[5.889,45.864],[5.863,45.931],[5.826,45.938],[5.834,45.973],[5.809,45.989],[5.806,46.015]],[[6.142,46.272],[6.153,46.276],[6.182,46.263],[6.177,46.25],[6.155,46.254],[6.142,46.272]],[[6.246,46.256],[6.25,46.262],[6.266,46.249],[6.295,46.265],[6.298,46.255],[6.306,46.256],[6.31,46.244],[6.291,46.224],[6.247,46.227],[6.254,46.248],[6.246,46.256]],[[6.584,46.678],[6.592,46.69],[6.627,46.697],[6.631,46.688],[6.684,46.689],[6.704,46.673],[6.733,46.67],[6.75,46.631],[6.687,46.63],[6.671,46.599],[6.658,46.589],[6.598,46.618],[6.584,46.678]]],[[[6.821,46.427],[6.917,46.418],[6.949,46.401],[6.981,46.406],[6.987,46.398],[7.001,46.397],[7.021,46.404],[7.004,46.421],[7.009,46.458],[6.933,46.517],[6.884,46.487],[6.821,46.427]]]]}}],"metadata":{"source":"OpenHistoricalMap","sourceUrl":"https://www.openhistoricalmap.org/","license":"CC0-1.0","year":1400,"featureCount":8,"missingWays":{},"unclosedRings":{},"droppedInnerRings":{},"tagDrift":{},"relationsWithoutGeometry":[],"borderPrecision":"史料に基づく復元（概略。測量された境界ではない）"}}